{"type":"FeatureCollection","features":[{"type":"Feature","properties":{"date":"2025-01-22","day_of_year":22,"center":[-72.541205,-8.0915749]},"geometry":{"type":"Polygon","coordinates":[[[-72.5389592,-8.0893291],[-72.5389592,-8.0938207],[-72.5434508,-8.0938207],[-72.5434508,-8.0893291],[-72.5389592,-8.0893291]]]}},{"type":"Feature","properties":{"date":"2025-01-20","day_of_year":20,"center":[-72.5367134,-8.0915749]},"geometry":{"type":"Polygon","coordinates":[[[-72.5344676,-8.0893291],[-72.5344676,-8.0938207],[-72.5389592,-8.0938207],[-72.5389592,-8.0893291],[-72.5344676,-8.0893291]]]}},{"type":"Feature","properties":{"date":"2025-09-10","day_of_year":253,"center":[-73.0891773,-8.2218306]},"geometry":{"type":"Polygon","coordinates":[[[-73.0869315,-8.2195848],[-73.0869315,-8.2240764],[-73.0914231,-8.2240764],[-73.0914231,-8.2195848],[-73.0869315,-8.2195848]]]}},{"type":"Feature","properties":{"date":"2025-09-10","day_of_year":253,"center":[-73.0846857,-8.2218306]},"geometry":{"type":"Polygon","coordinates":[[[-73.0824399,-8.2195848],[-73.0824399,-8.2240764],[-73.0869315,-8.2240764],[-73.0869315,-8.2195848],[-73.0824399,-8.2195848]]]}},{"type":"Feature","properties":{"date":"2025-10-25","day_of_year":298,"center":[-70.1157537,-8.4329347]},"geometry":{"type":"Polygon","coordinates":[[[-70.1135079,-8.4306889],[-70.1135079,-8.4351805],[-70.1179995,-8.4351805],[-70.1179995,-8.4306889],[-70.1135079,-8.4306889]]]}},{"type":"Feature","properties":{"date":"2025-10-27","day_of_year":300,"center":[-70.1112621,-8.4329347]},"geometry":{"type":"Polygon","coordinates":[[[-70.1090163,-8.4306889],[-70.1090163,-8.4351805],[-70.1135079,-8.4351805],[-70.1135079,-8.4306889],[-70.1090163,-8.4306889]]]}},{"type":"Feature","properties":{"date":"2025-10-07","day_of_year":280,"center":[-70.1202453,-8.4374263]},"geometry":{"type":"Polygon","coordinates":[[[-70.1179995,-8.4351805],[-70.1179995,-8.4396721],[-70.1224911,-8.4396721],[-70.1224911,-8.4351805],[-70.1179995,-8.4351805]]]}},{"type":"Feature","properties":{"date":"2025-10-27","day_of_year":300,"center":[-70.1157537,-8.4374263]},"geometry":{"type":"Polygon","coordinates":[[[-70.1135079,-8.4351805],[-70.1135079,-8.4396721],[-70.1179995,-8.4396721],[-70.1179995,-8.4351805],[-70.1135079,-8.4351805]]]}},{"type":"Feature","properties":{"date":"2025-10-27","day_of_year":300,"center":[-70.1112621,-8.4374263]},"geometry":{"type":"Polygon","coordinates":[[[-70.1090163,-8.4351805],[-70.1090163,-8.4396721],[-70.1135079,-8.4396721],[-70.1135079,-8.4351805],[-70.1090163,-8.4351805]]]}},{"type":"Feature","properties":{"date":"2025-09-15","day_of_year":258,"center":[-72.7972248,-8.4419179]},"geometry":{"type":"Polygon","coordinates":[[[-72.794979,-8.4396721],[-72.794979,-8.4441637],[-72.7994706,-8.4441637],[-72.7994706,-8.4396721],[-72.794979,-8.4396721]]]}},{"type":"Feature","properties":{"date":"2025-10-07","day_of_year":280,"center":[-70.1247369,-8.4419179]},"geometry":{"type":"Polygon","coordinates":[[[-70.1224911,-8.4396721],[-70.1224911,-8.4441637],[-70.1269827,-8.4441637],[-70.1269827,-8.4396721],[-70.1224911,-8.4396721]]]}},{"type":"Feature","properties":{"date":"2025-10-07","day_of_year":280,"center":[-70.1202453,-8.4419179]},"geometry":{"type":"Polygon","coordinates":[[[-70.1179995,-8.4396721],[-70.1179995,-8.4441637],[-70.1224911,-8.4441637],[-70.1224911,-8.4396721],[-70.1179995,-8.4396721]]]}},{"type":"Feature","properties":{"date":"2025-10-07","day_of_year":280,"center":[-70.1157537,-8.4419179]},"geometry":{"type":"Polygon","coordinates":[[[-70.1135079,-8.4396721],[-70.1135079,-8.4441637],[-70.1179995,-8.4441637],[-70.1179995,-8.4396721],[-70.1135079,-8.4396721]]]}},{"type":"Feature","properties":{"date":"2025-09-18","day_of_year":261,"center":[-72.806208,-8.4464095]},"geometry":{"type":"Polygon","coordinates":[[[-72.8039622,-8.4441637],[-72.8039622,-8.4486552],[-72.8084538,-8.4486552],[-72.8084538,-8.4441637],[-72.8039622,-8.4441637]]]}},{"type":"Feature","properties":{"date":"2025-09-13","day_of_year":256,"center":[-72.8017164,-8.4464095]},"geometry":{"type":"Polygon","coordinates":[[[-72.7994706,-8.4441637],[-72.7994706,-8.4486552],[-72.8039622,-8.4486552],[-72.8039622,-8.4441637],[-72.7994706,-8.4441637]]]}},{"type":"Feature","properties":{"date":"2025-09-13","day_of_year":256,"center":[-72.7972248,-8.4464095]},"geometry":{"type":"Polygon","coordinates":[[[-72.794979,-8.4441637],[-72.794979,-8.4486552],[-72.7994706,-8.4486552],[-72.7994706,-8.4441637],[-72.794979,-8.4441637]]]}},{"type":"Feature","properties":{"date":"2025-09-03","day_of_year":246,"center":[-70.5514366,-8.7428535]},"geometry":{"type":"Polygon","coordinates":[[[-70.5491908,-8.7406077],[-70.5491908,-8.7450993],[-70.5536824,-8.7450993],[-70.5536824,-8.7406077],[-70.5491908,-8.7406077]]]}},{"type":"Feature","properties":{"date":"2025-09-03","day_of_year":246,"center":[-70.5514366,-8.7473451]},"geometry":{"type":"Polygon","coordinates":[[[-70.5491908,-8.7450993],[-70.5491908,-8.7495909],[-70.5536824,-8.7495909],[-70.5536824,-8.7450993],[-70.5491908,-8.7450993]]]}},{"type":"Feature","properties":{"date":"2025-09-15","day_of_year":258,"center":[-71.3689035,-8.832685]},"geometry":{"type":"Polygon","coordinates":[[[-71.3666577,-8.8304392],[-71.3666577,-8.8349308],[-71.3711493,-8.8349308],[-71.3711493,-8.8304392],[-71.3666577,-8.8304392]]]}},{"type":"Feature","properties":{"date":"2025-09-08","day_of_year":251,"center":[-71.364412,-8.832685]},"geometry":{"type":"Polygon","coordinates":[[[-71.3621662,-8.8304392],[-71.3621662,-8.8349308],[-71.3666577,-8.8349308],[-71.3666577,-8.8304392],[-71.3621662,-8.8304392]]]}},{"type":"Feature","properties":{"date":"2025-09-13","day_of_year":256,"center":[-70.4571135,-9.5198962]},"geometry":{"type":"Polygon","coordinates":[[[-70.4548677,-9.5176504],[-70.4548677,-9.522142],[-70.4593593,-9.522142],[-70.4593593,-9.5176504],[-70.4548677,-9.5176504]]]}},{"type":"Feature","properties":{"date":"2025-09-12","day_of_year":255,"center":[-70.4526219,-9.5198962]},"geometry":{"type":"Polygon","coordinates":[[[-70.4503762,-9.5176504],[-70.4503762,-9.522142],[-70.4548677,-9.522142],[-70.4548677,-9.5176504],[-70.4503762,-9.5176504]]]}},{"type":"Feature","properties":{"date":"2025-09-12","day_of_year":255,"center":[-70.4481304,-9.5198962]},"geometry":{"type":"Polygon","coordinates":[[[-70.4458846,-9.5176504],[-70.4458846,-9.522142],[-70.4503762,-9.522142],[-70.4503762,-9.5176504],[-70.4458846,-9.5176504]]]}},{"type":"Feature","properties":{"date":"2025-09-21","day_of_year":264,"center":[-70.4391472,-9.5198962]},"geometry":{"type":"Polygon","coordinates":[[[-70.4369014,-9.5176504],[-70.4369014,-9.522142],[-70.441393,-9.522142],[-70.441393,-9.5176504],[-70.4369014,-9.5176504]]]}},{"type":"Feature","properties":{"date":"2025-09-13","day_of_year":256,"center":[-70.4571135,-9.5243878]},"geometry":{"type":"Polygon","coordinates":[[[-70.4548677,-9.522142],[-70.4548677,-9.5266336],[-70.4593593,-9.5266336],[-70.4593593,-9.522142],[-70.4548677,-9.522142]]]}},{"type":"Feature","properties":{"date":"2025-09-13","day_of_year":256,"center":[-70.4526219,-9.5243878]},"geometry":{"type":"Polygon","coordinates":[[[-70.4503762,-9.522142],[-70.4503762,-9.5266336],[-70.4548677,-9.5266336],[-70.4548677,-9.522142],[-70.4503762,-9.522142]]]}},{"type":"Feature","properties":{"date":"2025-09-16","day_of_year":259,"center":[-70.4436388,-9.5243878]},"geometry":{"type":"Polygon","coordinates":[[[-70.441393,-9.522142],[-70.441393,-9.5266336],[-70.4458846,-9.5266336],[-70.4458846,-9.522142],[-70.441393,-9.522142]]]}},{"type":"Feature","properties":{"date":"2025-09-16","day_of_year":259,"center":[-70.4571135,-9.5288794]},"geometry":{"type":"Polygon","coordinates":[[[-70.4548677,-9.5266336],[-70.4548677,-9.5311252],[-70.4593593,-9.5311252],[-70.4593593,-9.5266336],[-70.4548677,-9.5266336]]]}},{"type":"Feature","properties":{"date":"2025-09-13","day_of_year":256,"center":[-70.4526219,-9.5288794]},"geometry":{"type":"Polygon","coordinates":[[[-70.4503762,-9.5266336],[-70.4503762,-9.5311252],[-70.4548677,-9.5311252],[-70.4548677,-9.5266336],[-70.4503762,-9.5266336]]]}},{"type":"Feature","properties":{"date":"2025-09-15","day_of_year":258,"center":[-67.0345323,-9.9061718]},"geometry":{"type":"Polygon","coordinates":[[[-67.0322865,-9.903926],[-67.0322865,-9.9084176],[-67.0367781,-9.9084176],[-67.0367781,-9.903926],[-67.0322865,-9.903926]]]}},{"type":"Feature","properties":{"date":"2025-09-15","day_of_year":258,"center":[-67.0300407,-9.9061718]},"geometry":{"type":"Polygon","coordinates":[[[-67.0277949,-9.903926],[-67.0277949,-9.9084176],[-67.0322865,-9.9084176],[-67.0322865,-9.903926],[-67.0277949,-9.903926]]]}},{"type":"Feature","properties":{"date":"2025-09-15","day_of_year":258,"center":[-67.0345323,-9.9106634]},"geometry":{"type":"Polygon","coordinates":[[[-67.0322865,-9.9084176],[-67.0322865,-9.9129092],[-67.0367781,-9.9129092],[-67.0367781,-9.9084176],[-67.0322865,-9.9084176]]]}},{"type":"Feature","properties":{"date":"2025-09-15","day_of_year":258,"center":[-67.0300407,-9.9106634]},"geometry":{"type":"Polygon","coordinates":[[[-67.0277949,-9.9084176],[-67.0277949,-9.9129092],[-67.0322865,-9.9129092],[-67.0322865,-9.9084176],[-67.0277949,-9.9084176]]]}},{"type":"Feature","properties":{"date":"2025-09-15","day_of_year":258,"center":[-67.0255491,-9.9106634]},"geometry":{"type":"Polygon","coordinates":[[[-67.0233033,-9.9084176],[-67.0233033,-9.9129092],[-67.0277949,-9.9129092],[-67.0277949,-9.9084176],[-67.0233033,-9.9084176]]]}},{"type":"Feature","properties":{"date":"2025-09-15","day_of_year":258,"center":[-67.0345323,-9.9151549]},"geometry":{"type":"Polygon","coordinates":[[[-67.0322865,-9.9129092],[-67.0322865,-9.9174007],[-67.0367781,-9.9174007],[-67.0367781,-9.9129092],[-67.0322865,-9.9129092]]]}},{"type":"Feature","properties":{"date":"2025-09-15","day_of_year":258,"center":[-67.0300407,-9.9151549]},"geometry":{"type":"Polygon","coordinates":[[[-67.0277949,-9.9129092],[-67.0277949,-9.9174007],[-67.0322865,-9.9174007],[-67.0322865,-9.9129092],[-67.0277949,-9.9129092]]]}},{"type":"Feature","properties":{"date":"2025-09-15","day_of_year":258,"center":[-67.0345323,-9.9196465]},"geometry":{"type":"Polygon","coordinates":[[[-67.0322865,-9.9174007],[-67.0322865,-9.9218923],[-67.0367781,-9.9218923],[-67.0367781,-9.9174007],[-67.0322865,-9.9174007]]]}},{"type":"Feature","properties":{"date":"2025-09-18","day_of_year":261,"center":[-67.0300407,-9.9196465]},"geometry":{"type":"Polygon","coordinates":[[[-67.0277949,-9.9174007],[-67.0277949,-9.9218923],[-67.0322865,-9.9218923],[-67.0322865,-9.9174007],[-67.0277949,-9.9174007]]]}},{"type":"Feature","properties":{"date":"2025-09-24","day_of_year":267,"center":[-66.7740208,-9.9600707]},"geometry":{"type":"Polygon","coordinates":[[[-66.7762666,-9.9623165],[-66.7762666,-9.9578249],[-66.7717751,-9.9578249],[-66.7717751,-9.9623165],[-66.7762666,-9.9623165]]]}},{"type":"Feature","properties":{"date":"2025-09-22","day_of_year":265,"center":[-66.7740208,-9.9645623]},"geometry":{"type":"Polygon","coordinates":[[[-66.7762666,-9.9668081],[-66.7762666,-9.9623165],[-66.7717751,-9.9623165],[-66.7717751,-9.9668081],[-66.7762666,-9.9668081]]]}},{"type":"Feature","properties":{"date":"2025-08-27","day_of_year":239,"center":[-67.8160666,-10.0454107]},"geometry":{"type":"Polygon","coordinates":[[[-67.8138208,-10.0431649],[-67.8138208,-10.0476565],[-67.8183124,-10.0476565],[-67.8183124,-10.0431649],[-67.8138208,-10.0431649]]]}},{"type":"Feature","properties":{"date":"2025-09-15","day_of_year":258,"center":[-68.458362,-10.0499023]},"geometry":{"type":"Polygon","coordinates":[[[-68.4561162,-10.0476565],[-68.4561162,-10.052148],[-68.4606078,-10.052148],[-68.4606078,-10.0476565],[-68.4561162,-10.0476565]]]}},{"type":"Feature","properties":{"date":"2025-09-15","day_of_year":258,"center":[-68.4673452,-10.0543938]},"geometry":{"type":"Polygon","coordinates":[[[-68.4650994,-10.052148],[-68.4650994,-10.0566396],[-68.469591,-10.0566396],[-68.469591,-10.052148],[-68.4650994,-10.052148]]]}},{"type":"Feature","properties":{"date":"2025-09-20","day_of_year":263,"center":[-68.4628536,-10.0543938]},"geometry":{"type":"Polygon","coordinates":[[[-68.4606078,-10.052148],[-68.4606078,-10.0566396],[-68.4650994,-10.0566396],[-68.4650994,-10.052148],[-68.4606078,-10.052148]]]}},{"type":"Feature","properties":{"date":"2025-09-15","day_of_year":258,"center":[-68.458362,-10.0543938]},"geometry":{"type":"Polygon","coordinates":[[[-68.4561162,-10.052148],[-68.4561162,-10.0566396],[-68.4606078,-10.0566396],[-68.4606078,-10.052148],[-68.4561162,-10.052148]]]}},{"type":"Feature","properties":{"date":"2025-09-20","day_of_year":263,"center":[-68.4763283,-10.0678686]},"geometry":{"type":"Polygon","coordinates":[[[-68.4740825,-10.0656228],[-68.4740825,-10.0701143],[-68.4785741,-10.0701143],[-68.4785741,-10.0656228],[-68.4740825,-10.0656228]]]}},{"type":"Feature","properties":{"date":"2025-09-22","day_of_year":265,"center":[-69.2488795,-10.0903264]},"geometry":{"type":"Polygon","coordinates":[[[-69.2466337,-10.0880806],[-69.2466337,-10.0925722],[-69.2511253,-10.0925722],[-69.2511253,-10.0880806],[-69.2466337,-10.0880806]]]}},{"type":"Feature","properties":{"date":"2025-09-25","day_of_year":268,"center":[-69.2443879,-10.0903264]},"geometry":{"type":"Polygon","coordinates":[[[-69.2421421,-10.0880806],[-69.2421421,-10.0925722],[-69.2466337,-10.0925722],[-69.2466337,-10.0880806],[-69.2421421,-10.0880806]]]}},{"type":"Feature","properties":{"date":"2025-09-17","day_of_year":260,"center":[-68.5347188,-10.1487169]},"geometry":{"type":"Polygon","coordinates":[[[-68.532473,-10.1464711],[-68.532473,-10.1509627],[-68.5369646,-10.1509627],[-68.5369646,-10.1464711],[-68.532473,-10.1464711]]]}},{"type":"Feature","properties":{"date":"2025-09-08","day_of_year":251,"center":[-68.5347188,-10.1532085]},"geometry":{"type":"Polygon","coordinates":[[[-68.532473,-10.1509627],[-68.532473,-10.1554543],[-68.5369646,-10.1554543],[-68.5369646,-10.1509627],[-68.532473,-10.1509627]]]}},{"type":"Feature","properties":{"date":"2025-09-08","day_of_year":251,"center":[-68.5302272,-10.1532085]},"geometry":{"type":"Polygon","coordinates":[[[-68.5279814,-10.1509627],[-68.5279814,-10.1554543],[-68.532473,-10.1554543],[-68.532473,-10.1509627],[-68.5279814,-10.1509627]]]}},{"type":"Feature","properties":{"date":"2025-09-08","day_of_year":251,"center":[-68.5347188,-10.1577001]},"geometry":{"type":"Polygon","coordinates":[[[-68.532473,-10.1554543],[-68.532473,-10.1599459],[-68.5369646,-10.1599459],[-68.5369646,-10.1554543],[-68.532473,-10.1554543]]]}},{"type":"Feature","properties":{"date":"2025-09-08","day_of_year":251,"center":[-68.5302272,-10.1577001]},"geometry":{"type":"Polygon","coordinates":[[[-68.5279814,-10.1554543],[-68.5279814,-10.1599459],[-68.532473,-10.1599459],[-68.532473,-10.1554543],[-68.5279814,-10.1554543]]]}},{"type":"Feature","properties":{"date":"2025-09-22","day_of_year":265,"center":[-68.7592976,-10.2520232]},"geometry":{"type":"Polygon","coordinates":[[[-68.7570518,-10.2497774],[-68.7570518,-10.254269],[-68.7615434,-10.254269],[-68.7615434,-10.2497774],[-68.7570518,-10.2497774]]]}},{"type":"Feature","properties":{"date":"2025-09-21","day_of_year":264,"center":[-68.7592976,-10.2565148]},"geometry":{"type":"Polygon","coordinates":[[[-68.7570518,-10.254269],[-68.7570518,-10.2587605],[-68.7615434,-10.2587605],[-68.7615434,-10.254269],[-68.7570518,-10.254269]]]}},{"type":"Feature","properties":{"date":"2025-09-21","day_of_year":264,"center":[-68.754806,-10.2565148]},"geometry":{"type":"Polygon","coordinates":[[[-68.7525603,-10.254269],[-68.7525603,-10.2587605],[-68.7570518,-10.2587605],[-68.7570518,-10.254269],[-68.7525603,-10.254269]]]}},{"type":"Feature","properties":{"date":"2025-09-13","day_of_year":256,"center":[-67.6723362,-10.4586357]},"geometry":{"type":"Polygon","coordinates":[[[-67.6700904,-10.4563899],[-67.6700904,-10.4608815],[-67.6745819,-10.4608815],[-67.6745819,-10.4563899],[-67.6700904,-10.4563899]]]}},{"type":"Feature","properties":{"date":"2025-09-22","day_of_year":265,"center":[-67.6768277,-10.4631273]},"geometry":{"type":"Polygon","coordinates":[[[-67.6745819,-10.4608815],[-67.6745819,-10.4653731],[-67.6790735,-10.4653731],[-67.6790735,-10.4608815],[-67.6745819,-10.4608815]]]}},{"type":"Feature","properties":{"date":"2025-05-26","day_of_year":146,"center":[-67.7082688,-10.5170262]},"geometry":{"type":"Polygon","coordinates":[[[-67.706023,-10.5147804],[-67.706023,-10.519272],[-67.7105145,-10.519272],[-67.7105145,-10.5147804],[-67.706023,-10.5147804]]]}}]}