{"type":"FeatureCollection","features":[{"type":"Feature","id":"AC-Y799-X184","properties":{"id":"AC-Y799-X184","grid_x":184,"grid_y":799,"region":"oeste","centroid":[-72.8685262,-7.5042061],"aggregation":"none","score_unico_gradboost":0.4690683,"score_unico_random_forest":0.5626205,"score_unico_logistic_regression":0.6737227,"score_unico_fuzzy_knn":0.6664315,"score_unico_xgboost":0.504782,"score_regional_gradboost":0.8616301,"score_regional_random_forest":0.7882275,"score_regional_logistic_regression":0.7506196,"score_regional_fuzzy_knn":0.6141455,"score_regional_xgboost":0.8754349},"geometry":{"type":"Polygon","coordinates":[[[-72.8725878,-7.5068697],[-72.8645124,-7.5069409],[-72.8644647,-7.5015425],[-72.8725399,-7.5014713],[-72.8725878,-7.5068697]]]}},{"type":"Feature","id":"AC-Y799-X185","properties":{"id":"AC-Y799-X185","grid_x":185,"grid_y":799,"region":"oeste","centroid":[-72.8604509,-7.5042772],"aggregation":"none","score_unico_gradboost":0.3685064,"score_unico_random_forest":0.4029133,"score_unico_logistic_regression":0.6936802,"score_unico_fuzzy_knn":0.4849941,"score_unico_xgboost":0.3781572,"score_regional_gradboost":0.8572988,"score_regional_random_forest":0.8359345,"score_regional_logistic_regression":0.7673291,"score_regional_fuzzy_knn":0.7486195,"score_regional_xgboost":0.8680676},"geometry":{"type":"Polygon","coordinates":[[[-72.8645124,-7.5069409],[-72.856437,-7.507012],[-72.8563894,-7.5016135],[-72.8644647,-7.5015425],[-72.8645124,-7.5069409]]]}},{"type":"Feature","id":"AC-Y799-X186","properties":{"id":"AC-Y799-X186","grid_x":186,"grid_y":799,"region":"oeste","centroid":[-72.8523755,-7.5043482],"aggregation":"none","score_unico_gradboost":0.3753145,"score_unico_random_forest":0.4215328,"score_unico_logistic_regression":0.7492072,"score_unico_fuzzy_knn":0.5387385,"score_unico_xgboost":0.3814079,"score_regional_gradboost":0.859675,"score_regional_random_forest":0.7792946,"score_regional_logistic_regression":0.8130737,"score_regional_fuzzy_knn":0.7915221,"score_regional_xgboost":0.8704987},"geometry":{"type":"Polygon","coordinates":[[[-72.856437,-7.507012],[-72.8483615,-7.5070829],[-72.848314,-7.5016843],[-72.8563894,-7.5016135],[-72.856437,-7.507012]]]}},{"type":"Feature","id":"AC-Y799-X187","properties":{"id":"AC-Y799-X187","grid_x":187,"grid_y":799,"region":"oeste","centroid":[-72.8443,-7.504419],"aggregation":"none","score_unico_gradboost":0.3703742,"score_unico_random_forest":0.46577,"score_unico_logistic_regression":0.810541,"score_unico_fuzzy_knn":0.6101564,"score_unico_xgboost":0.3166802,"score_regional_gradboost":0.800007,"score_regional_random_forest":0.7602276,"score_regional_logistic_regression":0.8593921,"score_regional_fuzzy_knn":0.8219674,"score_regional_xgboost":0.8704987},"geometry":{"type":"Polygon","coordinates":[[[-72.8483615,-7.5070829],[-72.8402859,-7.5071536],[-72.8402385,-7.501755],[-72.848314,-7.5016843],[-72.8483615,-7.5070829]]]}},{"type":"Feature","id":"AC-Y799-X188","properties":{"id":"AC-Y799-X188","grid_x":188,"grid_y":799,"region":"oeste","centroid":[-72.8362244,-7.5044896],"aggregation":"none","score_unico_gradboost":0.4612506,"score_unico_random_forest":0.4887635,"score_unico_logistic_regression":0.8260811,"score_unico_fuzzy_knn":0.6040397,"score_unico_xgboost":0.4117613,"score_regional_gradboost":0.7965182,"score_regional_random_forest":0.7224438,"score_regional_logistic_regression":0.8694054,"score_regional_fuzzy_knn":0.8111043,"score_regional_xgboost":0.858035},"geometry":{"type":"Polygon","coordinates":[[[-72.8402859,-7.5071536],[-72.8322103,-7.5072242],[-72.8321629,-7.5018256],[-72.8402385,-7.501755],[-72.8402859,-7.5071536]]]}},{"type":"Feature","id":"AC-Y799-X189","properties":{"id":"AC-Y799-X189","grid_x":189,"grid_y":799,"region":"oeste","centroid":[-72.8281488,-7.5045602],"aggregation":"none","score_unico_gradboost":0.4268995,"score_unico_random_forest":0.4240166,"score_unico_logistic_regression":0.7687865,"score_unico_fuzzy_knn":0.5528599,"score_unico_xgboost":0.3535058,"score_regional_gradboost":0.7892795,"score_regional_random_forest":0.7243114,"score_regional_logistic_regression":0.8254852,"score_regional_fuzzy_knn":0.7859075,"score_regional_xgboost":0.8542953},"geometry":{"type":"Polygon","coordinates":[[[-72.8322103,-7.5072242],[-72.8241345,-7.5072947],[-72.8240873,-7.501896],[-72.8321629,-7.5018256],[-72.8322103,-7.5072242]]]}},{"type":"Feature","id":"AC-Y799-X190","properties":{"id":"AC-Y799-X190","grid_x":190,"grid_y":799,"region":"oeste","centroid":[-72.8200731,-7.5046305],"aggregation":"none","score_unico_gradboost":0.437494,"score_unico_random_forest":0.4640091,"score_unico_logistic_regression":0.8819691,"score_unico_fuzzy_knn":0.5822036,"score_unico_xgboost":0.3296926,"score_regional_gradboost":0.7839166,"score_regional_random_forest":0.6974772,"score_regional_logistic_regression":0.9062626,"score_regional_fuzzy_knn":0.7762037,"score_regional_xgboost":0.8403956},"geometry":{"type":"Polygon","coordinates":[[[-72.8241345,-7.5072947],[-72.8160587,-7.507365],[-72.8160116,-7.5019663],[-72.8240873,-7.501896],[-72.8241345,-7.5072947]]]}},{"type":"Feature","id":"AC-Y800-X184","properties":{"id":"AC-Y800-X184","grid_x":184,"grid_y":800,"region":"oeste","centroid":[-72.8684785,-7.4988077],"aggregation":"none","score_unico_gradboost":0.4828257,"score_unico_random_forest":0.5453718,"score_unico_logistic_regression":0.6922351,"score_unico_fuzzy_knn":0.7026438,"score_unico_xgboost":0.4736314,"score_regional_gradboost":0.857611,"score_regional_random_forest":0.7652439,"score_regional_logistic_regression":0.7618877,"score_regional_fuzzy_knn":0.5829294,"score_regional_xgboost":0.8633717},"geometry":{"type":"Polygon","coordinates":[[[-72.8725399,-7.5014713],[-72.8644647,-7.5015425],[-72.864417,-7.4961441],[-72.8724922,-7.496073],[-72.8725399,-7.5014713]]]}},{"type":"Feature","id":"AC-Y800-X185","properties":{"id":"AC-Y800-X185","grid_x":185,"grid_y":800,"region":"oeste","centroid":[-72.8604032,-7.4988788],"aggregation":"none","score_unico_gradboost":0.5064478,"score_unico_random_forest":0.5289111,"score_unico_logistic_regression":0.7240767,"score_unico_fuzzy_knn":0.7686851,"score_unico_xgboost":0.4688013,"score_regional_gradboost":0.8627881,"score_regional_random_forest":0.7281185,"score_regional_logistic_regression":0.7912627,"score_regional_fuzzy_knn":0.6417497,"score_regional_xgboost":0.8633717},"geometry":{"type":"Polygon","coordinates":[[[-72.8644647,-7.5015425],[-72.8563894,-7.5016135],[-72.8563418,-7.496215],[-72.864417,-7.4961441],[-72.8644647,-7.5015425]]]}},{"type":"Feature","id":"AC-Y800-X186","properties":{"id":"AC-Y800-X186","grid_x":186,"grid_y":800,"region":"oeste","centroid":[-72.8523279,-7.4989497],"aggregation":"none","score_unico_gradboost":0.561451,"score_unico_random_forest":0.5462038,"score_unico_logistic_regression":0.8091263,"score_unico_fuzzy_knn":0.6193072,"score_unico_xgboost":0.499142,"score_regional_gradboost":0.7943782,"score_regional_random_forest":0.7238373,"score_regional_logistic_regression":0.8577609,"score_regional_fuzzy_knn":0.8047969,"score_regional_xgboost":0.8514889},"geometry":{"type":"Polygon","coordinates":[[[-72.8563894,-7.5016135],[-72.848314,-7.5016843],[-72.8482665,-7.4962858],[-72.8563418,-7.496215],[-72.8563894,-7.5016135]]]}},{"type":"Feature","id":"AC-Y800-X187","properties":{"id":"AC-Y800-X187","grid_x":187,"grid_y":800,"region":"oeste","centroid":[-72.8442525,-7.4990204],"aggregation":"none","score_unico_gradboost":0.4670035,"score_unico_random_forest":0.5201514,"score_unico_logistic_regression":0.8282857,"score_unico_fuzzy_knn":0.5902653,"score_unico_xgboost":0.4334052,"score_regional_gradboost":0.7943782,"score_regional_random_forest":0.7125817,"score_regional_logistic_regression":0.8711513,"score_regional_fuzzy_knn":0.8108861,"score_regional_xgboost":0.8514889},"geometry":{"type":"Polygon","coordinates":[[[-72.848314,-7.5016843],[-72.8402385,-7.501755],[-72.8401911,-7.4963565],[-72.8482665,-7.4962858],[-72.848314,-7.5016843]]]}},{"type":"Feature","id":"AC-Y800-X188","properties":{"id":"AC-Y800-X188","grid_x":188,"grid_y":800,"region":"oeste","centroid":[-72.8361771,-7.499091],"aggregation":"none","score_unico_gradboost":0.4327443,"score_unico_random_forest":0.3958218,"score_unico_logistic_regression":0.7339202,"score_unico_fuzzy_knn":0.5827554,"score_unico_xgboost":0.3526802,"score_regional_gradboost":0.8066809,"score_regional_random_forest":0.7545482,"score_regional_logistic_regression":0.7946628,"score_regional_fuzzy_knn":0.7101838,"score_regional_xgboost":0.8542953},"geometry":{"type":"Polygon","coordinates":[[[-72.8402385,-7.501755],[-72.8321629,-7.5018256],[-72.8321157,-7.496427],[-72.8401911,-7.4963565],[-72.8402385,-7.501755]]]}},{"type":"Feature","id":"AC-Y800-X189","properties":{"id":"AC-Y800-X189","grid_x":189,"grid_y":800,"region":"oeste","centroid":[-72.8281015,-7.4991615],"aggregation":"none","score_unico_gradboost":0.5447388,"score_unico_random_forest":0.543559,"score_unico_logistic_regression":0.6961105,"score_unico_fuzzy_knn":0.559157,"score_unico_xgboost":0.5073272,"score_regional_gradboost":0.8090279,"score_regional_random_forest":0.7300956,"score_regional_logistic_regression":0.7596989,"score_regional_fuzzy_knn":0.5142854,"score_regional_xgboost":0.8397333},"geometry":{"type":"Polygon","coordinates":[[[-72.8321629,-7.5018256],[-72.8240873,-7.501896],[-72.8240401,-7.4964973],[-72.8321157,-7.496427],[-72.8321629,-7.5018256]]]}},{"type":"Feature","id":"AC-Y800-X190","properties":{"id":"AC-Y800-X190","grid_x":190,"grid_y":800,"region":"oeste","centroid":[-72.8200259,-7.4992318],"aggregation":"none","score_unico_gradboost":0.2940672,"score_unico_random_forest":0.3646827,"score_unico_logistic_regression":0.8037387,"score_unico_fuzzy_knn":0.567204,"score_unico_xgboost":0.2565323,"score_regional_gradboost":0.7849492,"score_regional_random_forest":0.7393554,"score_regional_logistic_regression":0.8406956,"score_regional_fuzzy_knn":0.6272527,"score_regional_xgboost":0.8424128},"geometry":{"type":"Polygon","coordinates":[[[-72.8240873,-7.501896],[-72.8160116,-7.5019663],[-72.8159645,-7.4965675],[-72.8240401,-7.4964973],[-72.8240873,-7.501896]]]}},{"type":"Feature","id":"AC-Y801-X184","properties":{"id":"AC-Y801-X184","grid_x":184,"grid_y":801,"region":"oeste","centroid":[-72.8684307,-7.4934093],"aggregation":"none","score_unico_gradboost":0.5542838,"score_unico_random_forest":0.5433986,"score_unico_logistic_regression":0.729453,"score_unico_fuzzy_knn":0.7246526,"score_unico_xgboost":0.4464127,"score_regional_gradboost":0.8249151,"score_regional_random_forest":0.708758,"score_regional_logistic_regression":0.7892116,"score_regional_fuzzy_knn":0.5954328,"score_regional_xgboost":0.8597496},"geometry":{"type":"Polygon","coordinates":[[[-72.8724922,-7.496073],[-72.864417,-7.4961441],[-72.8643694,-7.4907456],[-72.8724444,-7.4906746],[-72.8724922,-7.496073]]]}},{"type":"Feature","id":"AC-Y801-X185","properties":{"id":"AC-Y801-X185","grid_x":185,"grid_y":801,"region":"oeste","centroid":[-72.8603556,-7.4934803],"aggregation":"none","score_unico_gradboost":0.5715411,"score_unico_random_forest":0.5373311,"score_unico_logistic_regression":0.8062454,"score_unico_fuzzy_knn":0.6172143,"score_unico_xgboost":0.4966292,"score_regional_gradboost":0.7943782,"score_regional_random_forest":0.7032738,"score_regional_logistic_regression":0.8545594,"score_regional_fuzzy_knn":0.8087775,"score_regional_xgboost":0.8338135},"geometry":{"type":"Polygon","coordinates":[[[-72.864417,-7.4961441],[-72.8563418,-7.496215],[-72.8562942,-7.4908165],[-72.8643694,-7.4907456],[-72.864417,-7.4961441]]]}},{"type":"Feature","id":"AC-Y801-X186","properties":{"id":"AC-Y801-X186","grid_x":186,"grid_y":801,"region":"oeste","centroid":[-72.8522804,-7.4935512],"aggregation":"none","score_unico_gradboost":0.2881701,"score_unico_random_forest":0.4267292,"score_unico_logistic_regression":0.8254256,"score_unico_fuzzy_knn":0.5339806,"score_unico_xgboost":0.3123994,"score_regional_gradboost":0.8085636,"score_regional_random_forest":0.7252664,"score_regional_logistic_regression":0.8631103,"score_regional_fuzzy_knn":0.7487533,"score_regional_xgboost":0.8542953},"geometry":{"type":"Polygon","coordinates":[[[-72.8563418,-7.496215],[-72.8482665,-7.4962858],[-72.848219,-7.4908873],[-72.8562942,-7.4908165],[-72.8563418,-7.496215]]]}},{"type":"Feature","id":"AC-Y801-X187","properties":{"id":"AC-Y801-X187","grid_x":187,"grid_y":801,"region":"oeste","centroid":[-72.8442051,-7.4936219],"aggregation":"none","score_unico_gradboost":0.4327443,"score_unico_random_forest":0.3912,"score_unico_logistic_regression":0.7386144,"score_unico_fuzzy_knn":0.5944554,"score_unico_xgboost":0.3191862,"score_regional_gradboost":0.807245,"score_regional_random_forest":0.7495538,"score_regional_logistic_regression":0.7978254,"score_regional_fuzzy_knn":0.7100267,"score_regional_xgboost":0.8542953},"geometry":{"type":"Polygon","coordinates":[[[-72.8482665,-7.4962858],[-72.8401911,-7.4963565],[-72.8401438,-7.4909579],[-72.848219,-7.4908873],[-72.8482665,-7.4962858]]]}},{"type":"Feature","id":"AC-Y801-X188","properties":{"id":"AC-Y801-X188","grid_x":188,"grid_y":801,"region":"oeste","centroid":[-72.8361297,-7.4936924],"aggregation":"none","score_unico_gradboost":0.5033577,"score_unico_random_forest":0.5447088,"score_unico_logistic_regression":0.662684,"score_unico_fuzzy_knn":0.4863649,"score_unico_xgboost":0.4823999,"score_regional_gradboost":0.8426275,"score_regional_random_forest":0.7586802,"score_regional_logistic_regression":0.732716,"score_regional_fuzzy_knn":0.5010326,"score_regional_xgboost":0.8386432},"geometry":{"type":"Polygon","coordinates":[[[-72.8401911,-7.4963565],[-72.8321157,-7.496427],[-72.8320684,-7.4910284],[-72.8401438,-7.4909579],[-72.8401911,-7.4963565]]]}},{"type":"Feature","id":"AC-Y801-X189","properties":{"id":"AC-Y801-X189","grid_x":189,"grid_y":801,"region":"oeste","centroid":[-72.8280543,-7.4937628],"aggregation":"none","score_unico_gradboost":0.5447388,"score_unico_random_forest":0.5405762,"score_unico_logistic_regression":0.6812823,"score_unico_fuzzy_knn":0.3706831,"score_unico_xgboost":0.5257651,"score_regional_gradboost":0.7625135,"score_regional_random_forest":0.7325494,"score_regional_logistic_regression":0.7440821,"score_regional_fuzzy_knn":0.4941961,"score_regional_xgboost":0.825497},"geometry":{"type":"Polygon","coordinates":[[[-72.8321157,-7.496427],[-72.8240401,-7.4964973],[-72.823993,-7.4910987],[-72.8320684,-7.4910284],[-72.8321157,-7.496427]]]}},{"type":"Feature","id":"AC-Y801-X190","properties":{"id":"AC-Y801-X190","grid_x":190,"grid_y":801,"region":"oeste","centroid":[-72.8199788,-7.4938331],"aggregation":"none","score_unico_gradboost":0.3100535,"score_unico_random_forest":0.3798298,"score_unico_logistic_regression":0.7954791,"score_unico_fuzzy_knn":0.5718758,"score_unico_xgboost":0.2680772,"score_regional_gradboost":0.7875097,"score_regional_random_forest":0.7506147,"score_regional_logistic_regression":0.8334663,"score_regional_fuzzy_knn":0.5897958,"score_regional_xgboost":0.8424128},"geometry":{"type":"Polygon","coordinates":[[[-72.8240401,-7.4964973],[-72.8159645,-7.4965675],[-72.8159175,-7.4911688],[-72.823993,-7.4910987],[-72.8240401,-7.4964973]]]}},{"type":"Feature","id":"AC-Y801-X191","properties":{"id":"AC-Y801-X191","grid_x":191,"grid_y":801,"region":"oeste","centroid":[-72.8119032,-7.4939032],"aggregation":"none","score_unico_gradboost":0.5466156,"score_unico_random_forest":0.5361803,"score_unico_logistic_regression":0.6981404,"score_unico_fuzzy_knn":0.6547032,"score_unico_xgboost":0.5092772,"score_regional_gradboost":0.7821864,"score_regional_random_forest":0.7076572,"score_regional_logistic_regression":0.7603256,"score_regional_fuzzy_knn":0.498284,"score_regional_xgboost":0.8403348},"geometry":{"type":"Polygon","coordinates":[[[-72.8159645,-7.4965675],[-72.8078888,-7.4966376],[-72.8078419,-7.4912388],[-72.8159175,-7.4911688],[-72.8159645,-7.4965675]]]}},{"type":"Feature","id":"AC-Y802-X184","properties":{"id":"AC-Y802-X184","grid_x":184,"grid_y":802,"region":"oeste","centroid":[-72.8683831,-7.4880109],"aggregation":"none","score_unico_gradboost":0.4648603,"score_unico_random_forest":0.4799919,"score_unico_logistic_regression":0.8830454,"score_unico_fuzzy_knn":0.5930431,"score_unico_xgboost":0.3187706,"score_regional_gradboost":0.5949435,"score_regional_random_forest":0.6612661,"score_regional_logistic_regression":0.9069017,"score_regional_fuzzy_knn":0.7937215,"score_regional_xgboost":0.7162236},"geometry":{"type":"Polygon","coordinates":[[[-72.8724444,-7.4906746],[-72.8643694,-7.4907456],[-72.8643217,-7.4853472],[-72.8723967,-7.4852762],[-72.8724444,-7.4906746]]]}},{"type":"Feature","id":"AC-Y802-X185","properties":{"id":"AC-Y802-X185","grid_x":185,"grid_y":802,"region":"oeste","centroid":[-72.860308,-7.4880819],"aggregation":"none","score_unico_gradboost":0.4588365,"score_unico_random_forest":0.4598918,"score_unico_logistic_regression":0.8227338,"score_unico_fuzzy_knn":0.5151625,"score_unico_xgboost":0.4060372,"score_regional_gradboost":0.7861361,"score_regional_random_forest":0.7043188,"score_regional_logistic_regression":0.8631213,"score_regional_fuzzy_knn":0.7921009,"score_regional_xgboost":0.8483849},"geometry":{"type":"Polygon","coordinates":[[[-72.8643694,-7.4907456],[-72.8562942,-7.4908165],[-72.8562467,-7.4854181],[-72.8643217,-7.4853472],[-72.8643694,-7.4907456]]]}},{"type":"Feature","id":"AC-Y802-X186","properties":{"id":"AC-Y802-X186","grid_x":186,"grid_y":802,"region":"oeste","centroid":[-72.8522329,-7.4881527],"aggregation":"none","score_unico_gradboost":0.5562231,"score_unico_random_forest":0.5333577,"score_unico_logistic_regression":0.7290519,"score_unico_fuzzy_knn":0.6919972,"score_unico_xgboost":0.4350775,"score_regional_gradboost":0.8156466,"score_regional_random_forest":0.6990881,"score_regional_logistic_regression":0.7872959,"score_regional_fuzzy_knn":0.5819455,"score_regional_xgboost":0.8530127},"geometry":{"type":"Polygon","coordinates":[[[-72.8562942,-7.4908165],[-72.848219,-7.4908873],[-72.8481716,-7.4854888],[-72.8562467,-7.4854181],[-72.8562942,-7.4908165]]]}},{"type":"Feature","id":"AC-Y802-X187","properties":{"id":"AC-Y802-X187","grid_x":187,"grid_y":802,"region":"oeste","centroid":[-72.8441577,-7.4882233],"aggregation":"none","score_unico_gradboost":0.4143663,"score_unico_random_forest":0.3624836,"score_unico_logistic_regression":0.7063545,"score_unico_fuzzy_knn":0.5805231,"score_unico_xgboost":0.3676796,"score_regional_gradboost":0.8292773,"score_regional_random_forest":0.7565664,"score_regional_logistic_regression":0.7707725,"score_regional_fuzzy_knn":0.657395,"score_regional_xgboost":0.8340055},"geometry":{"type":"Polygon","coordinates":[[[-72.848219,-7.4908873],[-72.8401438,-7.4909579],[-72.8400964,-7.4855593],[-72.8481716,-7.4854888],[-72.848219,-7.4908873]]]}},{"type":"Feature","id":"AC-Y802-X188","properties":{"id":"AC-Y802-X188","grid_x":188,"grid_y":802,"region":"oeste","centroid":[-72.8360825,-7.4882938],"aggregation":"none","score_unico_gradboost":0.4988707,"score_unico_random_forest":0.5253138,"score_unico_logistic_regression":0.6422398,"score_unico_fuzzy_knn":0.352371,"score_unico_xgboost":0.5500045,"score_regional_gradboost":0.8102654,"score_regional_random_forest":0.7470329,"score_regional_logistic_regression":0.7143587,"score_regional_fuzzy_knn":0.4692525,"score_regional_xgboost":0.825497},"geometry":{"type":"Polygon","coordinates":[[[-72.8401438,-7.4909579],[-72.8320684,-7.4910284],[-72.8320212,-7.4856297],[-72.8400964,-7.4855593],[-72.8401438,-7.4909579]]]}},{"type":"Feature","id":"AC-Y802-X189","properties":{"id":"AC-Y802-X189","grid_x":189,"grid_y":802,"region":"oeste","centroid":[-72.8280071,-7.4883642],"aggregation":"none","score_unico_gradboost":0.4075364,"score_unico_random_forest":0.3427048,"score_unico_logistic_regression":0.7101329,"score_unico_fuzzy_knn":0.5666585,"score_unico_xgboost":0.3623326,"score_regional_gradboost":0.8306813,"score_regional_random_forest":0.7513049,"score_regional_logistic_regression":0.7682351,"score_regional_fuzzy_knn":0.5666999,"score_regional_xgboost":0.8424128},"geometry":{"type":"Polygon","coordinates":[[[-72.8320684,-7.4910284],[-72.823993,-7.4910987],[-72.8239458,-7.4857],[-72.8320212,-7.4856297],[-72.8320684,-7.4910284]]]}},{"type":"Feature","id":"AC-Y802-X190","properties":{"id":"AC-Y802-X190","grid_x":190,"grid_y":802,"region":"oeste","centroid":[-72.8199317,-7.4884344],"aggregation":"none","score_unico_gradboost":0.3703944,"score_unico_random_forest":0.3857537,"score_unico_logistic_regression":0.8068046,"score_unico_fuzzy_knn":0.596959,"score_unico_xgboost":0.2967323,"score_regional_gradboost":0.7611251,"score_regional_random_forest":0.7508721,"score_regional_logistic_regression":0.8415228,"score_regional_fuzzy_knn":0.5885629,"score_regional_xgboost":0.8335088},"geometry":{"type":"Polygon","coordinates":[[[-72.823993,-7.4910987],[-72.8159175,-7.4911688],[-72.8158704,-7.4857701],[-72.8239458,-7.4857],[-72.823993,-7.4910987]]]}},{"type":"Feature","id":"AC-Y802-X191","properties":{"id":"AC-Y802-X191","grid_x":191,"grid_y":802,"region":"oeste","centroid":[-72.8118562,-7.4885045],"aggregation":"none","score_unico_gradboost":0.5116951,"score_unico_random_forest":0.5455789,"score_unico_logistic_regression":0.6653701,"score_unico_fuzzy_knn":0.583244,"score_unico_xgboost":0.5671298,"score_regional_gradboost":0.8416549,"score_regional_random_forest":0.7579318,"score_regional_logistic_regression":0.7266075,"score_regional_fuzzy_knn":0.4782167,"score_regional_xgboost":0.8249802},"geometry":{"type":"Polygon","coordinates":[[[-72.8159175,-7.4911688],[-72.8078419,-7.4912388],[-72.8077949,-7.48584],[-72.8158704,-7.4857701],[-72.8159175,-7.4911688]]]}},{"type":"Feature","id":"AC-Y803-X184","properties":{"id":"AC-Y803-X184","grid_x":184,"grid_y":803,"region":"oeste","centroid":[-72.8683354,-7.4826125],"aggregation":"none","score_unico_gradboost":0.5462855,"score_unico_random_forest":0.511138,"score_unico_logistic_regression":0.7318208,"score_unico_fuzzy_knn":0.6247781,"score_unico_xgboost":0.4483437,"score_regional_gradboost":0.7364165,"score_regional_random_forest":0.6707458,"score_regional_logistic_regression":0.7887551,"score_regional_fuzzy_knn":0.5697076,"score_regional_xgboost":0.840815},"geometry":{"type":"Polygon","coordinates":[[[-72.8723967,-7.4852762],[-72.8643217,-7.4853472],[-72.8642742,-7.4799488],[-72.872349,-7.4798779],[-72.8723967,-7.4852762]]]}},{"type":"Feature","id":"AC-Y803-X185","properties":{"id":"AC-Y803-X185","grid_x":185,"grid_y":803,"region":"oeste","centroid":[-72.8602605,-7.4826834],"aggregation":"none","score_unico_gradboost":0.4928067,"score_unico_random_forest":0.5114666,"score_unico_logistic_regression":0.7169747,"score_unico_fuzzy_knn":0.646423,"score_unico_xgboost":0.489349,"score_regional_gradboost":0.8150611,"score_regional_random_forest":0.6797995,"score_regional_logistic_regression":0.7770474,"score_regional_fuzzy_knn":0.5589851,"score_regional_xgboost":0.840815},"geometry":{"type":"Polygon","coordinates":[[[-72.8643217,-7.4853472],[-72.8562467,-7.4854181],[-72.8561992,-7.4800196],[-72.8642742,-7.4799488],[-72.8643217,-7.4853472]]]}},{"type":"Feature","id":"AC-Y803-X186","properties":{"id":"AC-Y803-X186","grid_x":186,"grid_y":803,"region":"oeste","centroid":[-72.8521855,-7.4827542],"aggregation":"none","score_unico_gradboost":0.2808459,"score_unico_random_forest":0.4716951,"score_unico_logistic_regression":0.6297725,"score_unico_fuzzy_knn":0.6153267,"score_unico_xgboost":0.2525783,"score_regional_gradboost":0.8147772,"score_regional_random_forest":0.7358657,"score_regional_logistic_regression":0.7004085,"score_regional_fuzzy_knn":0.7598359,"score_regional_xgboost":0.8600004},"geometry":{"type":"Polygon","coordinates":[[[-72.8562467,-7.4854181],[-72.8481716,-7.4854888],[-72.8481242,-7.4800902],[-72.8561992,-7.4800196],[-72.8562467,-7.4854181]]]}},{"type":"Feature","id":"AC-Y803-X187","properties":{"id":"AC-Y803-X187","grid_x":187,"grid_y":803,"region":"oeste","centroid":[-72.8441104,-7.4828248],"aggregation":"none","score_unico_gradboost":0.5204974,"score_unico_random_forest":0.5072816,"score_unico_logistic_regression":0.6664716,"score_unico_fuzzy_knn":0.6114702,"score_unico_xgboost":0.495235,"score_regional_gradboost":0.8036479,"score_regional_random_forest":0.7256162,"score_regional_logistic_regression":0.736859,"score_regional_fuzzy_knn":0.5258174,"score_regional_xgboost":0.840815},"geometry":{"type":"Polygon","coordinates":[[[-72.8481716,-7.4854888],[-72.8400964,-7.4855593],[-72.8400492,-7.4801607],[-72.8481242,-7.4800902],[-72.8481716,-7.4854888]]]}},{"type":"Feature","id":"AC-Y803-X188","properties":{"id":"AC-Y803-X188","grid_x":188,"grid_y":803,"region":"oeste","centroid":[-72.8360352,-7.4828952],"aggregation":"none","score_unico_gradboost":0.5167344,"score_unico_random_forest":0.5234133,"score_unico_logistic_regression":0.6562896,"score_unico_fuzzy_knn":0.59242,"score_unico_xgboost":0.5413692,"score_regional_gradboost":0.8075814,"score_regional_random_forest":0.7384834,"score_regional_logistic_regression":0.7264829,"score_regional_fuzzy_knn":0.4897351,"score_regional_xgboost":0.840815},"geometry":{"type":"Polygon","coordinates":[[[-72.8400964,-7.4855593],[-72.8320212,-7.4856297],[-72.831974,-7.4802311],[-72.8400492,-7.4801607],[-72.8400964,-7.4855593]]]}},{"type":"Feature","id":"AC-Y803-X189","properties":{"id":"AC-Y803-X189","grid_x":189,"grid_y":803,"region":"oeste","centroid":[-72.82796,-7.4829655],"aggregation":"none","score_unico_gradboost":0.5106114,"score_unico_random_forest":0.5466833,"score_unico_logistic_regression":0.6924171,"score_unico_fuzzy_knn":0.5934997,"score_unico_xgboost":0.489816,"score_regional_gradboost":0.8217222,"score_regional_random_forest":0.7377844,"score_regional_logistic_regression":0.7522349,"score_regional_fuzzy_knn":0.4995284,"score_regional_xgboost":0.8249802},"geometry":{"type":"Polygon","coordinates":[[[-72.8320212,-7.4856297],[-72.8239458,-7.4857],[-72.8238988,-7.4803013],[-72.831974,-7.4802311],[-72.8320212,-7.4856297]]]}},{"type":"Feature","id":"AC-Y803-X190","properties":{"id":"AC-Y803-X190","grid_x":190,"grid_y":803,"region":"oeste","centroid":[-72.8198846,-7.4830357],"aggregation":"none","score_unico_gradboost":0.3787464,"score_unico_random_forest":0.4029092,"score_unico_logistic_regression":0.8125303,"score_unico_fuzzy_knn":0.6170545,"score_unico_xgboost":0.3421662,"score_regional_gradboost":0.756386,"score_regional_random_forest":0.7487499,"score_regional_logistic_regression":0.8458391,"score_regional_fuzzy_knn":0.562239,"score_regional_xgboost":0.8468789},"geometry":{"type":"Polygon","coordinates":[[[-72.8239458,-7.4857],[-72.8158704,-7.4857701],[-72.8158234,-7.4803714],[-72.8238988,-7.4803013],[-72.8239458,-7.4857]]]}},{"type":"Feature","id":"AC-Y803-X191","properties":{"id":"AC-Y803-X191","grid_x":191,"grid_y":803,"region":"oeste","centroid":[-72.8118092,-7.4831057],"aggregation":"none","score_unico_gradboost":0.5303408,"score_unico_random_forest":0.5390768,"score_unico_logistic_regression":0.6723414,"score_unico_fuzzy_knn":0.600493,"score_unico_xgboost":0.5424494,"score_regional_gradboost":0.8416549,"score_regional_random_forest":0.7552609,"score_regional_logistic_regression":0.7322938,"score_regional_fuzzy_knn":0.4809356,"score_regional_xgboost":0.8249802},"geometry":{"type":"Polygon","coordinates":[[[-72.8158704,-7.4857701],[-72.8077949,-7.48584],[-72.807748,-7.4804413],[-72.8158234,-7.4803714],[-72.8158704,-7.4857701]]]}},{"type":"Feature","id":"AC-Y803-X192","properties":{"id":"AC-Y803-X192","grid_x":192,"grid_y":803,"region":"oeste","centroid":[-72.8037337,-7.4831756],"aggregation":"none","score_unico_gradboost":0.4890757,"score_unico_random_forest":0.5209347,"score_unico_logistic_regression":0.6195982,"score_unico_fuzzy_knn":0.5386606,"score_unico_xgboost":0.5483695,"score_regional_gradboost":0.7840187,"score_regional_random_forest":0.7412686,"score_regional_logistic_regression":0.6852477,"score_regional_fuzzy_knn":0.4386262,"score_regional_xgboost":0.8003097},"geometry":{"type":"Polygon","coordinates":[[[-72.8077949,-7.48584],[-72.7997194,-7.4859099],[-72.7996726,-7.480511],[-72.807748,-7.4804413],[-72.8077949,-7.48584]]]}},{"type":"Feature","id":"AC-Y804-X184","properties":{"id":"AC-Y804-X184","grid_x":184,"grid_y":804,"region":"oeste","centroid":[-72.8682878,-7.4772141],"aggregation":"none","score_unico_gradboost":0.4945434,"score_unico_random_forest":0.5105175,"score_unico_logistic_regression":0.6849538,"score_unico_fuzzy_knn":0.5985186,"score_unico_xgboost":0.4197904,"score_regional_gradboost":0.769546,"score_regional_random_forest":0.7039462,"score_regional_logistic_regression":0.7489235,"score_regional_fuzzy_knn":0.5067018,"score_regional_xgboost":0.8403348},"geometry":{"type":"Polygon","coordinates":[[[-72.872349,-7.4798779],[-72.8642742,-7.4799488],[-72.8642266,-7.4745504],[-72.8723014,-7.4744795],[-72.872349,-7.4798779]]]}},{"type":"Feature","id":"AC-Y804-X185","properties":{"id":"AC-Y804-X185","grid_x":185,"grid_y":804,"region":"oeste","centroid":[-72.860213,-7.477285],"aggregation":"none","score_unico_gradboost":0.4945434,"score_unico_random_forest":0.498823,"score_unico_logistic_regression":0.6983419,"score_unico_fuzzy_knn":0.2866639,"score_unico_xgboost":0.448932,"score_regional_gradboost":0.7703891,"score_regional_random_forest":0.6830524,"score_regional_logistic_regression":0.7632581,"score_regional_fuzzy_knn":0.5712577,"score_regional_xgboost":0.8403348},"geometry":{"type":"Polygon","coordinates":[[[-72.8642742,-7.4799488],[-72.8561992,-7.4800196],[-72.8561518,-7.4746211],[-72.8642266,-7.4745504],[-72.8642742,-7.4799488]]]}},{"type":"Feature","id":"AC-Y804-X186","properties":{"id":"AC-Y804-X186","grid_x":186,"grid_y":804,"region":"oeste","centroid":[-72.852138,-7.4773557],"aggregation":"none","score_unico_gradboost":0.4709467,"score_unico_random_forest":0.4996813,"score_unico_logistic_regression":0.6684516,"score_unico_fuzzy_knn":0.5977407,"score_unico_xgboost":0.4659181,"score_regional_gradboost":0.774525,"score_regional_random_forest":0.7105698,"score_regional_logistic_regression":0.7358991,"score_regional_fuzzy_knn":0.4971161,"score_regional_xgboost":0.8403348},"geometry":{"type":"Polygon","coordinates":[[[-72.8561992,-7.4800196],[-72.8481242,-7.4800902],[-72.8480769,-7.4746917],[-72.8561518,-7.4746211],[-72.8561992,-7.4800196]]]}},{"type":"Feature","id":"AC-Y804-X187","properties":{"id":"AC-Y804-X187","grid_x":187,"grid_y":804,"region":"oeste","centroid":[-72.8440631,-7.4774262],"aggregation":"none","score_unico_gradboost":0.4978103,"score_unico_random_forest":0.536796,"score_unico_logistic_regression":0.6394586,"score_unico_fuzzy_knn":0.5793201,"score_unico_xgboost":0.5367929,"score_regional_gradboost":0.7119828,"score_regional_random_forest":0.7171004,"score_regional_logistic_regression":0.7113938,"score_regional_fuzzy_knn":0.5055192,"score_regional_xgboost":0.7856525},"geometry":{"type":"Polygon","coordinates":[[[-72.8481242,-7.4800902],[-72.8400492,-7.4801607],[-72.8400019,-7.4747622],[-72.8480769,-7.4746917],[-72.8481242,-7.4800902]]]}},{"type":"Feature","id":"AC-Y804-X188","properties":{"id":"AC-Y804-X188","grid_x":188,"grid_y":804,"region":"oeste","centroid":[-72.835988,-7.4774966],"aggregation":"none","score_unico_gradboost":0.5379006,"score_unico_random_forest":0.5174555,"score_unico_logistic_regression":0.6674729,"score_unico_fuzzy_knn":0.6474021,"score_unico_xgboost":0.4431174,"score_regional_gradboost":0.7809231,"score_regional_random_forest":0.7131167,"score_regional_logistic_regression":0.7358935,"score_regional_fuzzy_knn":0.4961284,"score_regional_xgboost":0.8403348},"geometry":{"type":"Polygon","coordinates":[[[-72.8400492,-7.4801607],[-72.831974,-7.4802311],[-72.8319268,-7.4748325],[-72.8400019,-7.4747622],[-72.8400492,-7.4801607]]]}},{"type":"Feature","id":"AC-Y804-X189","properties":{"id":"AC-Y804-X189","grid_x":189,"grid_y":804,"region":"oeste","centroid":[-72.8279128,-7.4775669],"aggregation":"none","score_unico_gradboost":0.3377341,"score_unico_random_forest":0.5328845,"score_unico_logistic_regression":0.6509012,"score_unico_fuzzy_knn":0.6505511,"score_unico_xgboost":0.2978399,"score_regional_gradboost":0.8800874,"score_regional_random_forest":0.7382429,"score_regional_logistic_regression":0.715461,"score_regional_fuzzy_knn":0.7261958,"score_regional_xgboost":0.8595683},"geometry":{"type":"Polygon","coordinates":[[[-72.831974,-7.4802311],[-72.8238988,-7.4803013],[-72.8238517,-7.4749026],[-72.8319268,-7.4748325],[-72.831974,-7.4802311]]]}},{"type":"Feature","id":"AC-Y804-X190","properties":{"id":"AC-Y804-X190","grid_x":190,"grid_y":804,"region":"oeste","centroid":[-72.8198376,-7.477637],"aggregation":"none","score_unico_gradboost":0.4844809,"score_unico_random_forest":0.4305156,"score_unico_logistic_regression":0.8201881,"score_unico_fuzzy_knn":0.6083218,"score_unico_xgboost":0.3494524,"score_regional_gradboost":0.7788498,"score_regional_random_forest":0.7445246,"score_regional_logistic_regression":0.8509245,"score_regional_fuzzy_knn":0.5424313,"score_regional_xgboost":0.8468789},"geometry":{"type":"Polygon","coordinates":[[[-72.8238988,-7.4803013],[-72.8158234,-7.4803714],[-72.8157765,-7.4749726],[-72.8238517,-7.4749026],[-72.8238988,-7.4803013]]]}},{"type":"Feature","id":"AC-Y804-X191","properties":{"id":"AC-Y804-X191","grid_x":191,"grid_y":804,"region":"oeste","centroid":[-72.8117623,-7.4777069],"aggregation":"none","score_unico_gradboost":0.5303408,"score_unico_random_forest":0.5281188,"score_unico_logistic_regression":0.6703098,"score_unico_fuzzy_knn":0.5957161,"score_unico_xgboost":0.5385626,"score_regional_gradboost":0.8416549,"score_regional_random_forest":0.7568636,"score_regional_logistic_regression":0.7288526,"score_regional_fuzzy_knn":0.4614929,"score_regional_xgboost":0.8249802},"geometry":{"type":"Polygon","coordinates":[[[-72.8158234,-7.4803714],[-72.807748,-7.4804413],[-72.8077012,-7.4750425],[-72.8157765,-7.4749726],[-72.8158234,-7.4803714]]]}},{"type":"Feature","id":"AC-Y804-X192","properties":{"id":"AC-Y804-X192","grid_x":192,"grid_y":804,"region":"oeste","centroid":[-72.8036869,-7.4777768],"aggregation":"none","score_unico_gradboost":0.2943224,"score_unico_random_forest":0.4419984,"score_unico_logistic_regression":0.5977558,"score_unico_fuzzy_knn":0.6613786,"score_unico_xgboost":0.2387718,"score_regional_gradboost":0.8031918,"score_regional_random_forest":0.7367164,"score_regional_logistic_regression":0.667803,"score_regional_fuzzy_knn":0.6380056,"score_regional_xgboost":0.8425623},"geometry":{"type":"Polygon","coordinates":[[[-72.807748,-7.4804413],[-72.7996726,-7.480511],[-72.7996258,-7.4751122],[-72.8077012,-7.4750425],[-72.807748,-7.4804413]]]}},{"type":"Feature","id":"AC-Y805-X184","properties":{"id":"AC-Y805-X184","grid_x":184,"grid_y":805,"region":"oeste","centroid":[-72.8682402,-7.4718157],"aggregation":"none","score_unico_gradboost":0.4649933,"score_unico_random_forest":0.5267164,"score_unico_logistic_regression":0.6587538,"score_unico_fuzzy_knn":0.6052007,"score_unico_xgboost":0.4751904,"score_regional_gradboost":0.7180245,"score_regional_random_forest":0.7219332,"score_regional_logistic_regression":0.725983,"score_regional_fuzzy_knn":0.4727377,"score_regional_xgboost":0.8173495},"geometry":{"type":"Polygon","coordinates":[[[-72.8723014,-7.4744795],[-72.8642266,-7.4745504],[-72.8641791,-7.4691519],[-72.8722538,-7.4690811],[-72.8723014,-7.4744795]]]}},{"type":"Feature","id":"AC-Y805-X185","properties":{"id":"AC-Y805-X185","grid_x":185,"grid_y":805,"region":"oeste","centroid":[-72.8601655,-7.4718865],"aggregation":"none","score_unico_gradboost":0.2616984,"score_unico_random_forest":0.4430484,"score_unico_logistic_regression":0.6158915,"score_unico_fuzzy_knn":0.6196345,"score_unico_xgboost":0.2522891,"score_regional_gradboost":0.7713987,"score_regional_random_forest":0.7142176,"score_regional_logistic_regression":0.690073,"score_regional_fuzzy_knn":0.6988279,"score_regional_xgboost":0.8388208},"geometry":{"type":"Polygon","coordinates":[[[-72.8642266,-7.4745504],[-72.8561518,-7.4746211],[-72.8561044,-7.4692226],[-72.8641791,-7.4691519],[-72.8642266,-7.4745504]]]}},{"type":"Feature","id":"AC-Y805-X186","properties":{"id":"AC-Y805-X186","grid_x":186,"grid_y":805,"region":"oeste","centroid":[-72.8520907,-7.4719572],"aggregation":"none","score_unico_gradboost":0.2570834,"score_unico_random_forest":0.4798753,"score_unico_logistic_regression":0.5942549,"score_unico_fuzzy_knn":0.6236982,"score_unico_xgboost":0.2451765,"score_regional_gradboost":0.763798,"score_regional_random_forest":0.7223832,"score_regional_logistic_regression":0.6691701,"score_regional_fuzzy_knn":0.6995523,"score_regional_xgboost":0.8192832},"geometry":{"type":"Polygon","coordinates":[[[-72.8561518,-7.4746211],[-72.8480769,-7.4746917],[-72.8480296,-7.4692932],[-72.8561044,-7.4692226],[-72.8561518,-7.4746211]]]}},{"type":"Feature","id":"AC-Y805-X187","properties":{"id":"AC-Y805-X187","grid_x":187,"grid_y":805,"region":"oeste","centroid":[-72.8440158,-7.4720277],"aggregation":"none","score_unico_gradboost":0.2691684,"score_unico_random_forest":0.4473234,"score_unico_logistic_regression":0.5842801,"score_unico_fuzzy_knn":0.6447472,"score_unico_xgboost":0.2530702,"score_regional_gradboost":0.7840948,"score_regional_random_forest":0.7028467,"score_regional_logistic_regression":0.6624831,"score_regional_fuzzy_knn":0.7168584,"score_regional_xgboost":0.8179842},"geometry":{"type":"Polygon","coordinates":[[[-72.8480769,-7.4746917],[-72.8400019,-7.4747622],[-72.8399547,-7.4693636],[-72.8480296,-7.4692932],[-72.8480769,-7.4746917]]]}},{"type":"Feature","id":"AC-Y805-X188","properties":{"id":"AC-Y805-X188","grid_x":188,"grid_y":805,"region":"oeste","centroid":[-72.8359408,-7.472098],"aggregation":"none","score_unico_gradboost":0.5139431,"score_unico_random_forest":0.524905,"score_unico_logistic_regression":0.643141,"score_unico_fuzzy_knn":0.5970868,"score_unico_xgboost":0.5414519,"score_regional_gradboost":0.7840187,"score_regional_random_forest":0.7407957,"score_regional_logistic_regression":0.7104145,"score_regional_fuzzy_knn":0.4722735,"score_regional_xgboost":0.8249802},"geometry":{"type":"Polygon","coordinates":[[[-72.8400019,-7.4747622],[-72.8319268,-7.4748325],[-72.8318797,-7.4694338],[-72.8399547,-7.4693636],[-72.8400019,-7.4747622]]]}},{"type":"Feature","id":"AC-Y805-X189","properties":{"id":"AC-Y805-X189","grid_x":189,"grid_y":805,"region":"oeste","centroid":[-72.8278657,-7.4721682],"aggregation":"none","score_unico_gradboost":0.5492884,"score_unico_random_forest":0.5244005,"score_unico_logistic_regression":0.6987194,"score_unico_fuzzy_knn":0.6774928,"score_unico_xgboost":0.4925608,"score_regional_gradboost":0.8278264,"score_regional_random_forest":0.7063811,"score_regional_logistic_regression":0.7565186,"score_regional_fuzzy_knn":0.4439147,"score_regional_xgboost":0.8403348},"geometry":{"type":"Polygon","coordinates":[[[-72.8319268,-7.4748325],[-72.8238517,-7.4749026],[-72.8238047,-7.4695039],[-72.8318797,-7.4694338],[-72.8319268,-7.4748325]]]}},{"type":"Feature","id":"AC-Y805-X190","properties":{"id":"AC-Y805-X190","grid_x":190,"grid_y":805,"region":"oeste","centroid":[-72.8197906,-7.4722383],"aggregation":"none","score_unico_gradboost":0.4830188,"score_unico_random_forest":0.5814107,"score_unico_logistic_regression":0.8268777,"score_unico_fuzzy_knn":0.6430971,"score_unico_xgboost":0.443214,"score_regional_gradboost":0.8430493,"score_regional_random_forest":0.7245187,"score_regional_logistic_regression":0.8487725,"score_regional_fuzzy_knn":0.7002807,"score_regional_xgboost":0.8595683},"geometry":{"type":"Polygon","coordinates":[[[-72.8238517,-7.4749026],[-72.8157765,-7.4749726],[-72.8157296,-7.4695739],[-72.8238047,-7.4695039],[-72.8238517,-7.4749026]]]}},{"type":"Feature","id":"AC-Y805-X191","properties":{"id":"AC-Y805-X191","grid_x":191,"grid_y":805,"region":"oeste","centroid":[-72.8117154,-7.4723082],"aggregation":"none","score_unico_gradboost":0.342359,"score_unico_random_forest":0.5051284,"score_unico_logistic_regression":0.6442211,"score_unico_fuzzy_knn":0.6530187,"score_unico_xgboost":0.2905667,"score_regional_gradboost":0.8800874,"score_regional_random_forest":0.738509,"score_regional_logistic_regression":0.7060705,"score_regional_fuzzy_knn":0.667586,"score_regional_xgboost":0.862907},"geometry":{"type":"Polygon","coordinates":[[[-72.8157765,-7.4749726],[-72.8077012,-7.4750425],[-72.8076544,-7.4696437],[-72.8157296,-7.4695739],[-72.8157765,-7.4749726]]]}},{"type":"Feature","id":"AC-Y806-X184","properties":{"id":"AC-Y806-X184","grid_x":184,"grid_y":806,"region":"oeste","centroid":[-72.8681927,-7.4664173],"aggregation":"none","score_unico_gradboost":0.4401508,"score_unico_random_forest":0.4156277,"score_unico_logistic_regression":0.6923976,"score_unico_fuzzy_knn":0.5956273,"score_unico_xgboost":0.3964589,"score_regional_gradboost":0.7842902,"score_regional_random_forest":0.7147243,"score_regional_logistic_regression":0.7577045,"score_regional_fuzzy_knn":0.5375763,"score_regional_xgboost":0.8468789},"geometry":{"type":"Polygon","coordinates":[[[-72.8722538,-7.4690811],[-72.8641791,-7.4691519],[-72.8641316,-7.4637535],[-72.8722062,-7.4636827],[-72.8722538,-7.4690811]]]}},{"type":"Feature","id":"AC-Y806-X185","properties":{"id":"AC-Y806-X185","grid_x":185,"grid_y":806,"region":"oeste","centroid":[-72.860118,-7.4664881],"aggregation":"none","score_unico_gradboost":0.4913053,"score_unico_random_forest":0.5687877,"score_unico_logistic_regression":0.6505471,"score_unico_fuzzy_knn":0.6598866,"score_unico_xgboost":0.5148991,"score_regional_gradboost":0.691832,"score_regional_random_forest":0.6590728,"score_regional_logistic_regression":0.7202334,"score_regional_fuzzy_knn":0.4483095,"score_regional_xgboost":0.7944175},"geometry":{"type":"Polygon","coordinates":[[[-72.8641791,-7.4691519],[-72.8561044,-7.4692226],[-72.856057,-7.4638241],[-72.8641316,-7.4637535],[-72.8641791,-7.4691519]]]}},{"type":"Feature","id":"AC-Y806-X186","properties":{"id":"AC-Y806-X186","grid_x":186,"grid_y":806,"region":"oeste","centroid":[-72.8520433,-7.4665587],"aggregation":"none","score_unico_gradboost":0.3024305,"score_unico_random_forest":0.4832542,"score_unico_logistic_regression":0.5936859,"score_unico_fuzzy_knn":0.6184658,"score_unico_xgboost":0.2734175,"score_regional_gradboost":0.7800845,"score_regional_random_forest":0.6864942,"score_regional_logistic_regression":0.6697777,"score_regional_fuzzy_knn":0.6762581,"score_regional_xgboost":0.8076102},"geometry":{"type":"Polygon","coordinates":[[[-72.8561044,-7.4692226],[-72.8480296,-7.4692932],[-72.8479823,-7.4638946],[-72.856057,-7.4638241],[-72.8561044,-7.4692226]]]}},{"type":"Feature","id":"AC-Y806-X187","properties":{"id":"AC-Y806-X187","grid_x":187,"grid_y":806,"region":"oeste","centroid":[-72.8439685,-7.4666291],"aggregation":"none","score_unico_gradboost":0.5485277,"score_unico_random_forest":0.5273071,"score_unico_logistic_regression":0.6374973,"score_unico_fuzzy_knn":0.6647943,"score_unico_xgboost":0.5125282,"score_regional_gradboost":0.6975642,"score_regional_random_forest":0.6754763,"score_regional_logistic_regression":0.7089926,"score_regional_fuzzy_knn":0.4420274,"score_regional_xgboost":0.7944175},"geometry":{"type":"Polygon","coordinates":[[[-72.8480296,-7.4692932],[-72.8399547,-7.4693636],[-72.8399075,-7.463965],[-72.8479823,-7.4638946],[-72.8480296,-7.4692932]]]}},{"type":"Feature","id":"AC-Y806-X188","properties":{"id":"AC-Y806-X188","grid_x":188,"grid_y":806,"region":"oeste","centroid":[-72.8358937,-7.4666994],"aggregation":"none","score_unico_gradboost":0.4182578,"score_unico_random_forest":0.3771947,"score_unico_logistic_regression":0.6790979,"score_unico_fuzzy_knn":0.5788784,"score_unico_xgboost":0.4089526,"score_regional_gradboost":0.8023872,"score_regional_random_forest":0.7636777,"score_regional_logistic_regression":0.7419598,"score_regional_fuzzy_knn":0.5009423,"score_regional_xgboost":0.8335088},"geometry":{"type":"Polygon","coordinates":[[[-72.8399547,-7.4693636],[-72.8318797,-7.4694338],[-72.8318327,-7.4640352],[-72.8399075,-7.463965],[-72.8399547,-7.4693636]]]}},{"type":"Feature","id":"AC-Y806-X189","properties":{"id":"AC-Y806-X189","grid_x":189,"grid_y":806,"region":"oeste","centroid":[-72.8278187,-7.4667696],"aggregation":"none","score_unico_gradboost":0.5492884,"score_unico_random_forest":0.5102042,"score_unico_logistic_regression":0.6970032,"score_unico_fuzzy_knn":0.6651478,"score_unico_xgboost":0.484319,"score_regional_gradboost":0.8278264,"score_regional_random_forest":0.7033054,"score_regional_logistic_regression":0.7537903,"score_regional_fuzzy_knn":0.4571353,"score_regional_xgboost":0.8355719},"geometry":{"type":"Polygon","coordinates":[[[-72.8318797,-7.4694338],[-72.8238047,-7.4695039],[-72.8237577,-7.4641052],[-72.8318327,-7.4640352],[-72.8318797,-7.4694338]]]}},{"type":"Feature","id":"AC-Y807-X184","properties":{"id":"AC-Y807-X184","grid_x":184,"grid_y":807,"region":"oeste","centroid":[-72.8681452,-7.4610189],"aggregation":"none","score_unico_gradboost":0.3148343,"score_unico_random_forest":0.4479729,"score_unico_logistic_regression":0.5926294,"score_unico_fuzzy_knn":0.5928753,"score_unico_xgboost":0.2722869,"score_regional_gradboost":0.7800845,"score_regional_random_forest":0.6875762,"score_regional_logistic_regression":0.6682681,"score_regional_fuzzy_knn":0.6972281,"score_regional_xgboost":0.8011546},"geometry":{"type":"Polygon","coordinates":[[[-72.8722062,-7.4636827],[-72.8641316,-7.4637535],[-72.8640842,-7.4583551],[-72.8721587,-7.4582843],[-72.8722062,-7.4636827]]]}},{"type":"Feature","id":"AC-Y807-X185","properties":{"id":"AC-Y807-X185","grid_x":185,"grid_y":807,"region":"oeste","centroid":[-72.8600706,-7.4610896],"aggregation":"none","score_unico_gradboost":0.3029108,"score_unico_random_forest":0.4568483,"score_unico_logistic_regression":0.5664418,"score_unico_fuzzy_knn":0.6392731,"score_unico_xgboost":0.2492861,"score_regional_gradboost":0.7763754,"score_regional_random_forest":0.6908478,"score_regional_logistic_regression":0.6416928,"score_regional_fuzzy_knn":0.6525947,"score_regional_xgboost":0.8011546},"geometry":{"type":"Polygon","coordinates":[[[-72.8641316,-7.4637535],[-72.856057,-7.4638241],[-72.8560097,-7.4584257],[-72.8640842,-7.4583551],[-72.8641316,-7.4637535]]]}},{"type":"Feature","id":"AC-Y807-X186","properties":{"id":"AC-Y807-X186","grid_x":186,"grid_y":807,"region":"oeste","centroid":[-72.851996,-7.4611602],"aggregation":"none","score_unico_gradboost":0.5027164,"score_unico_random_forest":0.546441,"score_unico_logistic_regression":0.6381362,"score_unico_fuzzy_knn":0.6761563,"score_unico_xgboost":0.506734,"score_regional_gradboost":0.6821511,"score_regional_random_forest":0.6576159,"score_regional_logistic_regression":0.7093569,"score_regional_fuzzy_knn":0.4518422,"score_regional_xgboost":0.7641716},"geometry":{"type":"Polygon","coordinates":[[[-72.856057,-7.4638241],[-72.8479823,-7.4638946],[-72.8479351,-7.4584961],[-72.8560097,-7.4584257],[-72.856057,-7.4638241]]]}},{"type":"Feature","id":"AC-Y807-X187","properties":{"id":"AC-Y807-X187","grid_x":187,"grid_y":807,"region":"oeste","centroid":[-72.8439213,-7.4612306],"aggregation":"none","score_unico_gradboost":0.3191462,"score_unico_random_forest":0.4611616,"score_unico_logistic_regression":0.5820509,"score_unico_fuzzy_knn":0.6428593,"score_unico_xgboost":0.2447992,"score_regional_gradboost":0.7840948,"score_regional_random_forest":0.6968087,"score_regional_logistic_regression":0.6575115,"score_regional_fuzzy_knn":0.6787725,"score_regional_xgboost":0.8119138},"geometry":{"type":"Polygon","coordinates":[[[-72.8479823,-7.4638946],[-72.8399075,-7.463965],[-72.8398604,-7.4585664],[-72.8479351,-7.4584961],[-72.8479823,-7.4638946]]]}},{"type":"Feature","id":"AC-Y808-X184","properties":{"id":"AC-Y808-X184","grid_x":184,"grid_y":808,"region":"oeste","centroid":[-72.8680977,-7.4556205],"aggregation":"none","score_unico_gradboost":0.3147186,"score_unico_random_forest":0.4732715,"score_unico_logistic_regression":0.5572334,"score_unico_fuzzy_knn":0.6617525,"score_unico_xgboost":0.2594111,"score_regional_gradboost":0.7570181,"score_regional_random_forest":0.66505,"score_regional_logistic_regression":0.6321997,"score_regional_fuzzy_knn":0.6352221,"score_regional_xgboost":0.7903448},"geometry":{"type":"Polygon","coordinates":[[[-72.8721587,-7.4582843],[-72.8640842,-7.4583551],[-72.8640368,-7.4529566],[-72.8721111,-7.452886],[-72.8721587,-7.4582843]]]}},{"type":"Feature","id":"AC-Y808-X185","properties":{"id":"AC-Y808-X185","grid_x":185,"grid_y":808,"region":"oeste","centroid":[-72.8600233,-7.4556912],"aggregation":"none","score_unico_gradboost":0.326889,"score_unico_random_forest":0.4547189,"score_unico_logistic_regression":0.58033,"score_unico_fuzzy_knn":0.6233902,"score_unico_xgboost":0.2973396,"score_regional_gradboost":0.7526635,"score_regional_random_forest":0.6481985,"score_regional_logistic_regression":0.6567852,"score_regional_fuzzy_knn":0.6459393,"score_regional_xgboost":0.7903448},"geometry":{"type":"Polygon","coordinates":[[[-72.8640842,-7.4583551],[-72.8560097,-7.4584257],[-72.8559624,-7.4530272],[-72.8640368,-7.4529566],[-72.8640842,-7.4583551]]]}},{"type":"Feature","id":"AC-Y809-X184","properties":{"id":"AC-Y809-X184","grid_x":184,"grid_y":809,"region":"oeste","centroid":[-72.8680503,-7.4502221],"aggregation":"none","score_unico_gradboost":0.3300522,"score_unico_random_forest":0.4953084,"score_unico_logistic_regression":0.5367195,"score_unico_fuzzy_knn":0.6619626,"score_unico_xgboost":0.5115252,"score_regional_gradboost":0.0379352,"score_regional_random_forest":0.5840402,"score_regional_logistic_regression":0.5567635,"score_regional_fuzzy_knn":0.5125085,"score_regional_xgboost":0.0838646},"geometry":{"type":"Polygon","coordinates":[[[-72.8721111,-7.452886],[-72.8640368,-7.4529566],[-72.8639894,-7.4475582],[-72.8720637,-7.4474876],[-72.8721111,-7.452886]]]}},{"type":"Feature","id":"AC-Y800-X201","properties":{"id":"AC-Y800-X201","grid_x":201,"grid_y":800,"region":"oeste","centroid":[-72.7311889,-7.4999955],"aggregation":"none","score_unico_gradboost":0.4769661,"score_unico_random_forest":0.4228909,"score_unico_logistic_regression":0.6318265,"score_unico_fuzzy_knn":0.5242646,"score_unico_xgboost":0.3644034,"score_regional_gradboost":0.6717065,"score_regional_random_forest":0.7055392,"score_regional_logistic_regression":0.690909,"score_regional_fuzzy_knn":0.3763376,"score_regional_xgboost":0.7572705},"geometry":{"type":"Polygon","coordinates":[[[-72.7352502,-7.5026608],[-72.7271737,-7.5027294],[-72.7271277,-7.4973301],[-72.7352041,-7.4972616],[-72.7352502,-7.5026608]]]}},{"type":"Feature","id":"AC-Y799-X191","properties":{"id":"AC-Y799-X191","grid_x":191,"grid_y":799,"region":"oeste","centroid":[-72.8119973,-7.5047007],"aggregation":"none","score_unico_gradboost":0.5358048,"score_unico_random_forest":0.5500375,"score_unico_logistic_regression":0.6876798,"score_unico_fuzzy_knn":0.347686,"score_unico_xgboost":0.5158979,"score_regional_gradboost":0.7568427,"score_regional_random_forest":0.7298942,"score_regional_logistic_regression":0.7479874,"score_regional_fuzzy_knn":0.4677672,"score_regional_xgboost":0.825497},"geometry":{"type":"Polygon","coordinates":[[[-72.8160587,-7.507365],[-72.8079828,-7.5074352],[-72.8079358,-7.5020364],[-72.8160116,-7.5019663],[-72.8160587,-7.507365]]]}},{"type":"Feature","id":"AC-Y799-X192","properties":{"id":"AC-Y799-X192","grid_x":192,"grid_y":799,"region":"oeste","centroid":[-72.8039214,-7.5047708],"aggregation":"none","score_unico_gradboost":0.492446,"score_unico_random_forest":0.5351659,"score_unico_logistic_regression":0.6472306,"score_unico_fuzzy_knn":0.4871182,"score_unico_xgboost":0.4866685,"score_regional_gradboost":0.8084379,"score_regional_random_forest":0.7419014,"score_regional_logistic_regression":0.7141858,"score_regional_fuzzy_knn":0.4684691,"score_regional_xgboost":0.825497},"geometry":{"type":"Polygon","coordinates":[[[-72.8079828,-7.5074352],[-72.7999069,-7.5075052],[-72.7998599,-7.5021064],[-72.8079358,-7.5020364],[-72.8079828,-7.5074352]]]}},{"type":"Feature","id":"AC-Y799-X193","properties":{"id":"AC-Y799-X193","grid_x":193,"grid_y":799,"region":"oeste","centroid":[-72.7958454,-7.5048407],"aggregation":"none","score_unico_gradboost":0.3830613,"score_unico_random_forest":0.3806897,"score_unico_logistic_regression":0.6608197,"score_unico_fuzzy_knn":0.5738447,"score_unico_xgboost":0.4281109,"score_regional_gradboost":0.81736,"score_regional_random_forest":0.7739169,"score_regional_logistic_regression":0.7269038,"score_regional_fuzzy_knn":0.5135797,"score_regional_xgboost":0.8440837},"geometry":{"type":"Polygon","coordinates":[[[-72.7999069,-7.5075052],[-72.7918308,-7.5075751],[-72.791784,-7.5021762],[-72.7998599,-7.5021064],[-72.7999069,-7.5075052]]]}},{"type":"Feature","id":"AC-Y799-X194","properties":{"id":"AC-Y799-X194","grid_x":194,"grid_y":799,"region":"oeste","centroid":[-72.7877694,-7.5049105],"aggregation":"none","score_unico_gradboost":0.4015324,"score_unico_random_forest":0.3697533,"score_unico_logistic_regression":0.656852,"score_unico_fuzzy_knn":0.6041626,"score_unico_xgboost":0.4336087,"score_regional_gradboost":0.8354247,"score_regional_random_forest":0.7673537,"score_regional_logistic_regression":0.7237876,"score_regional_fuzzy_knn":0.4980998,"score_regional_xgboost":0.8440837},"geometry":{"type":"Polygon","coordinates":[[[-72.7918308,-7.5075751],[-72.7837547,-7.5076448],[-72.783708,-7.5022459],[-72.791784,-7.5021762],[-72.7918308,-7.5075751]]]}},{"type":"Feature","id":"AC-Y799-X195","properties":{"id":"AC-Y799-X195","grid_x":195,"grid_y":799,"region":"oeste","centroid":[-72.7796933,-7.5049801],"aggregation":"none","score_unico_gradboost":0.4306728,"score_unico_random_forest":0.406378,"score_unico_logistic_regression":0.7349025,"score_unico_fuzzy_knn":0.6525001,"score_unico_xgboost":0.3572884,"score_regional_gradboost":0.7599633,"score_regional_random_forest":0.7163914,"score_regional_logistic_regression":0.7920513,"score_regional_fuzzy_knn":0.5645219,"score_regional_xgboost":0.8468789},"geometry":{"type":"Polygon","coordinates":[[[-72.7837547,-7.5076448],[-72.7756785,-7.5077144],[-72.7756319,-7.5023154],[-72.783708,-7.5022459],[-72.7837547,-7.5076448]]]}},{"type":"Feature","id":"AC-Y799-X196","properties":{"id":"AC-Y799-X196","grid_x":196,"grid_y":799,"region":"oeste","centroid":[-72.7716171,-7.5050496],"aggregation":"none","score_unico_gradboost":0.3943565,"score_unico_random_forest":0.5285445,"score_unico_logistic_regression":0.801746,"score_unico_fuzzy_knn":0.7265409,"score_unico_xgboost":0.4603109,"score_regional_gradboost":0.7855948,"score_regional_random_forest":0.7143679,"score_regional_logistic_regression":0.8423647,"score_regional_fuzzy_knn":0.5520052,"score_regional_xgboost":0.8422745},"geometry":{"type":"Polygon","coordinates":[[[-72.7756785,-7.5077144],[-72.7676022,-7.5077838],[-72.7675557,-7.5023848],[-72.7756319,-7.5023154],[-72.7756785,-7.5077144]]]}},{"type":"Feature","id":"AC-Y799-X197","properties":{"id":"AC-Y799-X197","grid_x":197,"grid_y":799,"region":"oeste","centroid":[-72.7635408,-7.5051189],"aggregation":"none","score_unico_gradboost":0.4889211,"score_unico_random_forest":0.4940975,"score_unico_logistic_regression":0.6952297,"score_unico_fuzzy_knn":0.5576508,"score_unico_xgboost":0.4563688,"score_regional_gradboost":0.8175222,"score_regional_random_forest":0.7387188,"score_regional_logistic_regression":0.7452278,"score_regional_fuzzy_knn":0.4451675,"score_regional_xgboost":0.8233824},"geometry":{"type":"Polygon","coordinates":[[[-72.7676022,-7.5077838],[-72.7595259,-7.5078531],[-72.7594795,-7.502454],[-72.7675557,-7.5023848],[-72.7676022,-7.5077838]]]}},{"type":"Feature","id":"AC-Y799-X198","properties":{"id":"AC-Y799-X198","grid_x":198,"grid_y":799,"region":"oeste","centroid":[-72.7554645,-7.5051881],"aggregation":"none","score_unico_gradboost":0.4499035,"score_unico_random_forest":0.4555916,"score_unico_logistic_regression":0.6514599,"score_unico_fuzzy_knn":0.5816719,"score_unico_xgboost":0.4123163,"score_regional_gradboost":0.8359983,"score_regional_random_forest":0.7345968,"score_regional_logistic_regression":0.7104559,"score_regional_fuzzy_knn":0.4563978,"score_regional_xgboost":0.8233824},"geometry":{"type":"Polygon","coordinates":[[[-72.7595259,-7.5078531],[-72.7514495,-7.5079222],[-72.7514031,-7.5025231],[-72.7594795,-7.502454],[-72.7595259,-7.5078531]]]}},{"type":"Feature","id":"AC-Y799-X199","properties":{"id":"AC-Y799-X199","grid_x":199,"grid_y":799,"region":"oeste","centroid":[-72.7473881,-7.5052571],"aggregation":"none","score_unico_gradboost":0.4790817,"score_unico_random_forest":0.3812757,"score_unico_logistic_regression":0.6950311,"score_unico_fuzzy_knn":0.5032797,"score_unico_xgboost":0.2516676,"score_regional_gradboost":0.782321,"score_regional_random_forest":0.7201372,"score_regional_logistic_regression":0.7544831,"score_regional_fuzzy_knn":0.4604602,"score_regional_xgboost":0.8422745},"geometry":{"type":"Polygon","coordinates":[[[-72.7514495,-7.5079222],[-72.743373,-7.5079912],[-72.7433267,-7.502592],[-72.7514031,-7.5025231],[-72.7514495,-7.5079222]]]}},{"type":"Feature","id":"AC-Y800-X191","properties":{"id":"AC-Y800-X191","grid_x":191,"grid_y":800,"region":"oeste","centroid":[-72.8119502,-7.499302],"aggregation":"none","score_unico_gradboost":0.4861004,"score_unico_random_forest":0.4275816,"score_unico_logistic_regression":0.734135,"score_unico_fuzzy_knn":0.5356717,"score_unico_xgboost":0.4132069,"score_regional_gradboost":0.7405211,"score_regional_random_forest":0.7056041,"score_regional_logistic_regression":0.7931576,"score_regional_fuzzy_knn":0.6360232,"score_regional_xgboost":0.847343},"geometry":{"type":"Polygon","coordinates":[[[-72.8160116,-7.5019663],[-72.8079358,-7.5020364],[-72.8078888,-7.4966376],[-72.8159645,-7.4965675],[-72.8160116,-7.5019663]]]}},{"type":"Feature","id":"AC-Y800-X192","properties":{"id":"AC-Y800-X192","grid_x":192,"grid_y":800,"region":"oeste","centroid":[-72.8038744,-7.499372],"aggregation":"none","score_unico_gradboost":0.3922823,"score_unico_random_forest":0.3509442,"score_unico_logistic_regression":0.6733401,"score_unico_fuzzy_knn":0.5894582,"score_unico_xgboost":0.4108582,"score_regional_gradboost":0.81736,"score_regional_random_forest":0.776122,"score_regional_logistic_regression":0.7391006,"score_regional_fuzzy_knn":0.5379853,"score_regional_xgboost":0.8440837},"geometry":{"type":"Polygon","coordinates":[[[-72.8079358,-7.5020364],[-72.7998599,-7.5021064],[-72.7998131,-7.4967075],[-72.8078888,-7.4966376],[-72.8079358,-7.5020364]]]}},{"type":"Feature","id":"AC-Y800-X193","properties":{"id":"AC-Y800-X193","grid_x":193,"grid_y":800,"region":"oeste","centroid":[-72.7957986,-7.4994419],"aggregation":"none","score_unico_gradboost":0.4570035,"score_unico_random_forest":0.4083669,"score_unico_logistic_regression":0.7056818,"score_unico_fuzzy_knn":0.5819467,"score_unico_xgboost":0.4268802,"score_regional_gradboost":0.7842902,"score_regional_random_forest":0.7266203,"score_regional_logistic_regression":0.7721659,"score_regional_fuzzy_knn":0.604939,"score_regional_xgboost":0.8468789},"geometry":{"type":"Polygon","coordinates":[[[-72.7998599,-7.5021064],[-72.791784,-7.5021762],[-72.7917372,-7.4967773],[-72.7998131,-7.4967075],[-72.7998599,-7.5021064]]]}},{"type":"Feature","id":"AC-Y800-X194","properties":{"id":"AC-Y800-X194","grid_x":194,"grid_y":800,"region":"oeste","centroid":[-72.7877226,-7.4995116],"aggregation":"none","score_unico_gradboost":0.410902,"score_unico_random_forest":0.3766741,"score_unico_logistic_regression":0.6582219,"score_unico_fuzzy_knn":0.6035094,"score_unico_xgboost":0.4154353,"score_regional_gradboost":0.8354247,"score_regional_random_forest":0.7668155,"score_regional_logistic_regression":0.723995,"score_regional_fuzzy_knn":0.5057475,"score_regional_xgboost":0.8440837},"geometry":{"type":"Polygon","coordinates":[[[-72.791784,-7.5021762],[-72.783708,-7.5022459],[-72.7836613,-7.4968469],[-72.7917372,-7.4967773],[-72.791784,-7.5021762]]]}},{"type":"Feature","id":"AC-Y800-X195","properties":{"id":"AC-Y800-X195","grid_x":195,"grid_y":800,"region":"oeste","centroid":[-72.7796466,-7.4995812],"aggregation":"none","score_unico_gradboost":0.4063567,"score_unico_random_forest":0.359363,"score_unico_logistic_regression":0.70265,"score_unico_fuzzy_knn":0.5778661,"score_unico_xgboost":0.3818342,"score_regional_gradboost":0.781642,"score_regional_random_forest":0.7545927,"score_regional_logistic_regression":0.7601586,"score_regional_fuzzy_knn":0.5006106,"score_regional_xgboost":0.8468789},"geometry":{"type":"Polygon","coordinates":[[[-72.783708,-7.5022459],[-72.7756319,-7.5023154],[-72.7755853,-7.4969164],[-72.7836613,-7.4968469],[-72.783708,-7.5022459]]]}},{"type":"Feature","id":"AC-Y800-X196","properties":{"id":"AC-Y800-X196","grid_x":196,"grid_y":800,"region":"oeste","centroid":[-72.7715705,-7.4996506],"aggregation":"none","score_unico_gradboost":0.4942911,"score_unico_random_forest":0.4259323,"score_unico_logistic_regression":0.7898529,"score_unico_fuzzy_knn":0.6538256,"score_unico_xgboost":0.3673177,"score_regional_gradboost":0.7561802,"score_regional_random_forest":0.7203225,"score_regional_logistic_regression":0.8302575,"score_regional_fuzzy_knn":0.4944578,"score_regional_xgboost":0.8422745},"geometry":{"type":"Polygon","coordinates":[[[-72.7756319,-7.5023154],[-72.7675557,-7.5023848],[-72.7675092,-7.4969857],[-72.7755853,-7.4969164],[-72.7756319,-7.5023154]]]}},{"type":"Feature","id":"AC-Y800-X197","properties":{"id":"AC-Y800-X197","grid_x":197,"grid_y":800,"region":"oeste","centroid":[-72.7634944,-7.4997199],"aggregation":"none","score_unico_gradboost":0.5315772,"score_unico_random_forest":0.4711543,"score_unico_logistic_regression":0.7285066,"score_unico_fuzzy_knn":0.664497,"score_unico_xgboost":0.4472457,"score_regional_gradboost":0.7727126,"score_regional_random_forest":0.6875767,"score_regional_logistic_regression":0.7774681,"score_regional_fuzzy_knn":0.4730685,"score_regional_xgboost":0.8355719},"geometry":{"type":"Polygon","coordinates":[[[-72.7675557,-7.5023848],[-72.7594795,-7.502454],[-72.7594331,-7.4970549],[-72.7675092,-7.4969857],[-72.7675557,-7.5023848]]]}},{"type":"Feature","id":"AC-Y800-X198","properties":{"id":"AC-Y800-X198","grid_x":198,"grid_y":800,"region":"oeste","centroid":[-72.7554181,-7.499789],"aggregation":"none","score_unico_gradboost":0.4358239,"score_unico_random_forest":0.4518786,"score_unico_logistic_regression":0.6320625,"score_unico_fuzzy_knn":0.5112688,"score_unico_xgboost":0.3501416,"score_regional_gradboost":0.8325259,"score_regional_random_forest":0.7299891,"score_regional_logistic_regression":0.6900894,"score_regional_fuzzy_knn":0.4412935,"score_regional_xgboost":0.8233824},"geometry":{"type":"Polygon","coordinates":[[[-72.7594795,-7.502454],[-72.7514031,-7.5025231],[-72.7513568,-7.4971239],[-72.7594331,-7.4970549],[-72.7594795,-7.502454]]]}},{"type":"Feature","id":"AC-Y800-X199","properties":{"id":"AC-Y800-X199","grid_x":199,"grid_y":800,"region":"oeste","centroid":[-72.7473418,-7.499858],"aggregation":"none","score_unico_gradboost":0.4020032,"score_unico_random_forest":0.4415118,"score_unico_logistic_regression":0.6155273,"score_unico_fuzzy_knn":0.5532249,"score_unico_xgboost":0.374627,"score_regional_gradboost":0.6631928,"score_regional_random_forest":0.6973348,"score_regional_logistic_regression":0.6776268,"score_regional_fuzzy_knn":0.4206789,"score_regional_xgboost":0.7754288},"geometry":{"type":"Polygon","coordinates":[[[-72.7514031,-7.5025231],[-72.7433267,-7.502592],[-72.7432805,-7.4971928],[-72.7513568,-7.4971239],[-72.7514031,-7.5025231]]]}},{"type":"Feature","id":"AC-Y800-X200","properties":{"id":"AC-Y800-X200","grid_x":200,"grid_y":800,"region":"oeste","centroid":[-72.7392654,-7.4999268],"aggregation":"none","score_unico_gradboost":0.4810924,"score_unico_random_forest":0.4513594,"score_unico_logistic_regression":0.6048152,"score_unico_fuzzy_knn":0.545229,"score_unico_xgboost":0.3983687,"score_regional_gradboost":0.6626207,"score_regional_random_forest":0.6841002,"score_regional_logistic_regression":0.6674072,"score_regional_fuzzy_knn":0.3967459,"score_regional_xgboost":0.7165055},"geometry":{"type":"Polygon","coordinates":[[[-72.7433267,-7.502592],[-72.7352502,-7.5026608],[-72.7352041,-7.4972616],[-72.7432805,-7.4971928],[-72.7433267,-7.502592]]]}},{"type":"Feature","id":"AC-Y801-X192","properties":{"id":"AC-Y801-X192","grid_x":192,"grid_y":801,"region":"oeste","centroid":[-72.8038275,-7.4939732],"aggregation":"none","score_unico_gradboost":0.5489127,"score_unico_random_forest":0.5379868,"score_unico_logistic_regression":0.6705645,"score_unico_fuzzy_knn":0.6928283,"score_unico_xgboost":0.5219929,"score_regional_gradboost":0.7234103,"score_regional_random_forest":0.6957852,"score_regional_logistic_regression":0.7391732,"score_regional_fuzzy_knn":0.4893545,"score_regional_xgboost":0.8173495},"geometry":{"type":"Polygon","coordinates":[[[-72.8078888,-7.4966376],[-72.7998131,-7.4967075],[-72.7997662,-7.4913087],[-72.8078419,-7.4912388],[-72.8078888,-7.4966376]]]}},{"type":"Feature","id":"AC-Y801-X193","properties":{"id":"AC-Y801-X193","grid_x":193,"grid_y":801,"region":"oeste","centroid":[-72.7957517,-7.494043],"aggregation":"none","score_unico_gradboost":0.5319641,"score_unico_random_forest":0.5518981,"score_unico_logistic_regression":0.6127667,"score_unico_fuzzy_knn":0.589443,"score_unico_xgboost":0.5635596,"score_regional_gradboost":0.7480333,"score_regional_random_forest":0.6822129,"score_regional_logistic_regression":0.684519,"score_regional_fuzzy_knn":0.4694204,"score_regional_xgboost":0.7637423},"geometry":{"type":"Polygon","coordinates":[[[-72.7998131,-7.4967075],[-72.7917372,-7.4967773],[-72.7916904,-7.4913784],[-72.7997662,-7.4913087],[-72.7998131,-7.4967075]]]}},{"type":"Feature","id":"AC-Y801-X194","properties":{"id":"AC-Y801-X194","grid_x":194,"grid_y":801,"region":"oeste","centroid":[-72.7876759,-7.4941127],"aggregation":"none","score_unico_gradboost":0.4015324,"score_unico_random_forest":0.3815999,"score_unico_logistic_regression":0.6519992,"score_unico_fuzzy_knn":0.573948,"score_unico_xgboost":0.382271,"score_regional_gradboost":0.8354247,"score_regional_random_forest":0.7713846,"score_regional_logistic_regression":0.7161237,"score_regional_fuzzy_knn":0.4584241,"score_regional_xgboost":0.8440837},"geometry":{"type":"Polygon","coordinates":[[[-72.7917372,-7.4967773],[-72.7836613,-7.4968469],[-72.7836146,-7.491448],[-72.7916904,-7.4913784],[-72.7917372,-7.4967773]]]}},{"type":"Feature","id":"AC-Y801-X195","properties":{"id":"AC-Y801-X195","grid_x":195,"grid_y":801,"region":"oeste","centroid":[-72.7796,-7.4941822],"aggregation":"none","score_unico_gradboost":0.5100797,"score_unico_random_forest":0.4972761,"score_unico_logistic_regression":0.6614703,"score_unico_fuzzy_knn":0.5953285,"score_unico_xgboost":0.4505868,"score_regional_gradboost":0.8368401,"score_regional_random_forest":0.7477759,"score_regional_logistic_regression":0.7203857,"score_regional_fuzzy_knn":0.4566539,"score_regional_xgboost":0.8233824},"geometry":{"type":"Polygon","coordinates":[[[-72.7836613,-7.4968469],[-72.7755853,-7.4969164],[-72.7755387,-7.4915174],[-72.7836146,-7.491448],[-72.7836613,-7.4968469]]]}},{"type":"Feature","id":"AC-Y801-X196","properties":{"id":"AC-Y801-X196","grid_x":196,"grid_y":801,"region":"oeste","centroid":[-72.771524,-7.4942516],"aggregation":"none","score_unico_gradboost":0.4578172,"score_unico_random_forest":0.3875578,"score_unico_logistic_regression":0.7940876,"score_unico_fuzzy_knn":0.6105117,"score_unico_xgboost":0.3366115,"score_regional_gradboost":0.7508013,"score_regional_random_forest":0.7180148,"score_regional_logistic_regression":0.831843,"score_regional_fuzzy_knn":0.4723558,"score_regional_xgboost":0.8422745},"geometry":{"type":"Polygon","coordinates":[[[-72.7755853,-7.4969164],[-72.7675092,-7.4969857],[-72.7674627,-7.4915867],[-72.7755387,-7.4915174],[-72.7755853,-7.4969164]]]}},{"type":"Feature","id":"AC-Y801-X197","properties":{"id":"AC-Y801-X197","grid_x":197,"grid_y":801,"region":"oeste","centroid":[-72.7634479,-7.4943208],"aggregation":"none","score_unico_gradboost":0.334831,"score_unico_random_forest":0.4631016,"score_unico_logistic_regression":0.6699396,"score_unico_fuzzy_knn":0.5117643,"score_unico_xgboost":0.2692292,"score_regional_gradboost":0.8131113,"score_regional_random_forest":0.7235435,"score_regional_logistic_regression":0.7190854,"score_regional_fuzzy_knn":0.433778,"score_regional_xgboost":0.8415344},"geometry":{"type":"Polygon","coordinates":[[[-72.7675092,-7.4969857],[-72.7594331,-7.4970549],[-72.7593867,-7.4916558],[-72.7674627,-7.4915867],[-72.7675092,-7.4969857]]]}},{"type":"Feature","id":"AC-Y801-X198","properties":{"id":"AC-Y801-X198","grid_x":198,"grid_y":801,"region":"oeste","centroid":[-72.7553718,-7.4943899],"aggregation":"none","score_unico_gradboost":0.5151106,"score_unico_random_forest":0.4727523,"score_unico_logistic_regression":0.7435818,"score_unico_fuzzy_knn":0.6660848,"score_unico_xgboost":0.3188271,"score_regional_gradboost":0.7938301,"score_regional_random_forest":0.706057,"score_regional_logistic_regression":0.7973654,"score_regional_fuzzy_knn":0.4702139,"score_regional_xgboost":0.8381966},"geometry":{"type":"Polygon","coordinates":[[[-72.7594331,-7.4970549],[-72.7513568,-7.4971239],[-72.7513106,-7.4917248],[-72.7593867,-7.4916558],[-72.7594331,-7.4970549]]]}},{"type":"Feature","id":"AC-Y801-X199","properties":{"id":"AC-Y801-X199","grid_x":199,"grid_y":801,"region":"oeste","centroid":[-72.7472956,-7.4944588],"aggregation":"none","score_unico_gradboost":0.4514023,"score_unico_random_forest":0.3504597,"score_unico_logistic_regression":0.6990204,"score_unico_fuzzy_knn":0.4938098,"score_unico_xgboost":0.2163758,"score_regional_gradboost":0.782321,"score_regional_random_forest":0.718139,"score_regional_logistic_regression":0.7581038,"score_regional_fuzzy_knn":0.4392613,"score_regional_xgboost":0.8422745},"geometry":{"type":"Polygon","coordinates":[[[-72.7513568,-7.4971239],[-72.7432805,-7.4971928],[-72.7432343,-7.4917936],[-72.7513106,-7.4917248],[-72.7513568,-7.4971239]]]}},{"type":"Feature","id":"AC-Y802-X192","properties":{"id":"AC-Y802-X192","grid_x":192,"grid_y":802,"region":"oeste","centroid":[-72.8037806,-7.4885744],"aggregation":"none","score_unico_gradboost":0.4987855,"score_unico_random_forest":0.5180346,"score_unico_logistic_regression":0.6304515,"score_unico_fuzzy_knn":0.586269,"score_unico_xgboost":0.5452883,"score_regional_gradboost":0.7840187,"score_regional_random_forest":0.7417006,"score_regional_logistic_regression":0.6976543,"score_regional_fuzzy_knn":0.4607512,"score_regional_xgboost":0.8003097},"geometry":{"type":"Polygon","coordinates":[[[-72.8078419,-7.4912388],[-72.7997662,-7.4913087],[-72.7997194,-7.4859099],[-72.8077949,-7.48584],[-72.8078419,-7.4912388]]]}},{"type":"Feature","id":"AC-Y802-X193","properties":{"id":"AC-Y802-X193","grid_x":193,"grid_y":802,"region":"oeste","centroid":[-72.7957049,-7.4886441],"aggregation":"none","score_unico_gradboost":0.5222814,"score_unico_random_forest":0.5285998,"score_unico_logistic_regression":0.6058682,"score_unico_fuzzy_knn":0.5689267,"score_unico_xgboost":0.5609864,"score_regional_gradboost":0.7480333,"score_regional_random_forest":0.6843811,"score_regional_logistic_regression":0.6762748,"score_regional_fuzzy_knn":0.448932,"score_regional_xgboost":0.7637423},"geometry":{"type":"Polygon","coordinates":[[[-72.7997662,-7.4913087],[-72.7916904,-7.4913784],[-72.7916437,-7.4859795],[-72.7997194,-7.4859099],[-72.7997662,-7.4913087]]]}},{"type":"Feature","id":"AC-Y802-X194","properties":{"id":"AC-Y802-X194","grid_x":194,"grid_y":802,"region":"oeste","centroid":[-72.7876292,-7.4887138],"aggregation":"none","score_unico_gradboost":0.4294845,"score_unico_random_forest":0.3607158,"score_unico_logistic_regression":0.6874311,"score_unico_fuzzy_knn":0.5698776,"score_unico_xgboost":0.3066894,"score_regional_gradboost":0.775412,"score_regional_random_forest":0.7411326,"score_regional_logistic_regression":0.749643,"score_regional_fuzzy_knn":0.4907213,"score_regional_xgboost":0.8422745},"geometry":{"type":"Polygon","coordinates":[[[-72.7916904,-7.4913784],[-72.7836146,-7.491448],[-72.783568,-7.4860491],[-72.7916437,-7.4859795],[-72.7916904,-7.4913784]]]}},{"type":"Feature","id":"AC-Y802-X195","properties":{"id":"AC-Y802-X195","grid_x":195,"grid_y":802,"region":"oeste","centroid":[-72.7795534,-7.4887832],"aggregation":"none","score_unico_gradboost":0.3013225,"score_unico_random_forest":0.2954548,"score_unico_logistic_regression":0.6960195,"score_unico_fuzzy_knn":0.5207472,"score_unico_xgboost":0.28129,"score_regional_gradboost":0.8275248,"score_regional_random_forest":0.763762,"score_regional_logistic_regression":0.7502911,"score_regional_fuzzy_knn":0.4656193,"score_regional_xgboost":0.8404636},"geometry":{"type":"Polygon","coordinates":[[[-72.7836146,-7.491448],[-72.7755387,-7.4915174],[-72.7754922,-7.4861184],[-72.783568,-7.4860491],[-72.7836146,-7.491448]]]}},{"type":"Feature","id":"AC-Y802-X196","properties":{"id":"AC-Y802-X196","grid_x":196,"grid_y":802,"region":"oeste","centroid":[-72.7714775,-7.4888526],"aggregation":"none","score_unico_gradboost":0.4550355,"score_unico_random_forest":0.3797528,"score_unico_logistic_regression":0.8104833,"score_unico_fuzzy_knn":0.6027325,"score_unico_xgboost":0.3180551,"score_regional_gradboost":0.7540349,"score_regional_random_forest":0.7133922,"score_regional_logistic_regression":0.8440474,"score_regional_fuzzy_knn":0.4681587,"score_regional_xgboost":0.8422745},"geometry":{"type":"Polygon","coordinates":[[[-72.7755387,-7.4915174],[-72.7674627,-7.4915867],[-72.7674163,-7.4861877],[-72.7754922,-7.4861184],[-72.7755387,-7.4915174]]]}},{"type":"Feature","id":"AC-Y802-X197","properties":{"id":"AC-Y802-X197","grid_x":197,"grid_y":802,"region":"oeste","centroid":[-72.7634015,-7.4889217],"aggregation":"none","score_unico_gradboost":0.481403,"score_unico_random_forest":0.3591095,"score_unico_logistic_regression":0.7420434,"score_unico_fuzzy_knn":0.4891891,"score_unico_xgboost":0.2945258,"score_regional_gradboost":0.7280253,"score_regional_random_forest":0.6936974,"score_regional_logistic_regression":0.7888789,"score_regional_fuzzy_knn":0.4616821,"score_regional_xgboost":0.8422745},"geometry":{"type":"Polygon","coordinates":[[[-72.7674627,-7.4915867],[-72.7593867,-7.4916558],[-72.7593404,-7.4862567],[-72.7674163,-7.4861877],[-72.7674627,-7.4915867]]]}},{"type":"Feature","id":"AC-Y803-X193","properties":{"id":"AC-Y803-X193","grid_x":193,"grid_y":803,"region":"oeste","centroid":[-72.7956582,-7.4832453],"aggregation":"none","score_unico_gradboost":0.5319641,"score_unico_random_forest":0.5077962,"score_unico_logistic_regression":0.6106633,"score_unico_fuzzy_knn":0.5832997,"score_unico_xgboost":0.4873691,"score_regional_gradboost":0.7480333,"score_regional_random_forest":0.6799133,"score_regional_logistic_regression":0.6797925,"score_regional_fuzzy_knn":0.4630069,"score_regional_xgboost":0.7328028},"geometry":{"type":"Polygon","coordinates":[[[-72.7997194,-7.4859099],[-72.7916437,-7.4859795],[-72.791597,-7.4805806],[-72.7996726,-7.480511],[-72.7997194,-7.4859099]]]}},{"type":"Feature","id":"AC-Y803-X194","properties":{"id":"AC-Y803-X194","grid_x":194,"grid_y":803,"region":"oeste","centroid":[-72.7875825,-7.4833149],"aggregation":"none","score_unico_gradboost":0.478828,"score_unico_random_forest":0.4777071,"score_unico_logistic_regression":0.6436364,"score_unico_fuzzy_knn":0.6171076,"score_unico_xgboost":0.4589921,"score_regional_gradboost":0.7249268,"score_regional_random_forest":0.7200229,"score_regional_logistic_regression":0.7080887,"score_regional_fuzzy_knn":0.4633452,"score_regional_xgboost":0.7980416},"geometry":{"type":"Polygon","coordinates":[[[-72.7916437,-7.4859795],[-72.783568,-7.4860491],[-72.7835214,-7.4806501],[-72.791597,-7.4805806],[-72.7916437,-7.4859795]]]}},{"type":"Feature","id":"AC-Y803-X195","properties":{"id":"AC-Y803-X195","grid_x":195,"grid_y":803,"region":"oeste","centroid":[-72.7795068,-7.4833843],"aggregation":"none","score_unico_gradboost":0.3658697,"score_unico_random_forest":0.4136773,"score_unico_logistic_regression":0.7508926,"score_unico_fuzzy_knn":0.6909376,"score_unico_xgboost":0.3158104,"score_regional_gradboost":0.7913413,"score_regional_random_forest":0.7018302,"score_regional_logistic_regression":0.8030129,"score_regional_fuzzy_knn":0.4944857,"score_regional_xgboost":0.8422745},"geometry":{"type":"Polygon","coordinates":[[[-72.783568,-7.4860491],[-72.7754922,-7.4861184],[-72.7754457,-7.4807194],[-72.7835214,-7.4806501],[-72.783568,-7.4860491]]]}},{"type":"Feature","id":"AC-Y804-X193","properties":{"id":"AC-Y804-X193","grid_x":193,"grid_y":804,"region":"oeste","centroid":[-72.7956115,-7.4778464],"aggregation":"none","score_unico_gradboost":0.4929672,"score_unico_random_forest":0.5011273,"score_unico_logistic_regression":0.6079643,"score_unico_fuzzy_knn":0.5450806,"score_unico_xgboost":0.4756817,"score_regional_gradboost":0.7056382,"score_regional_random_forest":0.6784783,"score_regional_logistic_regression":0.6756032,"score_regional_fuzzy_knn":0.4417111,"score_regional_xgboost":0.7328028},"geometry":{"type":"Polygon","coordinates":[[[-72.7996726,-7.480511],[-72.791597,-7.4805806],[-72.7915504,-7.4751818],[-72.7996258,-7.4751122],[-72.7996726,-7.480511]]]}}]}