{"type":"FeatureCollection","features":[{"type":"Feature","id":"AC-Y850-X78","properties":{"id":"AC-Y850-X78","grid_x":78,"grid_y":850,"region":"oeste","centroid":[-73.7211175,-7.2208237],"aggregation":"none","score_unico_gradboost":0.0005212,"score_unico_random_forest":0.0083202,"score_unico_logistic_regression":0.0117204,"score_unico_fuzzy_knn":0.0,"score_unico_xgboost":0.0013654,"score_regional_gradboost":0.0038599,"score_regional_random_forest":0.0611619,"score_regional_logistic_regression":0.0122803,"score_regional_fuzzy_knn":0.0,"score_regional_xgboost":0.0309699},"geometry":{"type":"Polygon","coordinates":[[[-73.7251761,-7.2234781],[-73.7171149,-7.2235617],[-73.7170589,-7.2181692],[-73.72512,-7.2180857],[-73.7251761,-7.2234781]]]}},{"type":"Feature","id":"AC-Y850-X79","properties":{"id":"AC-Y850-X79","grid_x":79,"grid_y":850,"region":"oeste","centroid":[-73.7130564,-7.2209072],"aggregation":"none","score_unico_gradboost":0.0005541,"score_unico_random_forest":0.0060162,"score_unico_logistic_regression":0.0519881,"score_unico_fuzzy_knn":0.0232188,"score_unico_xgboost":0.001335,"score_regional_gradboost":0.003304,"score_regional_random_forest":0.0388728,"score_regional_logistic_regression":0.0623929,"score_regional_fuzzy_knn":0.0323682,"score_regional_xgboost":0.0229776},"geometry":{"type":"Polygon","coordinates":[[[-73.7171149,-7.2235617],[-73.7090537,-7.2236451],[-73.7089978,-7.2182526],[-73.7170589,-7.2181692],[-73.7171149,-7.2235617]]]}},{"type":"Feature","id":"AC-Y851-X77","properties":{"id":"AC-Y851-X77","grid_x":77,"grid_y":851,"region":"oeste","centroid":[-73.7291224,-7.2153477],"aggregation":"none","score_unico_gradboost":0.0006156,"score_unico_random_forest":0.013636,"score_unico_logistic_regression":0.0571169,"score_unico_fuzzy_knn":0.026559,"score_unico_xgboost":0.0017167,"score_regional_gradboost":0.006327,"score_regional_random_forest":0.1301888,"score_regional_logistic_regression":0.076671,"score_regional_fuzzy_knn":0.0515751,"score_regional_xgboost":0.0613217},"geometry":{"type":"Polygon","coordinates":[[[-73.7331809,-7.218002],[-73.72512,-7.2180857],[-73.7250639,-7.2126933],[-73.7331248,-7.2126097],[-73.7331809,-7.218002]]]}},{"type":"Feature","id":"AC-Y851-X78","properties":{"id":"AC-Y851-X78","grid_x":78,"grid_y":851,"region":"oeste","centroid":[-73.7210615,-7.2154313],"aggregation":"none","score_unico_gradboost":0.0004981,"score_unico_random_forest":0.032467,"score_unico_logistic_regression":0.0449721,"score_unico_fuzzy_knn":0.0235708,"score_unico_xgboost":0.0014329,"score_regional_gradboost":0.0040165,"score_regional_random_forest":0.1038623,"score_regional_logistic_regression":0.0556363,"score_regional_fuzzy_knn":0.0325743,"score_regional_xgboost":0.0374706},"geometry":{"type":"Polygon","coordinates":[[[-73.72512,-7.2180857],[-73.7170589,-7.2181692],[-73.717003,-7.2127768],[-73.7250639,-7.2126933],[-73.72512,-7.2180857]]]}},{"type":"Feature","id":"AC-Y851-X79","properties":{"id":"AC-Y851-X79","grid_x":79,"grid_y":851,"region":"oeste","centroid":[-73.7130004,-7.2155147],"aggregation":"none","score_unico_gradboost":0.0007602,"score_unico_random_forest":0.0062389,"score_unico_logistic_regression":0.093685,"score_unico_fuzzy_knn":0.0392335,"score_unico_xgboost":0.001315,"score_regional_gradboost":0.0063059,"score_regional_random_forest":0.0399158,"score_regional_logistic_regression":0.1198474,"score_regional_fuzzy_knn":0.0559516,"score_regional_xgboost":0.0229776},"geometry":{"type":"Polygon","coordinates":[[[-73.7170589,-7.2181692],[-73.7089978,-7.2182526],[-73.7089419,-7.2128601],[-73.717003,-7.2127768],[-73.7170589,-7.2181692]]]}},{"type":"Feature","id":"AC-Y852-X76","properties":{"id":"AC-Y852-X76","grid_x":76,"grid_y":852,"region":"oeste","centroid":[-73.7371271,-7.2098717],"aggregation":"none","score_unico_gradboost":0.0005859,"score_unico_random_forest":0.038219,"score_unico_logistic_regression":0.034848,"score_unico_fuzzy_knn":0.016213,"score_unico_xgboost":0.0036809,"score_regional_gradboost":0.0072971,"score_regional_random_forest":0.1400715,"score_regional_logistic_regression":0.0573557,"score_regional_fuzzy_knn":0.0253549,"score_regional_xgboost":0.0356983},"geometry":{"type":"Polygon","coordinates":[[[-73.7411855,-7.212526],[-73.7331248,-7.2126097],[-73.7330687,-7.2072174],[-73.7411293,-7.2071337],[-73.7411855,-7.212526]]]}},{"type":"Feature","id":"AC-Y852-X77","properties":{"id":"AC-Y852-X77","grid_x":77,"grid_y":852,"region":"oeste","centroid":[-73.7290663,-7.2099554],"aggregation":"none","score_unico_gradboost":0.000683,"score_unico_random_forest":0.0138897,"score_unico_logistic_regression":0.0244848,"score_unico_fuzzy_knn":0.0,"score_unico_xgboost":0.001917,"score_regional_gradboost":0.0076549,"score_regional_random_forest":0.1280556,"score_regional_logistic_regression":0.0305779,"score_regional_fuzzy_knn":0.0162626,"score_regional_xgboost":0.0613217},"geometry":{"type":"Polygon","coordinates":[[[-73.7331248,-7.2126097],[-73.7250639,-7.2126933],[-73.7250079,-7.207301],[-73.7330687,-7.2072174],[-73.7331248,-7.2126097]]]}},{"type":"Feature","id":"AC-Y852-X78","properties":{"id":"AC-Y852-X78","grid_x":78,"grid_y":852,"region":"oeste","centroid":[-73.7210055,-7.2100389],"aggregation":"none","score_unico_gradboost":0.000515,"score_unico_random_forest":0.0213126,"score_unico_logistic_regression":0.0445706,"score_unico_fuzzy_knn":0.0236265,"score_unico_xgboost":0.0013941,"score_regional_gradboost":0.0041666,"score_regional_random_forest":0.1186028,"score_regional_logistic_regression":0.0554049,"score_regional_fuzzy_knn":0.0326374,"score_regional_xgboost":0.0440191},"geometry":{"type":"Polygon","coordinates":[[[-73.7250639,-7.2126933],[-73.717003,-7.2127768],[-73.7169471,-7.2073844],[-73.7250079,-7.207301],[-73.7250639,-7.2126933]]]}},{"type":"Feature","id":"AC-Y852-X79","properties":{"id":"AC-Y852-X79","grid_x":79,"grid_y":852,"region":"oeste","centroid":[-73.7129445,-7.2101223],"aggregation":"none","score_unico_gradboost":0.0028232,"score_unico_random_forest":0.008058,"score_unico_logistic_regression":0.13874,"score_unico_fuzzy_knn":0.0548457,"score_unico_xgboost":0.002361,"score_regional_gradboost":0.0200171,"score_regional_random_forest":0.0422218,"score_regional_logistic_regression":0.1855823,"score_regional_fuzzy_knn":0.0958758,"score_regional_xgboost":0.0453426},"geometry":{"type":"Polygon","coordinates":[[[-73.717003,-7.2127768],[-73.7089419,-7.2128601],[-73.7088861,-7.2074677],[-73.7169471,-7.2073844],[-73.717003,-7.2127768]]]}},{"type":"Feature","id":"AC-Y853-X75","properties":{"id":"AC-Y853-X75","grid_x":75,"grid_y":853,"region":"oeste","centroid":[-73.7451315,-7.2043957],"aggregation":"none","score_unico_gradboost":0.0007101,"score_unico_random_forest":0.0152519,"score_unico_logistic_regression":0.0619293,"score_unico_fuzzy_knn":0.0280596,"score_unico_xgboost":0.0019859,"score_regional_gradboost":0.0099499,"score_regional_random_forest":0.1366995,"score_regional_logistic_regression":0.0870528,"score_regional_fuzzy_knn":0.0541953,"score_regional_xgboost":0.0726758},"geometry":{"type":"Polygon","coordinates":[[[-73.7491899,-7.2070499],[-73.7411293,-7.2071337],[-73.7410732,-7.2017415],[-73.7491336,-7.2016577],[-73.7491899,-7.2070499]]]}},{"type":"Feature","id":"AC-Y853-X76","properties":{"id":"AC-Y853-X76","grid_x":76,"grid_y":853,"region":"oeste","centroid":[-73.737071,-7.2044795],"aggregation":"none","score_unico_gradboost":0.0006008,"score_unico_random_forest":0.0392488,"score_unico_logistic_regression":0.0648979,"score_unico_fuzzy_knn":0.0360629,"score_unico_xgboost":0.0037297,"score_regional_gradboost":0.0070323,"score_regional_random_forest":0.1400715,"score_regional_logistic_regression":0.1152848,"score_regional_fuzzy_knn":0.0553887,"score_regional_xgboost":0.0352172},"geometry":{"type":"Polygon","coordinates":[[[-73.7411293,-7.2071337],[-73.7330687,-7.2072174],[-73.7330126,-7.2018251],[-73.7410732,-7.2017415],[-73.7411293,-7.2071337]]]}},{"type":"Feature","id":"AC-Y853-X77","properties":{"id":"AC-Y853-X77","grid_x":77,"grid_y":853,"region":"oeste","centroid":[-73.7290103,-7.204563],"aggregation":"none","score_unico_gradboost":0.000683,"score_unico_random_forest":0.0142975,"score_unico_logistic_regression":0.0361949,"score_unico_fuzzy_knn":0.0234696,"score_unico_xgboost":0.0020061,"score_regional_gradboost":0.0099499,"score_regional_random_forest":0.1365526,"score_regional_logistic_regression":0.0477169,"score_regional_fuzzy_knn":0.0251162,"score_regional_xgboost":0.0726758},"geometry":{"type":"Polygon","coordinates":[[[-73.7330687,-7.2072174],[-73.7250079,-7.207301],[-73.7249519,-7.2019086],[-73.7330126,-7.2018251],[-73.7330687,-7.2072174]]]}},{"type":"Feature","id":"AC-Y853-X78","properties":{"id":"AC-Y853-X78","grid_x":78,"grid_y":853,"region":"oeste","centroid":[-73.7209495,-7.2046465],"aggregation":"none","score_unico_gradboost":0.0008445,"score_unico_random_forest":0.0173928,"score_unico_logistic_regression":0.1057,"score_unico_fuzzy_knn":0.0536082,"score_unico_xgboost":0.0015962,"score_regional_gradboost":0.0128569,"score_regional_random_forest":0.1267146,"score_regional_logistic_regression":0.1457693,"score_regional_fuzzy_knn":0.0900848,"score_regional_xgboost":0.0602578},"geometry":{"type":"Polygon","coordinates":[[[-73.7250079,-7.207301],[-73.7169471,-7.2073844],[-73.7168912,-7.201992],[-73.7249519,-7.2019086],[-73.7250079,-7.207301]]]}},{"type":"Feature","id":"AC-Y853-X79","properties":{"id":"AC-Y853-X79","grid_x":79,"grid_y":853,"region":"oeste","centroid":[-73.7128887,-7.2047298],"aggregation":"none","score_unico_gradboost":0.0047252,"score_unico_random_forest":0.0130669,"score_unico_logistic_regression":0.1697815,"score_unico_fuzzy_knn":0.0347632,"score_unico_xgboost":0.0029798,"score_regional_gradboost":0.0140649,"score_regional_random_forest":0.0611196,"score_regional_logistic_regression":0.232478,"score_regional_fuzzy_knn":0.1110178,"score_regional_xgboost":0.049174},"geometry":{"type":"Polygon","coordinates":[[[-73.7169471,-7.2073844],[-73.7088861,-7.2074677],[-73.7088303,-7.2020752],[-73.7168912,-7.201992],[-73.7169471,-7.2073844]]]}},{"type":"Feature","id":"AC-Y854-X74","properties":{"id":"AC-Y854-X74","grid_x":74,"grid_y":854,"region":"oeste","centroid":[-73.7531357,-7.1989197],"aggregation":"none","score_unico_gradboost":0.0006988,"score_unico_random_forest":0.0281028,"score_unico_logistic_regression":0.02149,"score_unico_fuzzy_knn":0.0,"score_unico_xgboost":0.0018669,"score_regional_gradboost":0.0042828,"score_regional_random_forest":0.123645,"score_regional_logistic_regression":0.0254258,"score_regional_fuzzy_knn":0.0078909,"score_regional_xgboost":0.054467},"geometry":{"type":"Polygon","coordinates":[[[-73.757194,-7.2015738],[-73.7491336,-7.2016577],[-73.7490774,-7.1962655],[-73.7571377,-7.1961817],[-73.757194,-7.2015738]]]}},{"type":"Feature","id":"AC-Y854-X75","properties":{"id":"AC-Y854-X75","grid_x":75,"grid_y":854,"region":"oeste","centroid":[-73.7450753,-7.1990035],"aggregation":"none","score_unico_gradboost":0.0006858,"score_unico_random_forest":0.0147702,"score_unico_logistic_regression":0.026081,"score_unico_fuzzy_knn":0.0153404,"score_unico_xgboost":0.0019915,"score_regional_gradboost":0.0099499,"score_regional_random_forest":0.1366916,"score_regional_logistic_regression":0.0332389,"score_regional_fuzzy_knn":0.0163689,"score_regional_xgboost":0.0726758},"geometry":{"type":"Polygon","coordinates":[[[-73.7491336,-7.2016577],[-73.7410732,-7.2017415],[-73.7410171,-7.1963492],[-73.7490774,-7.1962655],[-73.7491336,-7.2016577]]]}},{"type":"Feature","id":"AC-Y854-X76","properties":{"id":"AC-Y854-X76","grid_x":76,"grid_y":854,"region":"oeste","centroid":[-73.7370149,-7.1990872],"aggregation":"none","score_unico_gradboost":0.0006008,"score_unico_random_forest":0.0435539,"score_unico_logistic_regression":0.0856587,"score_unico_fuzzy_knn":0.0579502,"score_unico_xgboost":0.0037297,"score_regional_gradboost":0.0070323,"score_regional_random_forest":0.1400715,"score_regional_logistic_regression":0.1545957,"score_regional_fuzzy_knn":0.0652606,"score_regional_xgboost":0.0352172},"geometry":{"type":"Polygon","coordinates":[[[-73.7410732,-7.2017415],[-73.7330126,-7.2018251],[-73.7329566,-7.1964328],[-73.7410171,-7.1963492],[-73.7410732,-7.2017415]]]}},{"type":"Feature","id":"AC-Y854-X77","properties":{"id":"AC-Y854-X77","grid_x":77,"grid_y":854,"region":"oeste","centroid":[-73.7289543,-7.1991707],"aggregation":"none","score_unico_gradboost":0.0008411,"score_unico_random_forest":0.0261121,"score_unico_logistic_regression":0.0992668,"score_unico_fuzzy_knn":0.0627437,"score_unico_xgboost":0.0040367,"score_regional_gradboost":0.0300831,"score_regional_random_forest":0.1425855,"score_regional_logistic_regression":0.1515615,"score_regional_fuzzy_knn":0.0896812,"score_regional_xgboost":0.07351},"geometry":{"type":"Polygon","coordinates":[[[-73.7330126,-7.2018251],[-73.7249519,-7.2019086],[-73.724896,-7.1965162],[-73.7329566,-7.1964328],[-73.7330126,-7.2018251]]]}},{"type":"Feature","id":"AC-Y854-X78","properties":{"id":"AC-Y854-X78","grid_x":78,"grid_y":854,"region":"oeste","centroid":[-73.7208936,-7.1992541],"aggregation":"none","score_unico_gradboost":0.0032384,"score_unico_random_forest":0.013241,"score_unico_logistic_regression":0.1535874,"score_unico_fuzzy_knn":0.0651811,"score_unico_xgboost":0.0038005,"score_regional_gradboost":0.0277799,"score_regional_random_forest":0.1335293,"score_regional_logistic_regression":0.2227445,"score_regional_fuzzy_knn":0.1350845,"score_regional_xgboost":0.0965716},"geometry":{"type":"Polygon","coordinates":[[[-73.7249519,-7.2019086],[-73.7168912,-7.201992],[-73.7168353,-7.1965995],[-73.724896,-7.1965162],[-73.7249519,-7.2019086]]]}},{"type":"Feature","id":"AC-Y854-X79","properties":{"id":"AC-Y854-X79","grid_x":79,"grid_y":854,"region":"oeste","centroid":[-73.7128329,-7.1993373],"aggregation":"none","score_unico_gradboost":0.0019362,"score_unico_random_forest":0.0211026,"score_unico_logistic_regression":0.1771773,"score_unico_fuzzy_knn":0.0432713,"score_unico_xgboost":0.0029398,"score_regional_gradboost":0.0147857,"score_regional_random_forest":0.1217947,"score_regional_logistic_regression":0.2469531,"score_regional_fuzzy_knn":0.1389893,"score_regional_xgboost":0.0737908},"geometry":{"type":"Polygon","coordinates":[[[-73.7168912,-7.201992],[-73.7088303,-7.2020752],[-73.7087746,-7.1966827],[-73.7168353,-7.1965995],[-73.7168912,-7.201992]]]}},{"type":"Feature","id":"AC-Y855-X74","properties":{"id":"AC-Y855-X74","grid_x":74,"grid_y":855,"region":"oeste","centroid":[-73.7530795,-7.1935276],"aggregation":"none","score_unico_gradboost":0.0006136,"score_unico_random_forest":0.0362329,"score_unico_logistic_regression":0.0531227,"score_unico_fuzzy_knn":0.0248741,"score_unico_xgboost":0.0019177,"score_regional_gradboost":0.0042828,"score_regional_random_forest":0.1162723,"score_regional_logistic_regression":0.0686096,"score_regional_fuzzy_knn":0.0416133,"score_regional_xgboost":0.0463907},"geometry":{"type":"Polygon","coordinates":[[[-73.7571377,-7.1961817],[-73.7490774,-7.1962655],[-73.7490213,-7.1908734],[-73.7570815,-7.1907896],[-73.7571377,-7.1961817]]]}},{"type":"Feature","id":"AC-Y855-X75","properties":{"id":"AC-Y855-X75","grid_x":75,"grid_y":855,"region":"oeste","centroid":[-73.7450192,-7.1936113],"aggregation":"none","score_unico_gradboost":0.0006156,"score_unico_random_forest":0.0141088,"score_unico_logistic_regression":0.019469,"score_unico_fuzzy_knn":0.0,"score_unico_xgboost":0.0017042,"score_regional_gradboost":0.006327,"score_regional_random_forest":0.1302418,"score_regional_logistic_regression":0.0233379,"score_regional_fuzzy_knn":0.0080303,"score_regional_xgboost":0.0613217},"geometry":{"type":"Polygon","coordinates":[[[-73.7490774,-7.1962655],[-73.7410171,-7.1963492],[-73.740961,-7.190957],[-73.7490213,-7.1908734],[-73.7490774,-7.1962655]]]}},{"type":"Feature","id":"AC-Y855-X76","properties":{"id":"AC-Y855-X76","grid_x":76,"grid_y":855,"region":"oeste","centroid":[-73.7369588,-7.1936949],"aggregation":"none","score_unico_gradboost":0.0006106,"score_unico_random_forest":0.0214396,"score_unico_logistic_regression":0.0478855,"score_unico_fuzzy_knn":0.0253313,"score_unico_xgboost":0.0042345,"score_regional_gradboost":0.0101957,"score_regional_random_forest":0.1400209,"score_regional_logistic_regression":0.0682277,"score_regional_fuzzy_knn":0.0350811,"score_regional_xgboost":0.0726758},"geometry":{"type":"Polygon","coordinates":[[[-73.7410171,-7.1963492],[-73.7329566,-7.1964328],[-73.7329006,-7.1910405],[-73.740961,-7.190957],[-73.7410171,-7.1963492]]]}},{"type":"Feature","id":"AC-Y855-X77","properties":{"id":"AC-Y855-X77","grid_x":77,"grid_y":855,"region":"oeste","centroid":[-73.7288983,-7.1937784],"aggregation":"none","score_unico_gradboost":0.0046793,"score_unico_random_forest":0.0585542,"score_unico_logistic_regression":0.1670643,"score_unico_fuzzy_knn":0.0917045,"score_unico_xgboost":0.0092485,"score_regional_gradboost":0.0380634,"score_regional_random_forest":0.1437858,"score_regional_logistic_regression":0.3095541,"score_regional_fuzzy_knn":0.1483804,"score_regional_xgboost":0.0637197},"geometry":{"type":"Polygon","coordinates":[[[-73.7329566,-7.1964328],[-73.724896,-7.1965162],[-73.7248401,-7.1911239],[-73.7329006,-7.1910405],[-73.7329566,-7.1964328]]]}},{"type":"Feature","id":"AC-Y855-X78","properties":{"id":"AC-Y855-X78","grid_x":78,"grid_y":855,"region":"oeste","centroid":[-73.7208378,-7.1938617],"aggregation":"none","score_unico_gradboost":0.0047139,"score_unico_random_forest":0.0116716,"score_unico_logistic_regression":0.1765277,"score_unico_fuzzy_knn":0.0623426,"score_unico_xgboost":0.004815,"score_regional_gradboost":0.0445611,"score_regional_random_forest":0.1392482,"score_regional_logistic_regression":0.2631472,"score_regional_fuzzy_knn":0.1428477,"score_regional_xgboost":0.1136622},"geometry":{"type":"Polygon","coordinates":[[[-73.724896,-7.1965162],[-73.7168353,-7.1965995],[-73.7167795,-7.1912071],[-73.7248401,-7.1911239],[-73.724896,-7.1965162]]]}},{"type":"Feature","id":"AC-Y855-X79","properties":{"id":"AC-Y855-X79","grid_x":79,"grid_y":855,"region":"oeste","centroid":[-73.7127771,-7.1939449],"aggregation":"none","score_unico_gradboost":0.0031425,"score_unico_random_forest":0.0186375,"score_unico_logistic_regression":0.18208,"score_unico_fuzzy_knn":0.0350053,"score_unico_xgboost":0.0034174,"score_regional_gradboost":0.0253941,"score_regional_random_forest":0.1358745,"score_regional_logistic_regression":0.2601617,"score_regional_fuzzy_knn":0.1411858,"score_regional_xgboost":0.0965716},"geometry":{"type":"Polygon","coordinates":[[[-73.7168353,-7.1965995],[-73.7087746,-7.1966827],[-73.7087189,-7.1912902],[-73.7167795,-7.1912071],[-73.7168353,-7.1965995]]]}},{"type":"Feature","id":"AC-Y856-X74","properties":{"id":"AC-Y856-X74","grid_x":74,"grid_y":856,"region":"oeste","centroid":[-73.7530233,-7.1881354],"aggregation":"none","score_unico_gradboost":0.000621,"score_unico_random_forest":0.0119514,"score_unico_logistic_regression":0.0728996,"score_unico_fuzzy_knn":0.0442256,"score_unico_xgboost":0.0017928,"score_regional_gradboost":0.0039676,"score_regional_random_forest":0.0593256,"score_regional_logistic_regression":0.0956695,"score_regional_fuzzy_knn":0.057202,"score_regional_xgboost":0.0326624},"geometry":{"type":"Polygon","coordinates":[[[-73.7570815,-7.1907896],[-73.7490213,-7.1908734],[-73.7489651,-7.1854812],[-73.7570252,-7.1853975],[-73.7570815,-7.1907896]]]}},{"type":"Feature","id":"AC-Y856-X75","properties":{"id":"AC-Y856-X75","grid_x":75,"grid_y":856,"region":"oeste","centroid":[-73.7449631,-7.1882191],"aggregation":"none","score_unico_gradboost":0.0008445,"score_unico_random_forest":0.0138238,"score_unico_logistic_regression":0.1077895,"score_unico_fuzzy_knn":0.0553346,"score_unico_xgboost":0.0015429,"score_regional_gradboost":0.0128569,"score_regional_random_forest":0.1293055,"score_regional_logistic_regression":0.1483735,"score_regional_fuzzy_knn":0.0988855,"score_regional_xgboost":0.0602578},"geometry":{"type":"Polygon","coordinates":[[[-73.7490213,-7.1908734],[-73.740961,-7.190957],[-73.7409049,-7.1855648],[-73.7489651,-7.1854812],[-73.7490213,-7.1908734]]]}},{"type":"Feature","id":"AC-Y856-X76","properties":{"id":"AC-Y856-X76","grid_x":76,"grid_y":856,"region":"oeste","centroid":[-73.7369028,-7.1883026],"aggregation":"none","score_unico_gradboost":0.0009371,"score_unico_random_forest":0.0145775,"score_unico_logistic_regression":0.1144264,"score_unico_fuzzy_knn":0.0571045,"score_unico_xgboost":0.0021825,"score_regional_gradboost":0.0223313,"score_regional_random_forest":0.1334444,"score_regional_logistic_regression":0.1657638,"score_regional_fuzzy_knn":0.1037114,"score_regional_xgboost":0.0726758},"geometry":{"type":"Polygon","coordinates":[[[-73.740961,-7.190957],[-73.7329006,-7.1910405],[-73.7328447,-7.1856482],[-73.7409049,-7.1855648],[-73.740961,-7.190957]]]}},{"type":"Feature","id":"AC-Y856-X77","properties":{"id":"AC-Y856-X77","grid_x":77,"grid_y":856,"region":"oeste","centroid":[-73.7288424,-7.188386],"aggregation":"none","score_unico_gradboost":0.0048112,"score_unico_random_forest":0.0451089,"score_unico_logistic_regression":0.17062,"score_unico_fuzzy_knn":0.0906964,"score_unico_xgboost":0.0087933,"score_regional_gradboost":0.0312675,"score_regional_random_forest":0.1405382,"score_regional_logistic_regression":0.2822736,"score_regional_fuzzy_knn":0.1550147,"score_regional_xgboost":0.0902085},"geometry":{"type":"Polygon","coordinates":[[[-73.7329006,-7.1910405],[-73.7248401,-7.1911239],[-73.7247843,-7.1857315],[-73.7328447,-7.1856482],[-73.7329006,-7.1910405]]]}},{"type":"Feature","id":"AC-Y856-X78","properties":{"id":"AC-Y856-X78","grid_x":78,"grid_y":856,"region":"oeste","centroid":[-73.7207819,-7.1884693],"aggregation":"none","score_unico_gradboost":0.0025305,"score_unico_random_forest":0.0416544,"score_unico_logistic_regression":0.187442,"score_unico_fuzzy_knn":0.0804422,"score_unico_xgboost":0.0074915,"score_regional_gradboost":0.031458,"score_regional_random_forest":0.144754,"score_regional_logistic_regression":0.3028257,"score_regional_fuzzy_knn":0.1722322,"score_regional_xgboost":0.0902085},"geometry":{"type":"Polygon","coordinates":[[[-73.7248401,-7.1911239],[-73.7167795,-7.1912071],[-73.7167238,-7.1858147],[-73.7247843,-7.1857315],[-73.7248401,-7.1911239]]]}},{"type":"Feature","id":"AC-Y856-X79","properties":{"id":"AC-Y856-X79","grid_x":79,"grid_y":856,"region":"oeste","centroid":[-73.7127214,-7.1885524],"aggregation":"none","score_unico_gradboost":0.0042973,"score_unico_random_forest":0.0202673,"score_unico_logistic_regression":0.1922577,"score_unico_fuzzy_knn":0.0530104,"score_unico_xgboost":0.0044849,"score_regional_gradboost":0.0477547,"score_regional_random_forest":0.1581146,"score_regional_logistic_regression":0.2879146,"score_regional_fuzzy_knn":0.1814639,"score_regional_xgboost":0.1352323},"geometry":{"type":"Polygon","coordinates":[[[-73.7167795,-7.1912071],[-73.7087189,-7.1912902],[-73.7086632,-7.1858977],[-73.7167238,-7.1858147],[-73.7167795,-7.1912071]]]}},{"type":"Feature","id":"AC-Y857-X74","properties":{"id":"AC-Y857-X74","grid_x":74,"grid_y":857,"region":"oeste","centroid":[-73.7529671,-7.1827433],"aggregation":"none","score_unico_gradboost":0.0006163,"score_unico_random_forest":0.008018,"score_unico_logistic_regression":0.070248,"score_unico_fuzzy_knn":0.0282438,"score_unico_xgboost":0.0016548,"score_regional_gradboost":0.0037023,"score_regional_random_forest":0.0395595,"score_regional_logistic_regression":0.0904489,"score_regional_fuzzy_knn":0.0542505,"score_regional_xgboost":0.0257489},"geometry":{"type":"Polygon","coordinates":[[[-73.7570252,-7.1853975],[-73.7489651,-7.1854812],[-73.7489091,-7.180089],[-73.7569691,-7.1800053],[-73.7570252,-7.1853975]]]}},{"type":"Feature","id":"AC-Y857-X75","properties":{"id":"AC-Y857-X75","grid_x":75,"grid_y":857,"region":"oeste","centroid":[-73.744907,-7.1828269],"aggregation":"none","score_unico_gradboost":0.0004981,"score_unico_random_forest":0.0354971,"score_unico_logistic_regression":0.0567041,"score_unico_fuzzy_knn":0.0254516,"score_unico_xgboost":0.0013807,"score_regional_gradboost":0.0040165,"score_regional_random_forest":0.1033676,"score_regional_logistic_regression":0.0719792,"score_regional_fuzzy_knn":0.042426,"score_regional_xgboost":0.0374706},"geometry":{"type":"Polygon","coordinates":[[[-73.7489651,-7.1854812],[-73.7409049,-7.1855648],[-73.740849,-7.1801725],[-73.7489091,-7.180089],[-73.7489651,-7.1854812]]]}},{"type":"Feature","id":"AC-Y857-X76","properties":{"id":"AC-Y857-X76","grid_x":76,"grid_y":857,"region":"oeste","centroid":[-73.7368468,-7.1829104],"aggregation":"none","score_unico_gradboost":0.0005765,"score_unico_random_forest":0.0141088,"score_unico_logistic_regression":0.0713097,"score_unico_fuzzy_knn":0.0377218,"score_unico_xgboost":0.0016504,"score_regional_gradboost":0.006327,"score_regional_random_forest":0.1305414,"score_regional_logistic_regression":0.0974392,"score_regional_fuzzy_knn":0.0578586,"score_regional_xgboost":0.0613217},"geometry":{"type":"Polygon","coordinates":[[[-73.7409049,-7.1855648],[-73.7328447,-7.1856482],[-73.7327888,-7.1802559],[-73.740849,-7.1801725],[-73.7409049,-7.1855648]]]}},{"type":"Feature","id":"AC-Y857-X77","properties":{"id":"AC-Y857-X77","grid_x":77,"grid_y":857,"region":"oeste","centroid":[-73.7287866,-7.1829937],"aggregation":"none","score_unico_gradboost":0.0050176,"score_unico_random_forest":0.033925,"score_unico_logistic_regression":0.16781,"score_unico_fuzzy_knn":0.0815625,"score_unico_xgboost":0.0103617,"score_regional_gradboost":0.0618364,"score_regional_random_forest":0.1451368,"score_regional_logistic_regression":0.2609319,"score_regional_fuzzy_knn":0.1448783,"score_regional_xgboost":0.1149087},"geometry":{"type":"Polygon","coordinates":[[[-73.7328447,-7.1856482],[-73.7247843,-7.1857315],[-73.7247285,-7.1803391],[-73.7327888,-7.1802559],[-73.7328447,-7.1856482]]]}},{"type":"Feature","id":"AC-Y857-X78","properties":{"id":"AC-Y857-X78","grid_x":78,"grid_y":857,"region":"oeste","centroid":[-73.7207262,-7.1830769],"aggregation":"none","score_unico_gradboost":0.0022876,"score_unico_random_forest":0.0376917,"score_unico_logistic_regression":0.1933978,"score_unico_fuzzy_knn":0.0810173,"score_unico_xgboost":0.0071211,"score_regional_gradboost":0.0239167,"score_regional_random_forest":0.1452059,"score_regional_logistic_regression":0.3360623,"score_regional_fuzzy_knn":0.173272,"score_regional_xgboost":0.0571152},"geometry":{"type":"Polygon","coordinates":[[[-73.7247843,-7.1857315],[-73.7167238,-7.1858147],[-73.7166681,-7.1804222],[-73.7247285,-7.1803391],[-73.7247843,-7.1857315]]]}},{"type":"Feature","id":"AC-Y857-X79","properties":{"id":"AC-Y857-X79","grid_x":79,"grid_y":857,"region":"oeste","centroid":[-73.7126657,-7.18316],"aggregation":"none","score_unico_gradboost":0.0032326,"score_unico_random_forest":0.0431492,"score_unico_logistic_regression":0.2075494,"score_unico_fuzzy_knn":0.0806091,"score_unico_xgboost":0.0066939,"score_regional_gradboost":0.0253259,"score_regional_random_forest":0.1562927,"score_regional_logistic_regression":0.3492808,"score_regional_fuzzy_knn":0.2053201,"score_regional_xgboost":0.068787},"geometry":{"type":"Polygon","coordinates":[[[-73.7167238,-7.1858147],[-73.7086632,-7.1858977],[-73.7086076,-7.1805052],[-73.7166681,-7.1804222],[-73.7167238,-7.1858147]]]}},{"type":"Feature","id":"AC-Y858-X74","properties":{"id":"AC-Y858-X74","grid_x":74,"grid_y":858,"region":"oeste","centroid":[-73.752911,-7.1773511],"aggregation":"none","score_unico_gradboost":0.0005286,"score_unico_random_forest":0.0116738,"score_unico_logistic_regression":0.0116463,"score_unico_fuzzy_knn":0.0,"score_unico_xgboost":0.0017025,"score_regional_gradboost":0.0033962,"score_regional_random_forest":0.0367943,"score_regional_logistic_regression":0.0120772,"score_regional_fuzzy_knn":0.0,"score_regional_xgboost":0.0242442},"geometry":{"type":"Polygon","coordinates":[[[-73.7569691,-7.1800053],[-73.7489091,-7.180089],[-73.748853,-7.1746968],[-73.7569129,-7.1746132],[-73.7569691,-7.1800053]]]}},{"type":"Feature","id":"AC-Y858-X75","properties":{"id":"AC-Y858-X75","grid_x":75,"grid_y":858,"region":"oeste","centroid":[-73.744851,-7.1774347],"aggregation":"none","score_unico_gradboost":0.0005212,"score_unico_random_forest":0.0072019,"score_unico_logistic_regression":0.0324976,"score_unico_fuzzy_knn":0.0149151,"score_unico_xgboost":0.0012784,"score_regional_gradboost":0.0038599,"score_regional_random_forest":0.0590316,"score_regional_logistic_regression":0.0383544,"score_regional_fuzzy_knn":0.0234292,"score_regional_xgboost":0.0309699},"geometry":{"type":"Polygon","coordinates":[[[-73.7489091,-7.180089],[-73.740849,-7.1801725],[-73.740793,-7.1747803],[-73.748853,-7.1746968],[-73.7489091,-7.180089]]]}},{"type":"Feature","id":"AC-Y858-X76","properties":{"id":"AC-Y858-X76","grid_x":76,"grid_y":858,"region":"oeste","centroid":[-73.7367909,-7.1775181],"aggregation":"none","score_unico_gradboost":0.0006156,"score_unico_random_forest":0.0142966,"score_unico_logistic_regression":0.0617362,"score_unico_fuzzy_knn":0.0272228,"score_unico_xgboost":0.0015848,"score_regional_gradboost":0.0061821,"score_regional_random_forest":0.1293055,"score_regional_logistic_regression":0.0812044,"score_regional_fuzzy_knn":0.0453301,"score_regional_xgboost":0.0602578},"geometry":{"type":"Polygon","coordinates":[[[-73.740849,-7.1801725],[-73.7327888,-7.1802559],[-73.7327329,-7.1748636],[-73.740793,-7.1747803],[-73.740849,-7.1801725]]]}},{"type":"Feature","id":"AC-Y858-X77","properties":{"id":"AC-Y858-X77","grid_x":77,"grid_y":858,"region":"oeste","centroid":[-73.7287307,-7.1776014],"aggregation":"none","score_unico_gradboost":0.0055855,"score_unico_random_forest":0.0095959,"score_unico_logistic_regression":0.1728657,"score_unico_fuzzy_knn":0.0623141,"score_unico_xgboost":0.0043533,"score_regional_gradboost":0.0250072,"score_regional_random_forest":0.1308375,"score_regional_logistic_regression":0.2524289,"score_regional_fuzzy_knn":0.1329105,"score_regional_xgboost":0.0965716},"geometry":{"type":"Polygon","coordinates":[[[-73.7327888,-7.1802559],[-73.7247285,-7.1803391],[-73.7246727,-7.1749468],[-73.7327329,-7.1748636],[-73.7327888,-7.1802559]]]}},{"type":"Feature","id":"AC-Y858-X78","properties":{"id":"AC-Y858-X78","grid_x":78,"grid_y":858,"region":"oeste","centroid":[-73.7206704,-7.1776845],"aggregation":"none","score_unico_gradboost":0.0034954,"score_unico_random_forest":0.0242372,"score_unico_logistic_regression":0.1857564,"score_unico_fuzzy_knn":0.079805,"score_unico_xgboost":0.0090685,"score_regional_gradboost":0.0645995,"score_regional_random_forest":0.1504541,"score_regional_logistic_regression":0.2879467,"score_regional_fuzzy_knn":0.1622621,"score_regional_xgboost":0.1149087},"geometry":{"type":"Polygon","coordinates":[[[-73.7247285,-7.1803391],[-73.7166681,-7.1804222],[-73.7166124,-7.1750298],[-73.7246727,-7.1749468],[-73.7247285,-7.1803391]]]}},{"type":"Feature","id":"AC-Y858-X79","properties":{"id":"AC-Y858-X79","grid_x":79,"grid_y":858,"region":"oeste","centroid":[-73.7126101,-7.1777675],"aggregation":"none","score_unico_gradboost":0.0034484,"score_unico_random_forest":0.0407379,"score_unico_logistic_regression":0.1972911,"score_unico_fuzzy_knn":0.0709104,"score_unico_xgboost":0.0080458,"score_regional_gradboost":0.0629331,"score_regional_random_forest":0.159193,"score_regional_logistic_regression":0.3083995,"score_regional_fuzzy_knn":0.1927239,"score_regional_xgboost":0.1366789},"geometry":{"type":"Polygon","coordinates":[[[-73.7166681,-7.1804222],[-73.7086076,-7.1805052],[-73.708552,-7.1751127],[-73.7166124,-7.1750298],[-73.7166681,-7.1804222]]]}},{"type":"Feature","id":"AC-Y859-X74","properties":{"id":"AC-Y859-X74","grid_x":74,"grid_y":859,"region":"oeste","centroid":[-73.752855,-7.171959],"aggregation":"none","score_unico_gradboost":0.0005286,"score_unico_random_forest":0.0112178,"score_unico_logistic_regression":0.0126601,"score_unico_fuzzy_knn":0.0,"score_unico_xgboost":0.00178,"score_regional_gradboost":0.0033962,"score_regional_random_forest":0.0378004,"score_regional_logistic_regression":0.0131247,"score_regional_fuzzy_knn":0.0,"score_regional_xgboost":0.0242442},"geometry":{"type":"Polygon","coordinates":[[[-73.7569129,-7.1746132],[-73.748853,-7.1746968],[-73.748797,-7.1693046],[-73.7568568,-7.1692211],[-73.7569129,-7.1746132]]]}},{"type":"Feature","id":"AC-Y859-X75","properties":{"id":"AC-Y859-X75","grid_x":75,"grid_y":859,"region":"oeste","centroid":[-73.744795,-7.1720424],"aggregation":"none","score_unico_gradboost":0.0008864,"score_unico_random_forest":0.0032685,"score_unico_logistic_regression":0.100542,"score_unico_fuzzy_knn":0.0429382,"score_unico_xgboost":0.0012699,"score_regional_gradboost":0.0068724,"score_regional_random_forest":0.0411975,"score_regional_logistic_regression":0.1309824,"score_regional_fuzzy_knn":0.060697,"score_regional_xgboost":0.0244056},"geometry":{"type":"Polygon","coordinates":[[[-73.748853,-7.1746968],[-73.740793,-7.1747803],[-73.7407371,-7.169388],[-73.748797,-7.1693046],[-73.748853,-7.1746968]]]}},{"type":"Feature","id":"AC-Y859-X76","properties":{"id":"AC-Y859-X76","grid_x":76,"grid_y":859,"region":"oeste","centroid":[-73.736735,-7.1721258],"aggregation":"none","score_unico_gradboost":0.0004981,"score_unico_random_forest":0.034376,"score_unico_logistic_regression":0.057398,"score_unico_fuzzy_knn":0.0256099,"score_unico_xgboost":0.0014224,"score_regional_gradboost":0.0040165,"score_regional_random_forest":0.103949,"score_regional_logistic_regression":0.0729709,"score_regional_fuzzy_knn":0.0427006,"score_regional_xgboost":0.0374706},"geometry":{"type":"Polygon","coordinates":[[[-73.740793,-7.1747803],[-73.7327329,-7.1748636],[-73.7326771,-7.1694713],[-73.7407371,-7.169388],[-73.740793,-7.1747803]]]}},{"type":"Feature","id":"AC-Y859-X77","properties":{"id":"AC-Y859-X77","grid_x":77,"grid_y":859,"region":"oeste","centroid":[-73.7286749,-7.172209],"aggregation":"none","score_unico_gradboost":0.0043996,"score_unico_random_forest":0.0127223,"score_unico_logistic_regression":0.1613858,"score_unico_fuzzy_knn":0.0631321,"score_unico_xgboost":0.0038687,"score_regional_gradboost":0.0236049,"score_regional_random_forest":0.1319292,"score_regional_logistic_regression":0.2277254,"score_regional_fuzzy_knn":0.1226364,"score_regional_xgboost":0.094958},"geometry":{"type":"Polygon","coordinates":[[[-73.7327329,-7.1748636],[-73.7246727,-7.1749468],[-73.724617,-7.1695544],[-73.7326771,-7.1694713],[-73.7327329,-7.1748636]]]}},{"type":"Feature","id":"AC-Y859-X78","properties":{"id":"AC-Y859-X78","grid_x":78,"grid_y":859,"region":"oeste","centroid":[-73.7206147,-7.1722921],"aggregation":"none","score_unico_gradboost":0.0037457,"score_unico_random_forest":0.0102656,"score_unico_logistic_regression":0.1860716,"score_unico_fuzzy_knn":0.0522731,"score_unico_xgboost":0.0036405,"score_regional_gradboost":0.0275776,"score_regional_random_forest":0.1426762,"score_regional_logistic_regression":0.2711518,"score_regional_fuzzy_knn":0.1603221,"score_regional_xgboost":0.1088129},"geometry":{"type":"Polygon","coordinates":[[[-73.7246727,-7.1749468],[-73.7166124,-7.1750298],[-73.7165568,-7.1696373],[-73.724617,-7.1695544],[-73.7246727,-7.1749468]]]}},{"type":"Feature","id":"AC-Y859-X79","properties":{"id":"AC-Y859-X79","grid_x":79,"grid_y":859,"region":"oeste","centroid":[-73.7125545,-7.172375],"aggregation":"none","score_unico_gradboost":0.0047021,"score_unico_random_forest":0.0269165,"score_unico_logistic_regression":0.1955692,"score_unico_fuzzy_knn":0.0530842,"score_unico_xgboost":0.0045752,"score_regional_gradboost":0.048888,"score_regional_random_forest":0.1609174,"score_regional_logistic_regression":0.2932195,"score_regional_fuzzy_knn":0.1827771,"score_regional_xgboost":0.1352323},"geometry":{"type":"Polygon","coordinates":[[[-73.7166124,-7.1750298],[-73.708552,-7.1751127],[-73.7084965,-7.1697202],[-73.7165568,-7.1696373],[-73.7166124,-7.1750298]]]}},{"type":"Feature","id":"AC-Y860-X73","properties":{"id":"AC-Y860-X73","grid_x":73,"grid_y":860,"region":"oeste","centroid":[-73.7608586,-7.1664832],"aggregation":"none","score_unico_gradboost":0.0006236,"score_unico_random_forest":0.0190763,"score_unico_logistic_regression":0.0361118,"score_unico_fuzzy_knn":0.0,"score_unico_xgboost":0.0023736,"score_regional_gradboost":0.0032422,"score_regional_random_forest":0.0351615,"score_regional_logistic_regression":0.0410306,"score_regional_fuzzy_knn":0.021559,"score_regional_xgboost":0.0212863},"geometry":{"type":"Polygon","coordinates":[[[-73.7649165,-7.1691374],[-73.7568568,-7.1692211],[-73.7568008,-7.163829],[-73.7648604,-7.1637454],[-73.7649165,-7.1691374]]]}},{"type":"Feature","id":"AC-Y860-X74","properties":{"id":"AC-Y860-X74","grid_x":74,"grid_y":860,"region":"oeste","centroid":[-73.7527989,-7.1665668],"aggregation":"none","score_unico_gradboost":0.0005491,"score_unico_random_forest":0.0110552,"score_unico_logistic_regression":0.0222171,"score_unico_fuzzy_knn":0.0,"score_unico_xgboost":0.0018436,"score_regional_gradboost":0.0033472,"score_regional_random_forest":0.0373164,"score_regional_logistic_regression":0.024346,"score_regional_fuzzy_knn":0.0074786,"score_regional_xgboost":0.0242442},"geometry":{"type":"Polygon","coordinates":[[[-73.7568568,-7.1692211],[-73.748797,-7.1693046],[-73.7487411,-7.1639124],[-73.7568008,-7.163829],[-73.7568568,-7.1692211]]]}},{"type":"Feature","id":"AC-Y860-X75","properties":{"id":"AC-Y860-X75","grid_x":75,"grid_y":860,"region":"oeste","centroid":[-73.7447391,-7.1666502],"aggregation":"none","score_unico_gradboost":0.0005541,"score_unico_random_forest":0.0060162,"score_unico_logistic_regression":0.0133337,"score_unico_fuzzy_knn":0.0,"score_unico_xgboost":0.0013456,"score_regional_gradboost":0.003304,"score_regional_random_forest":0.0377318,"score_regional_logistic_regression":0.0137581,"score_regional_fuzzy_knn":0.0,"score_regional_xgboost":0.0229776},"geometry":{"type":"Polygon","coordinates":[[[-73.748797,-7.1693046],[-73.7407371,-7.169388],[-73.7406812,-7.1639958],[-73.7487411,-7.1639124],[-73.748797,-7.1693046]]]}},{"type":"Feature","id":"AC-Y860-X76","properties":{"id":"AC-Y860-X76","grid_x":76,"grid_y":860,"region":"oeste","centroid":[-73.7366792,-7.1667335],"aggregation":"none","score_unico_gradboost":0.0006461,"score_unico_random_forest":0.0075859,"score_unico_logistic_regression":0.0767826,"score_unico_fuzzy_knn":0.0368045,"score_unico_xgboost":0.0013138,"score_regional_gradboost":0.0036018,"score_regional_random_forest":0.0456595,"score_regional_logistic_regression":0.098062,"score_regional_fuzzy_knn":0.0496308,"score_regional_xgboost":0.0271967},"geometry":{"type":"Polygon","coordinates":[[[-73.7407371,-7.169388],[-73.7326771,-7.1694713],[-73.7326213,-7.164079],[-73.7406812,-7.1639958],[-73.7407371,-7.169388]]]}},{"type":"Feature","id":"AC-Y860-X77","properties":{"id":"AC-Y860-X77","grid_x":77,"grid_y":860,"region":"oeste","centroid":[-73.7286192,-7.1668167],"aggregation":"none","score_unico_gradboost":0.0035628,"score_unico_random_forest":0.033748,"score_unico_logistic_regression":0.1619591,"score_unico_fuzzy_knn":0.0606023,"score_unico_xgboost":0.003202,"score_regional_gradboost":0.0146296,"score_regional_random_forest":0.1036072,"score_regional_logistic_regression":0.2225711,"score_regional_fuzzy_knn":0.1188639,"score_regional_xgboost":0.0592622},"geometry":{"type":"Polygon","coordinates":[[[-73.7326771,-7.1694713],[-73.724617,-7.1695544],[-73.7245613,-7.164162],[-73.7326213,-7.164079],[-73.7326771,-7.1694713]]]}},{"type":"Feature","id":"AC-Y860-X78","properties":{"id":"AC-Y860-X78","grid_x":78,"grid_y":860,"region":"oeste","centroid":[-73.7205591,-7.1668997],"aggregation":"none","score_unico_gradboost":0.0030626,"score_unico_random_forest":0.0150775,"score_unico_logistic_regression":0.1833435,"score_unico_fuzzy_knn":0.0261292,"score_unico_xgboost":0.003015,"score_regional_gradboost":0.0212583,"score_regional_random_forest":0.1325048,"score_regional_logistic_regression":0.2576597,"score_regional_fuzzy_knn":0.1491539,"score_regional_xgboost":0.0911679},"geometry":{"type":"Polygon","coordinates":[[[-73.724617,-7.1695544],[-73.7165568,-7.1696373],[-73.7165012,-7.1642449],[-73.7245613,-7.164162],[-73.724617,-7.1695544]]]}},{"type":"Feature","id":"AC-Y860-X79","properties":{"id":"AC-Y860-X79","grid_x":79,"grid_y":860,"region":"oeste","centroid":[-73.7124989,-7.1669825],"aggregation":"none","score_unico_gradboost":0.0037752,"score_unico_random_forest":0.029677,"score_unico_logistic_regression":0.2085055,"score_unico_fuzzy_knn":0.0540569,"score_unico_xgboost":0.0042692,"score_regional_gradboost":0.0343993,"score_regional_random_forest":0.1528072,"score_regional_logistic_regression":0.3009022,"score_regional_fuzzy_knn":0.2456107,"score_regional_xgboost":0.1664759},"geometry":{"type":"Polygon","coordinates":[[[-73.7165568,-7.1696373],[-73.7084965,-7.1697202],[-73.708441,-7.1643277],[-73.7165012,-7.1642449],[-73.7165568,-7.1696373]]]}},{"type":"Feature","id":"AC-Y861-X72","properties":{"id":"AC-Y861-X72","grid_x":72,"grid_y":861,"region":"oeste","centroid":[-73.7688621,-7.1610075],"aggregation":"none","score_unico_gradboost":0.0004271,"score_unico_random_forest":0.0089424,"score_unico_logistic_regression":0.0146996,"score_unico_fuzzy_knn":0.0,"score_unico_xgboost":0.0018416,"score_regional_gradboost":0.0029224,"score_regional_random_forest":0.0271028,"score_regional_logistic_regression":0.0146957,"score_regional_fuzzy_knn":0.0,"score_regional_xgboost":0.0197773},"geometry":{"type":"Polygon","coordinates":[[[-73.7729199,-7.1636616],[-73.7648604,-7.1637454],[-73.7648043,-7.1583533],[-73.7728637,-7.1582696],[-73.7729199,-7.1636616]]]}},{"type":"Feature","id":"AC-Y861-X73","properties":{"id":"AC-Y861-X73","grid_x":73,"grid_y":861,"region":"oeste","centroid":[-73.7608026,-7.1610911],"aggregation":"none","score_unico_gradboost":0.0004529,"score_unico_random_forest":0.011318,"score_unico_logistic_regression":0.0435947,"score_unico_fuzzy_knn":0.0068757,"score_unico_xgboost":0.0018662,"score_regional_gradboost":0.0029224,"score_regional_random_forest":0.0256799,"score_regional_logistic_regression":0.0501967,"score_regional_fuzzy_knn":0.02182,"score_regional_xgboost":0.0196429},"geometry":{"type":"Polygon","coordinates":[[[-73.7648604,-7.1637454],[-73.7568008,-7.163829],[-73.7567448,-7.1584368],[-73.7648043,-7.1583533],[-73.7648604,-7.1637454]]]}},{"type":"Feature","id":"AC-Y861-X74","properties":{"id":"AC-Y861-X74","grid_x":74,"grid_y":861,"region":"oeste","centroid":[-73.752743,-7.1611746],"aggregation":"none","score_unico_gradboost":0.0006236,"score_unico_random_forest":0.0127461,"score_unico_logistic_regression":0.0520459,"score_unico_fuzzy_knn":0.0214955,"score_unico_xgboost":0.0019396,"score_regional_gradboost":0.0032422,"score_regional_random_forest":0.0347879,"score_regional_logistic_regression":0.0620746,"score_regional_fuzzy_knn":0.0238104,"score_regional_xgboost":0.0212863},"geometry":{"type":"Polygon","coordinates":[[[-73.7568008,-7.163829],[-73.7487411,-7.1639124],[-73.7486852,-7.1585202],[-73.7567448,-7.1584368],[-73.7568008,-7.163829]]]}},{"type":"Feature","id":"AC-Y861-X75","properties":{"id":"AC-Y861-X75","grid_x":75,"grid_y":861,"region":"oeste","centroid":[-73.7446832,-7.161258],"aggregation":"none","score_unico_gradboost":0.0005716,"score_unico_random_forest":0.0071979,"score_unico_logistic_regression":0.0312331,"score_unico_fuzzy_knn":0.0,"score_unico_xgboost":0.0014365,"score_regional_gradboost":0.0033786,"score_regional_random_forest":0.0421968,"score_regional_logistic_regression":0.0350343,"score_regional_fuzzy_knn":0.0151502,"score_regional_xgboost":0.0229776},"geometry":{"type":"Polygon","coordinates":[[[-73.7487411,-7.1639124],[-73.7406812,-7.1639958],[-73.7406254,-7.1586035],[-73.7486852,-7.1585202],[-73.7487411,-7.1639124]]]}},{"type":"Feature","id":"AC-Y861-X76","properties":{"id":"AC-Y861-X76","grid_x":76,"grid_y":861,"region":"oeste","centroid":[-73.7366234,-7.1613412],"aggregation":"none","score_unico_gradboost":0.0005541,"score_unico_random_forest":0.0074525,"score_unico_logistic_regression":0.0646231,"score_unico_fuzzy_knn":0.0255232,"score_unico_xgboost":0.0013456,"score_regional_gradboost":0.003304,"score_regional_random_forest":0.0387071,"score_regional_logistic_regression":0.0796167,"score_regional_fuzzy_knn":0.0426723,"score_regional_xgboost":0.0229776},"geometry":{"type":"Polygon","coordinates":[[[-73.7406812,-7.1639958],[-73.7326213,-7.164079],[-73.7325656,-7.1586866],[-73.7406254,-7.1586035],[-73.7406812,-7.1639958]]]}},{"type":"Feature","id":"AC-Y861-X77","properties":{"id":"AC-Y861-X77","grid_x":77,"grid_y":861,"region":"oeste","centroid":[-73.7285635,-7.1614243],"aggregation":"none","score_unico_gradboost":0.0023438,"score_unico_random_forest":0.0119024,"score_unico_logistic_regression":0.1723372,"score_unico_fuzzy_knn":0.0174256,"score_unico_xgboost":0.0026885,"score_regional_gradboost":0.0122055,"score_regional_random_forest":0.0439178,"score_regional_logistic_regression":0.233513,"score_regional_fuzzy_knn":0.1183955,"score_regional_xgboost":0.0432821},"geometry":{"type":"Polygon","coordinates":[[[-73.7326213,-7.164079],[-73.7245613,-7.164162],[-73.7245057,-7.1587696],[-73.7325656,-7.1586866],[-73.7326213,-7.164079]]]}},{"type":"Feature","id":"AC-Y861-X78","properties":{"id":"AC-Y861-X78","grid_x":78,"grid_y":861,"region":"oeste","centroid":[-73.7205035,-7.1615073],"aggregation":"none","score_unico_gradboost":0.0029499,"score_unico_random_forest":0.0179171,"score_unico_logistic_regression":0.1915747,"score_unico_fuzzy_knn":0.0092188,"score_unico_xgboost":0.0027037,"score_regional_gradboost":0.0185322,"score_regional_random_forest":0.0664545,"score_regional_logistic_regression":0.2628948,"score_regional_fuzzy_knn":0.1608212,"score_regional_xgboost":0.09368},"geometry":{"type":"Polygon","coordinates":[[[-73.7245613,-7.164162],[-73.7165012,-7.1642449],[-73.7164457,-7.1588525],[-73.7245057,-7.1587696],[-73.7245613,-7.164162]]]}},{"type":"Feature","id":"AC-Y861-X79","properties":{"id":"AC-Y861-X79","grid_x":79,"grid_y":861,"region":"oeste","centroid":[-73.7124434,-7.1615901],"aggregation":"none","score_unico_gradboost":0.0030626,"score_unico_random_forest":0.0298644,"score_unico_logistic_regression":0.1867362,"score_unico_fuzzy_knn":0.0260167,"score_unico_xgboost":0.0029585,"score_regional_gradboost":0.0201035,"score_regional_random_forest":0.1276451,"score_regional_logistic_regression":0.2614804,"score_regional_fuzzy_knn":0.1502296,"score_regional_xgboost":0.0967346},"geometry":{"type":"Polygon","coordinates":[[[-73.7165012,-7.1642449],[-73.708441,-7.1643277],[-73.7083856,-7.1589352],[-73.7164457,-7.1588525],[-73.7165012,-7.1642449]]]}},{"type":"Feature","id":"AC-Y862-X72","properties":{"id":"AC-Y862-X72","grid_x":72,"grid_y":862,"region":"oeste","centroid":[-73.768806,-7.1556155],"aggregation":"none","score_unico_gradboost":0.0004151,"score_unico_random_forest":0.0081865,"score_unico_logistic_regression":0.0134307,"score_unico_fuzzy_knn":0.0,"score_unico_xgboost":0.0016037,"score_regional_gradboost":0.0029224,"score_regional_random_forest":0.0269548,"score_regional_logistic_regression":0.0131985,"score_regional_fuzzy_knn":0.0,"score_regional_xgboost":0.0197773},"geometry":{"type":"Polygon","coordinates":[[[-73.7728637,-7.1582696],[-73.7648043,-7.1583533],[-73.7647482,-7.1529612],[-73.7728076,-7.1528776],[-73.7728637,-7.1582696]]]}},{"type":"Feature","id":"AC-Y862-X73","properties":{"id":"AC-Y862-X73","grid_x":73,"grid_y":862,"region":"oeste","centroid":[-73.7607465,-7.155699],"aggregation":"none","score_unico_gradboost":0.0004529,"score_unico_random_forest":0.0102443,"score_unico_logistic_regression":0.0403307,"score_unico_fuzzy_knn":0.0,"score_unico_xgboost":0.0017846,"score_regional_gradboost":0.0029224,"score_regional_random_forest":0.025673,"score_regional_logistic_regression":0.0456599,"score_regional_fuzzy_knn":0.0211774,"score_regional_xgboost":0.0196429},"geometry":{"type":"Polygon","coordinates":[[[-73.7648043,-7.1583533],[-73.7567448,-7.1584368],[-73.7566888,-7.1530447],[-73.7647482,-7.1529612],[-73.7648043,-7.1583533]]]}},{"type":"Feature","id":"AC-Y862-X74","properties":{"id":"AC-Y862-X74","grid_x":74,"grid_y":862,"region":"oeste","centroid":[-73.752687,-7.1557825],"aggregation":"none","score_unico_gradboost":0.0005368,"score_unico_random_forest":0.0165245,"score_unico_logistic_regression":0.0737872,"score_unico_fuzzy_knn":0.0242204,"score_unico_xgboost":0.0022831,"score_regional_gradboost":0.0029224,"score_regional_random_forest":0.0272799,"score_regional_logistic_regression":0.090263,"score_regional_fuzzy_knn":0.0354186,"score_regional_xgboost":0.0212863},"geometry":{"type":"Polygon","coordinates":[[[-73.7567448,-7.1584368],[-73.7486852,-7.1585202],[-73.7486293,-7.1531281],[-73.7566888,-7.1530447],[-73.7567448,-7.1584368]]]}},{"type":"Feature","id":"AC-Y862-X75","properties":{"id":"AC-Y862-X75","grid_x":75,"grid_y":862,"region":"oeste","centroid":[-73.7446274,-7.1558658],"aggregation":"none","score_unico_gradboost":0.0004532,"score_unico_random_forest":0.0091911,"score_unico_logistic_regression":0.0455909,"score_unico_fuzzy_knn":0.0143254,"score_unico_xgboost":0.0013761,"score_regional_gradboost":0.0031542,"score_regional_random_forest":0.0342239,"score_regional_logistic_regression":0.0525995,"score_regional_fuzzy_knn":0.023089,"score_regional_xgboost":0.020171},"geometry":{"type":"Polygon","coordinates":[[[-73.7486852,-7.1585202],[-73.7406254,-7.1586035],[-73.7405697,-7.1532113],[-73.7486293,-7.1531281],[-73.7486852,-7.1585202]]]}},{"type":"Feature","id":"AC-Y862-X76","properties":{"id":"AC-Y862-X76","grid_x":76,"grid_y":862,"region":"oeste","centroid":[-73.7365677,-7.155949],"aggregation":"none","score_unico_gradboost":0.0024983,"score_unico_random_forest":0.0106854,"score_unico_logistic_regression":0.1396394,"score_unico_fuzzy_knn":0.0367719,"score_unico_xgboost":0.0026847,"score_regional_gradboost":0.0182732,"score_regional_random_forest":0.0447751,"score_regional_logistic_regression":0.1818819,"score_regional_fuzzy_knn":0.0828039,"score_regional_xgboost":0.0415605},"geometry":{"type":"Polygon","coordinates":[[[-73.7406254,-7.1586035],[-73.7325656,-7.1586866],[-73.7325099,-7.1532943],[-73.7405697,-7.1532113],[-73.7406254,-7.1586035]]]}},{"type":"Feature","id":"AC-Y862-X77","properties":{"id":"AC-Y862-X77","grid_x":77,"grid_y":862,"region":"oeste","centroid":[-73.7285079,-7.156032],"aggregation":"none","score_unico_gradboost":0.00418,"score_unico_random_forest":0.008399,"score_unico_logistic_regression":0.1618954,"score_unico_fuzzy_knn":0.0258906,"score_unico_xgboost":0.0027422,"score_regional_gradboost":0.010742,"score_regional_random_forest":0.035899,"score_regional_logistic_regression":0.2150536,"score_regional_fuzzy_knn":0.0905327,"score_regional_xgboost":0.0366616},"geometry":{"type":"Polygon","coordinates":[[[-73.7325656,-7.1586866],[-73.7245057,-7.1587696],[-73.7244501,-7.1533772],[-73.7325099,-7.1532943],[-73.7325656,-7.1586866]]]}},{"type":"Feature","id":"AC-Y862-X78","properties":{"id":"AC-Y862-X78","grid_x":78,"grid_y":862,"region":"oeste","centroid":[-73.7204479,-7.1561149],"aggregation":"none","score_unico_gradboost":0.0032559,"score_unico_random_forest":0.0083846,"score_unico_logistic_regression":0.181914,"score_unico_fuzzy_knn":0.0092578,"score_unico_xgboost":0.0025405,"score_regional_gradboost":0.0125443,"score_regional_random_forest":0.0426026,"score_regional_logistic_regression":0.2453832,"score_regional_fuzzy_knn":0.1290936,"score_regional_xgboost":0.0437973},"geometry":{"type":"Polygon","coordinates":[[[-73.7245057,-7.1587696],[-73.7164457,-7.1588525],[-73.7163902,-7.15346],[-73.7244501,-7.1533772],[-73.7245057,-7.1587696]]]}},{"type":"Feature","id":"AC-Y862-X79","properties":{"id":"AC-Y862-X79","grid_x":79,"grid_y":862,"region":"oeste","centroid":[-73.7123879,-7.1561976],"aggregation":"none","score_unico_gradboost":0.0029499,"score_unico_random_forest":0.0149843,"score_unico_logistic_regression":0.1917059,"score_unico_fuzzy_knn":0.0093305,"score_unico_xgboost":0.00256,"score_regional_gradboost":0.0171842,"score_regional_random_forest":0.0583126,"score_regional_logistic_regression":0.262351,"score_regional_fuzzy_knn":0.1611415,"score_regional_xgboost":0.0829206},"geometry":{"type":"Polygon","coordinates":[[[-73.7164457,-7.1588525],[-73.7083856,-7.1589352],[-73.7083302,-7.1535427],[-73.7163902,-7.15346],[-73.7164457,-7.1588525]]]}},{"type":"Feature","id":"AC-Y863-X71","properties":{"id":"AC-Y863-X71","grid_x":71,"grid_y":863,"region":"oeste","centroid":[-73.7768091,-7.1501398],"aggregation":"none","score_unico_gradboost":0.0003056,"score_unico_random_forest":0.0021209,"score_unico_logistic_regression":0.0166654,"score_unico_fuzzy_knn":0.0,"score_unico_xgboost":0.0010014,"score_regional_gradboost":0.0031331,"score_regional_random_forest":0.0298536,"score_regional_logistic_regression":0.0166459,"score_regional_fuzzy_knn":0.0,"score_regional_xgboost":0.0187265},"geometry":{"type":"Polygon","coordinates":[[[-73.7808668,-7.1527939],[-73.7728076,-7.1528776],[-73.7727515,-7.1474856],[-73.7808106,-7.1474019],[-73.7808668,-7.1527939]]]}},{"type":"Feature","id":"AC-Y863-X72","properties":{"id":"AC-Y863-X72","grid_x":72,"grid_y":863,"region":"oeste","centroid":[-73.7687499,-7.1502234],"aggregation":"none","score_unico_gradboost":0.000309,"score_unico_random_forest":0.0037556,"score_unico_logistic_regression":0.0365194,"score_unico_fuzzy_knn":0.0,"score_unico_xgboost":0.0013517,"score_regional_gradboost":0.0033524,"score_regional_random_forest":0.0293699,"score_regional_logistic_regression":0.0404289,"score_regional_fuzzy_knn":0.0070322,"score_regional_xgboost":0.0201236},"geometry":{"type":"Polygon","coordinates":[[[-73.7728076,-7.1528776],[-73.7647482,-7.1529612],[-73.7646922,-7.1475692],[-73.7727515,-7.1474856],[-73.7728076,-7.1528776]]]}},{"type":"Feature","id":"AC-Y863-X73","properties":{"id":"AC-Y863-X73","grid_x":73,"grid_y":863,"region":"oeste","centroid":[-73.7606906,-7.1503069],"aggregation":"none","score_unico_gradboost":0.000318,"score_unico_random_forest":0.0040214,"score_unico_logistic_regression":0.0379575,"score_unico_fuzzy_knn":0.0,"score_unico_xgboost":0.001558,"score_regional_gradboost":0.0034601,"score_regional_random_forest":0.0295312,"score_regional_logistic_regression":0.0426876,"score_regional_fuzzy_knn":0.0208294,"score_regional_xgboost":0.0215297},"geometry":{"type":"Polygon","coordinates":[[[-73.7647482,-7.1529612],[-73.7566888,-7.1530447],[-73.7566329,-7.1476526],[-73.7646922,-7.1475692],[-73.7647482,-7.1529612]]]}},{"type":"Feature","id":"AC-Y863-X74","properties":{"id":"AC-Y863-X74","grid_x":74,"grid_y":863,"region":"oeste","centroid":[-73.7526311,-7.1503903],"aggregation":"none","score_unico_gradboost":0.0003372,"score_unico_random_forest":0.0050248,"score_unico_logistic_regression":0.0681142,"score_unico_fuzzy_knn":0.0223333,"score_unico_xgboost":0.0015561,"score_regional_gradboost":0.0034601,"score_regional_random_forest":0.0279013,"score_regional_logistic_regression":0.0825021,"score_regional_fuzzy_knn":0.0324334,"score_regional_xgboost":0.0215297},"geometry":{"type":"Polygon","coordinates":[[[-73.7566888,-7.1530447],[-73.7486293,-7.1531281],[-73.7485735,-7.1477359],[-73.7566329,-7.1476526],[-73.7566888,-7.1530447]]]}},{"type":"Feature","id":"AC-Y863-X75","properties":{"id":"AC-Y863-X75","grid_x":75,"grid_y":863,"region":"oeste","centroid":[-73.7445716,-7.1504736],"aggregation":"none","score_unico_gradboost":0.0005611,"score_unico_random_forest":0.0123891,"score_unico_logistic_regression":0.0889662,"score_unico_fuzzy_knn":0.02612,"score_unico_xgboost":0.0016899,"score_regional_gradboost":0.0028429,"score_regional_random_forest":0.0266114,"score_regional_logistic_regression":0.1086093,"score_regional_fuzzy_knn":0.0475548,"score_regional_xgboost":0.020171},"geometry":{"type":"Polygon","coordinates":[[[-73.7486293,-7.1531281],[-73.7405697,-7.1532113],[-73.7405139,-7.147819],[-73.7485735,-7.1477359],[-73.7486293,-7.1531281]]]}},{"type":"Feature","id":"AC-Y863-X76","properties":{"id":"AC-Y863-X76","grid_x":76,"grid_y":863,"region":"oeste","centroid":[-73.736512,-7.1505567],"aggregation":"none","score_unico_gradboost":0.0019224,"score_unico_random_forest":0.0099931,"score_unico_logistic_regression":0.1389198,"score_unico_fuzzy_knn":0.0351828,"score_unico_xgboost":0.0025018,"score_regional_gradboost":0.0158272,"score_regional_random_forest":0.0366319,"score_regional_logistic_regression":0.1786512,"score_regional_fuzzy_knn":0.072077,"score_regional_xgboost":0.036569},"geometry":{"type":"Polygon","coordinates":[[[-73.7405697,-7.1532113],[-73.7325099,-7.1532943],[-73.7324543,-7.147902],[-73.7405139,-7.147819],[-73.7405697,-7.1532113]]]}},{"type":"Feature","id":"AC-Y863-X77","properties":{"id":"AC-Y863-X77","grid_x":77,"grid_y":863,"region":"oeste","centroid":[-73.7284522,-7.1506396],"aggregation":"none","score_unico_gradboost":0.0039844,"score_unico_random_forest":0.0096734,"score_unico_logistic_regression":0.1579233,"score_unico_fuzzy_knn":0.0087635,"score_unico_xgboost":0.0032337,"score_regional_gradboost":0.0114252,"score_regional_random_forest":0.0374124,"score_regional_logistic_regression":0.2063899,"score_regional_fuzzy_knn":0.0979883,"score_regional_xgboost":0.0366616},"geometry":{"type":"Polygon","coordinates":[[[-73.7325099,-7.1532943],[-73.7244501,-7.1533772],[-73.7243946,-7.1479849],[-73.7324543,-7.147902],[-73.7325099,-7.1532943]]]}},{"type":"Feature","id":"AC-Y863-X78","properties":{"id":"AC-Y863-X78","grid_x":78,"grid_y":863,"region":"oeste","centroid":[-73.7203924,-7.1507224],"aggregation":"none","score_unico_gradboost":0.0026634,"score_unico_random_forest":0.0099118,"score_unico_logistic_regression":0.1775302,"score_unico_fuzzy_knn":0.0183738,"score_unico_xgboost":0.0027006,"score_regional_gradboost":0.0118639,"score_regional_random_forest":0.0393636,"score_regional_logistic_regression":0.2357522,"score_regional_fuzzy_knn":0.1008375,"score_regional_xgboost":0.0366616},"geometry":{"type":"Polygon","coordinates":[[[-73.7244501,-7.1533772],[-73.7163902,-7.15346],[-73.7163348,-7.1480676],[-73.7243946,-7.1479849],[-73.7244501,-7.1533772]]]}},{"type":"Feature","id":"AC-Y863-X79","properties":{"id":"AC-Y863-X79","grid_x":79,"grid_y":863,"region":"oeste","centroid":[-73.7123325,-7.1508051],"aggregation":"none","score_unico_gradboost":0.0217314,"score_unico_random_forest":0.0283569,"score_unico_logistic_regression":0.2861561,"score_unico_fuzzy_knn":0.0884865,"score_unico_xgboost":0.0047841,"score_regional_gradboost":0.0398239,"score_regional_random_forest":0.1193678,"score_regional_logistic_regression":0.3718023,"score_regional_fuzzy_knn":0.1455027,"score_regional_xgboost":0.0950886},"geometry":{"type":"Polygon","coordinates":[[[-73.7163902,-7.15346],[-73.7083302,-7.1535427],[-73.7082748,-7.1481502],[-73.7163348,-7.1480676],[-73.7163902,-7.15346]]]}},{"type":"Feature","id":"AC-Y864-X71","properties":{"id":"AC-Y864-X71","grid_x":71,"grid_y":864,"region":"oeste","centroid":[-73.776753,-7.1447478],"aggregation":"none","score_unico_gradboost":0.0003056,"score_unico_random_forest":0.0025102,"score_unico_logistic_regression":0.0270841,"score_unico_fuzzy_knn":0.0,"score_unico_xgboost":0.0009357,"score_regional_gradboost":0.0025732,"score_regional_random_forest":0.0277402,"score_regional_logistic_regression":0.0284856,"score_regional_fuzzy_knn":0.0,"score_regional_xgboost":0.0172328},"geometry":{"type":"Polygon","coordinates":[[[-73.7808106,-7.1474019],[-73.7727515,-7.1474856],[-73.7726954,-7.1420936],[-73.7807545,-7.14201],[-73.7808106,-7.1474019]]]}},{"type":"Feature","id":"AC-Y864-X72","properties":{"id":"AC-Y864-X72","grid_x":72,"grid_y":864,"region":"oeste","centroid":[-73.7686939,-7.1448314],"aggregation":"none","score_unico_gradboost":0.0003056,"score_unico_random_forest":0.0021209,"score_unico_logistic_regression":0.0371971,"score_unico_fuzzy_knn":0.0,"score_unico_xgboost":0.0011627,"score_regional_gradboost":0.0029459,"score_regional_random_forest":0.0279268,"score_regional_logistic_regression":0.0409867,"score_regional_fuzzy_knn":0.006922,"score_regional_xgboost":0.0187265},"geometry":{"type":"Polygon","coordinates":[[[-73.7727515,-7.1474856],[-73.7646922,-7.1475692],[-73.7646363,-7.1421771],[-73.7726954,-7.1420936],[-73.7727515,-7.1474856]]]}},{"type":"Feature","id":"AC-Y864-X73","properties":{"id":"AC-Y864-X73","grid_x":73,"grid_y":864,"region":"oeste","centroid":[-73.7606346,-7.1449148],"aggregation":"none","score_unico_gradboost":0.000309,"score_unico_random_forest":0.0018424,"score_unico_logistic_regression":0.0251476,"score_unico_fuzzy_knn":0.0,"score_unico_xgboost":0.0013236,"score_regional_gradboost":0.0033524,"score_regional_random_forest":0.0283865,"score_regional_logistic_regression":0.0267472,"score_regional_fuzzy_knn":0.0070532,"score_regional_xgboost":0.0201236},"geometry":{"type":"Polygon","coordinates":[[[-73.7646922,-7.1475692],[-73.7566329,-7.1476526],[-73.756577,-7.1422605],[-73.7646363,-7.1421771],[-73.7646922,-7.1475692]]]}},{"type":"Feature","id":"AC-Y864-X74","properties":{"id":"AC-Y864-X74","grid_x":74,"grid_y":864,"region":"oeste","centroid":[-73.7525753,-7.1449982],"aggregation":"none","score_unico_gradboost":0.000318,"score_unico_random_forest":0.0025983,"score_unico_logistic_regression":0.049597,"score_unico_fuzzy_knn":0.0067298,"score_unico_xgboost":0.0016017,"score_regional_gradboost":0.0034601,"score_regional_random_forest":0.0297014,"score_regional_logistic_regression":0.0575261,"score_regional_fuzzy_knn":0.0216357,"score_regional_xgboost":0.0215297},"geometry":{"type":"Polygon","coordinates":[[[-73.7566329,-7.1476526],[-73.7485735,-7.1477359],[-73.7485177,-7.1423437],[-73.756577,-7.1422605],[-73.7566329,-7.1476526]]]}},{"type":"Feature","id":"AC-Y864-X75","properties":{"id":"AC-Y864-X75","grid_x":75,"grid_y":864,"region":"oeste","centroid":[-73.7445158,-7.1450813],"aggregation":"none","score_unico_gradboost":0.001154,"score_unico_random_forest":0.0055149,"score_unico_logistic_regression":0.1289338,"score_unico_fuzzy_knn":0.0252909,"score_unico_xgboost":0.0037463,"score_regional_gradboost":0.013704,"score_regional_random_forest":0.026196,"score_regional_logistic_regression":0.1632259,"score_regional_fuzzy_knn":0.0617986,"score_regional_xgboost":0.0362767},"geometry":{"type":"Polygon","coordinates":[[[-73.7485735,-7.1477359],[-73.7405139,-7.147819],[-73.7404582,-7.1424267],[-73.7485177,-7.1423437],[-73.7485735,-7.1477359]]]}},{"type":"Feature","id":"AC-Y864-X76","properties":{"id":"AC-Y864-X76","grid_x":76,"grid_y":864,"region":"oeste","centroid":[-73.7364563,-7.1451644],"aggregation":"none","score_unico_gradboost":0.0027235,"score_unico_random_forest":0.015455,"score_unico_logistic_regression":0.1468043,"score_unico_fuzzy_knn":0.0170626,"score_unico_xgboost":0.0041234,"score_regional_gradboost":0.0081846,"score_regional_random_forest":0.0287961,"score_regional_logistic_regression":0.1891386,"score_regional_fuzzy_knn":0.0884755,"score_regional_xgboost":0.034619},"geometry":{"type":"Polygon","coordinates":[[[-73.7405139,-7.147819],[-73.7324543,-7.147902],[-73.7323987,-7.1425097],[-73.7404582,-7.1424267],[-73.7405139,-7.147819]]]}},{"type":"Feature","id":"AC-Y864-X77","properties":{"id":"AC-Y864-X77","grid_x":77,"grid_y":864,"region":"oeste","centroid":[-73.7283967,-7.1452473],"aggregation":"none","score_unico_gradboost":0.0014663,"score_unico_random_forest":0.008797,"score_unico_logistic_regression":0.1681078,"score_unico_fuzzy_knn":0.0183993,"score_unico_xgboost":0.0039246,"score_regional_gradboost":0.0094755,"score_regional_random_forest":0.0371415,"score_regional_logistic_regression":0.2196477,"score_regional_fuzzy_knn":0.1091621,"score_regional_xgboost":0.034619},"geometry":{"type":"Polygon","coordinates":[[[-73.7324543,-7.147902],[-73.7243946,-7.1479849],[-73.7243391,-7.1425925],[-73.7323987,-7.1425097],[-73.7324543,-7.147902]]]}},{"type":"Feature","id":"AC-Y864-X78","properties":{"id":"AC-Y864-X78","grid_x":78,"grid_y":864,"region":"oeste","centroid":[-73.7203369,-7.14533],"aggregation":"none","score_unico_gradboost":0.0019298,"score_unico_random_forest":0.0069457,"score_unico_logistic_regression":0.1802911,"score_unico_fuzzy_knn":0.0197871,"score_unico_xgboost":0.0035889,"score_regional_gradboost":0.0117162,"score_regional_random_forest":0.0389072,"score_regional_logistic_regression":0.2385409,"score_regional_fuzzy_knn":0.1229047,"score_regional_xgboost":0.0469895},"geometry":{"type":"Polygon","coordinates":[[[-73.7243946,-7.1479849],[-73.7163348,-7.1480676],[-73.7162794,-7.1426751],[-73.7243391,-7.1425925],[-73.7243946,-7.1479849]]]}},{"type":"Feature","id":"AC-Y865-X70","properties":{"id":"AC-Y865-X70","grid_x":70,"grid_y":865,"region":"oeste","centroid":[-73.7847559,-7.1392721],"aggregation":"none","score_unico_gradboost":0.0002713,"score_unico_random_forest":0.0024759,"score_unico_logistic_regression":0.0111211,"score_unico_fuzzy_knn":0.0,"score_unico_xgboost":0.000902,"score_regional_gradboost":0.002488,"score_regional_random_forest":0.0240073,"score_regional_logistic_regression":0.010373,"score_regional_fuzzy_knn":0.0,"score_regional_xgboost":0.0172328},"geometry":{"type":"Polygon","coordinates":[[[-73.7888134,-7.1419262],[-73.7807545,-7.14201],[-73.7806984,-7.136618],[-73.7887572,-7.1365343],[-73.7888134,-7.1419262]]]}},{"type":"Feature","id":"AC-Y865-X71","properties":{"id":"AC-Y865-X71","grid_x":71,"grid_y":865,"region":"oeste","centroid":[-73.7766969,-7.1393558],"aggregation":"none","score_unico_gradboost":0.0003064,"score_unico_random_forest":0.0018424,"score_unico_logistic_regression":0.0451361,"score_unico_fuzzy_knn":0.0,"score_unico_xgboost":0.0008222,"score_regional_gradboost":0.0025732,"score_regional_random_forest":0.0264027,"score_regional_logistic_regression":0.0500627,"score_regional_fuzzy_knn":0.0066308,"score_regional_xgboost":0.0172328},"geometry":{"type":"Polygon","coordinates":[[[-73.7807545,-7.14201],[-73.7726954,-7.1420936],[-73.7726394,-7.1367016],[-73.7806984,-7.136618],[-73.7807545,-7.14201]]]}},{"type":"Feature","id":"AC-Y865-X72","properties":{"id":"AC-Y865-X72","grid_x":72,"grid_y":865,"region":"oeste","centroid":[-73.7686379,-7.1394394],"aggregation":"none","score_unico_gradboost":0.0003056,"score_unico_random_forest":0.0027888,"score_unico_logistic_regression":0.044436,"score_unico_fuzzy_knn":0.0,"score_unico_xgboost":0.0010637,"score_regional_gradboost":0.0029754,"score_regional_random_forest":0.0286644,"score_regional_logistic_regression":0.0496234,"score_regional_fuzzy_knn":0.0068378,"score_regional_xgboost":0.0187265},"geometry":{"type":"Polygon","coordinates":[[[-73.7726954,-7.1420936],[-73.7646363,-7.1421771],[-73.7645803,-7.136785],[-73.7726394,-7.1367016],[-73.7726954,-7.1420936]]]}},{"type":"Feature","id":"AC-Y865-X73","properties":{"id":"AC-Y865-X73","grid_x":73,"grid_y":865,"region":"oeste","centroid":[-73.7605787,-7.1395227],"aggregation":"none","score_unico_gradboost":0.0003056,"score_unico_random_forest":0.0021209,"score_unico_logistic_regression":0.075287,"score_unico_fuzzy_knn":0.0,"score_unico_xgboost":0.0011675,"score_regional_gradboost":0.0030375,"score_regional_random_forest":0.0279268,"score_regional_logistic_regression":0.0897223,"score_regional_fuzzy_knn":0.0242707,"score_regional_xgboost":0.018349},"geometry":{"type":"Polygon","coordinates":[[[-73.7646363,-7.1421771],[-73.756577,-7.1422605],[-73.7565212,-7.1368683],[-73.7645803,-7.136785],[-73.7646363,-7.1421771]]]}},{"type":"Feature","id":"AC-Y865-X74","properties":{"id":"AC-Y865-X74","grid_x":74,"grid_y":865,"region":"oeste","centroid":[-73.7525195,-7.139606],"aggregation":"none","score_unico_gradboost":0.0004186,"score_unico_random_forest":0.0018424,"score_unico_logistic_regression":0.0955549,"score_unico_fuzzy_knn":0.0154728,"score_unico_xgboost":0.0013666,"score_regional_gradboost":0.006398,"score_regional_random_forest":0.0287569,"score_regional_logistic_regression":0.117396,"score_regional_fuzzy_knn":0.0385317,"score_regional_xgboost":0.0199868},"geometry":{"type":"Polygon","coordinates":[[[-73.756577,-7.1422605],[-73.7485177,-7.1423437],[-73.7484619,-7.1369515],[-73.7565212,-7.1368683],[-73.756577,-7.1422605]]]}},{"type":"Feature","id":"AC-Y865-X75","properties":{"id":"AC-Y865-X75","grid_x":75,"grid_y":865,"region":"oeste","centroid":[-73.7444601,-7.1396891],"aggregation":"none","score_unico_gradboost":0.0024836,"score_unico_random_forest":0.0033714,"score_unico_logistic_regression":0.1597828,"score_unico_fuzzy_knn":0.0180329,"score_unico_xgboost":0.0043473,"score_regional_gradboost":0.0078667,"score_regional_random_forest":0.0288293,"score_regional_logistic_regression":0.2034651,"score_regional_fuzzy_knn":0.0883596,"score_regional_xgboost":0.0319798},"geometry":{"type":"Polygon","coordinates":[[[-73.7485177,-7.1423437],[-73.7404582,-7.1424267],[-73.7404026,-7.1370345],[-73.7484619,-7.1369515],[-73.7485177,-7.1423437]]]}},{"type":"Feature","id":"AC-Y865-X76","properties":{"id":"AC-Y865-X76","grid_x":76,"grid_y":865,"region":"oeste","centroid":[-73.7364007,-7.1397721],"aggregation":"none","score_unico_gradboost":0.0022693,"score_unico_random_forest":0.0077947,"score_unico_logistic_regression":0.1489486,"score_unico_fuzzy_knn":0.0,"score_unico_xgboost":0.0043627,"score_regional_gradboost":0.0081846,"score_regional_random_forest":0.0262718,"score_regional_logistic_regression":0.1901103,"score_regional_fuzzy_knn":0.0867105,"score_regional_xgboost":0.0319798},"geometry":{"type":"Polygon","coordinates":[[[-73.7404582,-7.1424267],[-73.7323987,-7.1425097],[-73.7323432,-7.1371174],[-73.7404026,-7.1370345],[-73.7404582,-7.1424267]]]}},{"type":"Feature","id":"AC-Y866-X70","properties":{"id":"AC-Y866-X70","grid_x":70,"grid_y":866,"region":"oeste","centroid":[-73.7846997,-7.1338802],"aggregation":"none","score_unico_gradboost":0.0002713,"score_unico_random_forest":0.0018131,"score_unico_logistic_regression":0.0042118,"score_unico_fuzzy_knn":0.0,"score_unico_xgboost":0.0009232,"score_regional_gradboost":0.002488,"score_regional_random_forest":0.0228061,"score_regional_logistic_regression":0.0034808,"score_regional_fuzzy_knn":0.0,"score_regional_xgboost":0.0172328},"geometry":{"type":"Polygon","coordinates":[[[-73.7887572,-7.1365343],[-73.7806984,-7.136618],[-73.7806423,-7.1312261],[-73.7887011,-7.1311424],[-73.7887572,-7.1365343]]]}},{"type":"Feature","id":"AC-Y866-X71","properties":{"id":"AC-Y866-X71","grid_x":71,"grid_y":866,"region":"oeste","centroid":[-73.7766409,-7.1339638],"aggregation":"none","score_unico_gradboost":0.0002782,"score_unico_random_forest":0.0021162,"score_unico_logistic_regression":0.0363936,"score_unico_fuzzy_knn":0.0,"score_unico_xgboost":0.0008901,"score_regional_gradboost":0.0025202,"score_regional_random_forest":0.0257892,"score_regional_logistic_regression":0.0391634,"score_regional_fuzzy_knn":0.0,"score_regional_xgboost":0.0172328},"geometry":{"type":"Polygon","coordinates":[[[-73.7806984,-7.136618],[-73.7726394,-7.1367016],[-73.7725834,-7.1313096],[-73.7806423,-7.1312261],[-73.7806984,-7.136618]]]}},{"type":"Feature","id":"AC-Y866-X72","properties":{"id":"AC-Y866-X72","grid_x":72,"grid_y":866,"region":"oeste","centroid":[-73.7685819,-7.1340473],"aggregation":"none","score_unico_gradboost":0.0003064,"score_unico_random_forest":0.0018424,"score_unico_logistic_regression":0.0160891,"score_unico_fuzzy_knn":0.0,"score_unico_xgboost":0.0009012,"score_regional_gradboost":0.0025732,"score_regional_random_forest":0.0270752,"score_regional_logistic_regression":0.0158534,"score_regional_fuzzy_knn":0.0,"score_regional_xgboost":0.0172328},"geometry":{"type":"Polygon","coordinates":[[[-73.7726394,-7.1367016],[-73.7645803,-7.136785],[-73.7645245,-7.131393],[-73.7725834,-7.1313096],[-73.7726394,-7.1367016]]]}},{"type":"Feature","id":"AC-Y866-X73","properties":{"id":"AC-Y866-X73","grid_x":73,"grid_y":866,"region":"oeste","centroid":[-73.7605229,-7.1341306],"aggregation":"none","score_unico_gradboost":0.0004047,"score_unico_random_forest":0.0021209,"score_unico_logistic_regression":0.1036862,"score_unico_fuzzy_knn":0.0,"score_unico_xgboost":0.0010124,"score_regional_gradboost":0.0049081,"score_regional_random_forest":0.030189,"score_regional_logistic_regression":0.1264995,"score_regional_fuzzy_knn":0.03604,"score_regional_xgboost":0.018349},"geometry":{"type":"Polygon","coordinates":[[[-73.7645803,-7.136785],[-73.7565212,-7.1368683],[-73.7564654,-7.1314762],[-73.7645245,-7.131393],[-73.7645803,-7.136785]]]}},{"type":"Feature","id":"AC-Y866-X74","properties":{"id":"AC-Y866-X74","grid_x":74,"grid_y":866,"region":"oeste","centroid":[-73.7524637,-7.1342138],"aggregation":"none","score_unico_gradboost":0.0011889,"score_unico_random_forest":0.0038191,"score_unico_logistic_regression":0.1377247,"score_unico_fuzzy_knn":0.0,"score_unico_xgboost":0.0024325,"score_regional_gradboost":0.0089276,"score_regional_random_forest":0.0305372,"score_regional_logistic_regression":0.1737944,"score_regional_fuzzy_knn":0.0641595,"score_regional_xgboost":0.0291617},"geometry":{"type":"Polygon","coordinates":[[[-73.7565212,-7.1368683],[-73.7484619,-7.1369515],[-73.7484062,-7.1315593],[-73.7564654,-7.1314762],[-73.7565212,-7.1368683]]]}},{"type":"Feature","id":"AC-Y867-X69","properties":{"id":"AC-Y867-X69","grid_x":69,"grid_y":867,"region":"oeste","centroid":[-73.7927023,-7.1284046],"aggregation":"none","score_unico_gradboost":0.0002615,"score_unico_random_forest":0.002484,"score_unico_logistic_regression":0.0474067,"score_unico_fuzzy_knn":0.0,"score_unico_xgboost":0.0008015,"score_regional_gradboost":0.0024227,"score_regional_random_forest":0.0134287,"score_regional_logistic_regression":0.0516437,"score_regional_fuzzy_knn":0.0,"score_regional_xgboost":0.0096645},"geometry":{"type":"Polygon","coordinates":[[[-73.7967597,-7.1310587],[-73.7887011,-7.1311424],[-73.7886449,-7.1257506],[-73.7967035,-7.1256668],[-73.7967597,-7.1310587]]]}},{"type":"Feature","id":"AC-Y867-X70","properties":{"id":"AC-Y867-X70","grid_x":70,"grid_y":867,"region":"oeste","centroid":[-73.7846436,-7.1284883],"aggregation":"none","score_unico_gradboost":0.0002713,"score_unico_random_forest":0.0018131,"score_unico_logistic_regression":0.0096042,"score_unico_fuzzy_knn":0.0,"score_unico_xgboost":0.00094,"score_regional_gradboost":0.0027492,"score_regional_random_forest":0.0222898,"score_regional_logistic_regression":0.008731,"score_regional_fuzzy_knn":0.0,"score_regional_xgboost":0.0172328},"geometry":{"type":"Polygon","coordinates":[[[-73.7887011,-7.1311424],[-73.7806423,-7.1312261],[-73.7805863,-7.1258341],[-73.7886449,-7.1257506],[-73.7887011,-7.1311424]]]}},{"type":"Feature","id":"AC-Y867-X71","properties":{"id":"AC-Y867-X71","grid_x":71,"grid_y":867,"region":"oeste","centroid":[-73.7765849,-7.1285719],"aggregation":"none","score_unico_gradboost":0.0002713,"score_unico_random_forest":0.0024759,"score_unico_logistic_regression":0.0399879,"score_unico_fuzzy_knn":0.0,"score_unico_xgboost":0.0008912,"score_regional_gradboost":0.002488,"score_regional_random_forest":0.0240073,"score_regional_logistic_regression":0.0433516,"score_regional_fuzzy_knn":0.0,"score_regional_xgboost":0.0172328},"geometry":{"type":"Polygon","coordinates":[[[-73.7806423,-7.1312261],[-73.7725834,-7.1313096],[-73.7725275,-7.1259176],[-73.7805863,-7.1258341],[-73.7806423,-7.1312261]]]}},{"type":"Feature","id":"AC-Y867-X72","properties":{"id":"AC-Y867-X72","grid_x":72,"grid_y":867,"region":"oeste","centroid":[-73.768526,-7.1286553],"aggregation":"none","score_unico_gradboost":0.0002826,"score_unico_random_forest":0.0018424,"score_unico_logistic_regression":0.0518068,"score_unico_fuzzy_knn":0.0,"score_unico_xgboost":0.0007547,"score_regional_gradboost":0.0025732,"score_regional_random_forest":0.0264027,"score_regional_logistic_regression":0.0582493,"score_regional_fuzzy_knn":0.0066597,"score_regional_xgboost":0.0172328},"geometry":{"type":"Polygon","coordinates":[[[-73.7725834,-7.1313096],[-73.7645245,-7.131393],[-73.7644686,-7.1260009],[-73.7725275,-7.1259176],[-73.7725834,-7.1313096]]]}},{"type":"Feature","id":"AC-Y868-X69","properties":{"id":"AC-Y868-X69","grid_x":69,"grid_y":868,"region":"oeste","centroid":[-73.7926462,-7.1230128],"aggregation":"none","score_unico_gradboost":0.0002617,"score_unico_random_forest":0.002484,"score_unico_logistic_regression":0.0275247,"score_unico_fuzzy_knn":0.0,"score_unico_xgboost":0.000891,"score_regional_gradboost":0.0023145,"score_regional_random_forest":0.0136207,"score_regional_logistic_regression":0.0282752,"score_regional_fuzzy_knn":0.0,"score_regional_xgboost":0.0177124},"geometry":{"type":"Polygon","coordinates":[[[-73.7967035,-7.1256668],[-73.7886449,-7.1257506],[-73.7885889,-7.1203587],[-73.7966473,-7.120275],[-73.7967035,-7.1256668]]]}},{"type":"Feature","id":"AC-Y868-X70","properties":{"id":"AC-Y868-X70","grid_x":70,"grid_y":868,"region":"oeste","centroid":[-73.7845876,-7.1230964],"aggregation":"none","score_unico_gradboost":0.0002713,"score_unico_random_forest":0.0018131,"score_unico_logistic_regression":0.0402611,"score_unico_fuzzy_knn":0.0,"score_unico_xgboost":0.0009333,"score_regional_gradboost":0.002488,"score_regional_random_forest":0.0230514,"score_regional_logistic_regression":0.043579,"score_regional_fuzzy_knn":0.0,"score_regional_xgboost":0.0172328},"geometry":{"type":"Polygon","coordinates":[[[-73.7886449,-7.1257506],[-73.7805863,-7.1258341],[-73.7805303,-7.1204422],[-73.7885889,-7.1203587],[-73.7886449,-7.1257506]]]}}]}