{"type":"FeatureCollection","features":[{"type":"Feature","id":"AC-Y492-X738","properties":{"id":"AC-Y492-X738","grid_x":738,"grid_y":492,"region":"leste","centroid":[-68.3847846,-9.181784],"aggregation":"none","score_unico_gradboost":0.4837956,"score_unico_random_forest":0.553502,"score_unico_logistic_regression":0.5527004,"score_unico_fuzzy_knn":0.5535943,"score_unico_xgboost":0.6901487,"score_regional_gradboost":0.3205157,"score_regional_random_forest":0.5868693,"score_regional_logistic_regression":0.5687508,"score_regional_fuzzy_knn":0.5177763,"score_regional_xgboost":0.3845484},"geometry":{"type":"Polygon","coordinates":[[[-68.388844,-9.1844959],[-68.380716,-9.1844821],[-68.3807253,-9.1790721],[-68.3888533,-9.1790859],[-68.388844,-9.1844959]]]}},{"type":"Feature","id":"AC-Y492-X739","properties":{"id":"AC-Y492-X739","grid_x":739,"grid_y":492,"region":"leste","centroid":[-68.3766567,-9.1817701],"aggregation":"none","score_unico_gradboost":0.3997781,"score_unico_random_forest":0.5405541,"score_unico_logistic_regression":0.5277272,"score_unico_fuzzy_knn":0.5640282,"score_unico_xgboost":0.6500308,"score_regional_gradboost":0.293371,"score_regional_random_forest":0.5189285,"score_regional_logistic_regression":0.5388693,"score_regional_fuzzy_knn":0.531915,"score_regional_xgboost":0.3166659},"geometry":{"type":"Polygon","coordinates":[[[-68.380716,-9.1844821],[-68.3725879,-9.1844681],[-68.3725974,-9.1790581],[-68.3807253,-9.1790721],[-68.380716,-9.1844821]]]}},{"type":"Feature","id":"AC-Y492-X740","properties":{"id":"AC-Y492-X740","grid_x":740,"grid_y":492,"region":"leste","centroid":[-68.3685287,-9.181756],"aggregation":"none","score_unico_gradboost":0.4754634,"score_unico_random_forest":0.576279,"score_unico_logistic_regression":0.566032,"score_unico_fuzzy_knn":0.5869375,"score_unico_xgboost":0.6451607,"score_regional_gradboost":0.3243996,"score_regional_random_forest":0.5774577,"score_regional_logistic_regression":0.5677461,"score_regional_fuzzy_knn":0.551249,"score_regional_xgboost":0.401125},"geometry":{"type":"Polygon","coordinates":[[[-68.3725879,-9.1844681],[-68.3644599,-9.1844539],[-68.3644695,-9.1790439],[-68.3725974,-9.1790581],[-68.3725879,-9.1844681]]]}},{"type":"Feature","id":"AC-Y492-X741","properties":{"id":"AC-Y492-X741","grid_x":741,"grid_y":492,"region":"leste","centroid":[-68.3604007,-9.1817417],"aggregation":"none","score_unico_gradboost":0.3910851,"score_unico_random_forest":0.5511035,"score_unico_logistic_regression":0.5357951,"score_unico_fuzzy_knn":0.5503394,"score_unico_xgboost":0.6275942,"score_regional_gradboost":0.3279064,"score_regional_random_forest":0.5343168,"score_regional_logistic_regression":0.5330194,"score_regional_fuzzy_knn":0.5188271,"score_regional_xgboost":0.3215625},"geometry":{"type":"Polygon","coordinates":[[[-68.3644599,-9.1844539],[-68.3563319,-9.1844395],[-68.3563416,-9.1790295],[-68.3644695,-9.1790439],[-68.3644599,-9.1844539]]]}},{"type":"Feature","id":"AC-Y493-X738","properties":{"id":"AC-Y493-X738","grid_x":738,"grid_y":493,"region":"leste","centroid":[-68.384794,-9.176374],"aggregation":"none","score_unico_gradboost":0.3468157,"score_unico_random_forest":0.50655,"score_unico_logistic_regression":0.5357236,"score_unico_fuzzy_knn":0.5403808,"score_unico_xgboost":0.6534898,"score_regional_gradboost":0.3150998,"score_regional_random_forest":0.5462248,"score_regional_logistic_regression":0.5471344,"score_regional_fuzzy_knn":0.5056194,"score_regional_xgboost":0.3287669},"geometry":{"type":"Polygon","coordinates":[[[-68.3888533,-9.1790859],[-68.3807253,-9.1790721],[-68.3807347,-9.173662],[-68.3888625,-9.1736759],[-68.3888533,-9.1790859]]]}},{"type":"Feature","id":"AC-Y493-X739","properties":{"id":"AC-Y493-X739","grid_x":739,"grid_y":493,"region":"leste","centroid":[-68.3766661,-9.1763601],"aggregation":"none","score_unico_gradboost":0.3916054,"score_unico_random_forest":0.5037675,"score_unico_logistic_regression":0.5493863,"score_unico_fuzzy_knn":0.5764849,"score_unico_xgboost":0.6177099,"score_regional_gradboost":0.3205157,"score_regional_random_forest":0.5616385,"score_regional_logistic_regression":0.5531662,"score_regional_fuzzy_knn":0.5325048,"score_regional_xgboost":0.3167195},"geometry":{"type":"Polygon","coordinates":[[[-68.3807253,-9.1790721],[-68.3725974,-9.1790581],[-68.3726069,-9.173648],[-68.3807347,-9.173662],[-68.3807253,-9.1790721]]]}},{"type":"Feature","id":"AC-Y493-X740","properties":{"id":"AC-Y493-X740","grid_x":740,"grid_y":493,"region":"leste","centroid":[-68.3685383,-9.176346],"aggregation":"none","score_unico_gradboost":0.3886982,"score_unico_random_forest":0.4972411,"score_unico_logistic_regression":0.5602864,"score_unico_fuzzy_knn":0.5776605,"score_unico_xgboost":0.5886471,"score_regional_gradboost":0.3240072,"score_regional_random_forest":0.5669576,"score_regional_logistic_regression":0.5566844,"score_regional_fuzzy_knn":0.5413994,"score_regional_xgboost":0.4033459},"geometry":{"type":"Polygon","coordinates":[[[-68.3725974,-9.1790581],[-68.3644695,-9.1790439],[-68.3644792,-9.1736338],[-68.3726069,-9.173648],[-68.3725974,-9.1790581]]]}},{"type":"Feature","id":"AC-Y494-X738","properties":{"id":"AC-Y494-X738","grid_x":738,"grid_y":494,"region":"leste","centroid":[-68.3848033,-9.170964],"aggregation":"none","score_unico_gradboost":0.329527,"score_unico_random_forest":0.4814105,"score_unico_logistic_regression":0.5735828,"score_unico_fuzzy_knn":0.6009444,"score_unico_xgboost":0.6091244,"score_regional_gradboost":0.2724528,"score_regional_random_forest":0.5293846,"score_regional_logistic_regression":0.5762493,"score_regional_fuzzy_knn":0.5566783,"score_regional_xgboost":0.325196},"geometry":{"type":"Polygon","coordinates":[[[-68.3888625,-9.1736759],[-68.3807347,-9.173662],[-68.3807441,-9.168252],[-68.3888718,-9.1682658],[-68.3888625,-9.1736759]]]}}]}