{"type":"FeatureCollection","features":[{"type":"Feature","id":"AC-Y445-X145","properties":{"id":"AC-Y445-X145","grid_x":145,"grid_y":445,"region":"oeste","centroid":[-73.2040912,-9.4114917],"aggregation":"none","score_unico_gradboost":0.1501124,"score_unico_random_forest":0.1080755,"score_unico_logistic_regression":0.2189806,"score_unico_fuzzy_knn":0.0945331,"score_unico_xgboost":0.039,"score_regional_gradboost":0.0561701,"score_regional_random_forest":0.2116907,"score_regional_logistic_regression":0.2924165,"score_regional_fuzzy_knn":0.1794782,"score_regional_xgboost":0.1478161},"geometry":{"type":"Polygon","coordinates":[[[-73.2081798,-9.4141411],[-73.200068,-9.4142379],[-73.2000027,-9.4088423],[-73.2081144,-9.4087455],[-73.2081798,-9.4141411]]]}},{"type":"Feature","id":"AC-Y445-X146","properties":{"id":"AC-Y445-X146","grid_x":146,"grid_y":445,"region":"oeste","centroid":[-73.1959794,-9.4115884],"aggregation":"none","score_unico_gradboost":0.2732929,"score_unico_random_forest":0.1306942,"score_unico_logistic_regression":0.2386107,"score_unico_fuzzy_knn":0.0965567,"score_unico_xgboost":0.0697251,"score_regional_gradboost":0.0558169,"score_regional_random_forest":0.2173381,"score_regional_logistic_regression":0.359395,"score_regional_fuzzy_knn":0.1742808,"score_regional_xgboost":0.1385944},"geometry":{"type":"Polygon","coordinates":[[[-73.200068,-9.4142379],[-73.1919561,-9.4143346],[-73.191891,-9.4089389],[-73.2000027,-9.4088423],[-73.200068,-9.4142379]]]}},{"type":"Feature","id":"AC-Y445-X147","properties":{"id":"AC-Y445-X147","grid_x":147,"grid_y":445,"region":"oeste","centroid":[-73.1878676,-9.411685],"aggregation":"none","score_unico_gradboost":0.2712112,"score_unico_random_forest":0.1175464,"score_unico_logistic_regression":0.237476,"score_unico_fuzzy_knn":0.0984185,"score_unico_xgboost":0.0643965,"score_regional_gradboost":0.0771964,"score_regional_random_forest":0.221575,"score_regional_logistic_regression":0.3313567,"score_regional_fuzzy_knn":0.1816044,"score_regional_xgboost":0.1544251},"geometry":{"type":"Polygon","coordinates":[[[-73.1919561,-9.4143346],[-73.1838441,-9.4144311],[-73.1837791,-9.4090353],[-73.191891,-9.4089389],[-73.1919561,-9.4143346]]]}},{"type":"Feature","id":"AC-Y446-X145","properties":{"id":"AC-Y446-X145","grid_x":145,"grid_y":446,"region":"oeste","centroid":[-73.2040259,-9.4060961],"aggregation":"none","score_unico_gradboost":0.1351077,"score_unico_random_forest":0.1089494,"score_unico_logistic_regression":0.2061765,"score_unico_fuzzy_knn":0.0771269,"score_unico_xgboost":0.0425985,"score_regional_gradboost":0.0530958,"score_regional_random_forest":0.210629,"score_regional_logistic_regression":0.2745102,"score_regional_fuzzy_knn":0.1801211,"score_regional_xgboost":0.1478161},"geometry":{"type":"Polygon","coordinates":[[[-73.2081144,-9.4087455],[-73.2000027,-9.4088423],[-73.1999375,-9.4034466],[-73.2080491,-9.4033499],[-73.2081144,-9.4087455]]]}},{"type":"Feature","id":"AC-Y446-X146","properties":{"id":"AC-Y446-X146","grid_x":146,"grid_y":446,"region":"oeste","centroid":[-73.1959143,-9.4061928],"aggregation":"none","score_unico_gradboost":0.270281,"score_unico_random_forest":0.1328894,"score_unico_logistic_regression":0.2577342,"score_unico_fuzzy_knn":0.1245059,"score_unico_xgboost":0.0695591,"score_regional_gradboost":0.0404023,"score_regional_random_forest":0.2193943,"score_regional_logistic_regression":0.3793318,"score_regional_fuzzy_knn":0.2195671,"score_regional_xgboost":0.1237343},"geometry":{"type":"Polygon","coordinates":[[[-73.2000027,-9.4088423],[-73.191891,-9.4089389],[-73.1918259,-9.4035432],[-73.1999375,-9.4034466],[-73.2000027,-9.4088423]]]}},{"type":"Feature","id":"AC-Y446-X147","properties":{"id":"AC-Y446-X147","grid_x":147,"grid_y":446,"region":"oeste","centroid":[-73.1878025,-9.4062893],"aggregation":"none","score_unico_gradboost":0.2269591,"score_unico_random_forest":0.1295851,"score_unico_logistic_regression":0.2790686,"score_unico_fuzzy_knn":0.1345351,"score_unico_xgboost":0.0632675,"score_regional_gradboost":0.0299893,"score_regional_random_forest":0.2149464,"score_regional_logistic_regression":0.4663291,"score_regional_fuzzy_knn":0.222468,"score_regional_xgboost":0.0772109},"geometry":{"type":"Polygon","coordinates":[[[-73.191891,-9.4089389],[-73.1837791,-9.4090353],[-73.1837142,-9.4036395],[-73.1918259,-9.4035432],[-73.191891,-9.4089389]]]}},{"type":"Feature","id":"AC-Y446-X148","properties":{"id":"AC-Y446-X148","grid_x":148,"grid_y":446,"region":"oeste","centroid":[-73.1796907,-9.4063856],"aggregation":"none","score_unico_gradboost":0.2893808,"score_unico_random_forest":0.1319853,"score_unico_logistic_regression":0.2346269,"score_unico_fuzzy_knn":0.0995412,"score_unico_xgboost":0.09337,"score_regional_gradboost":0.1256086,"score_regional_random_forest":0.2224235,"score_regional_logistic_regression":0.3355698,"score_regional_fuzzy_knn":0.1653005,"score_regional_xgboost":0.1740093},"geometry":{"type":"Polygon","coordinates":[[[-73.1837791,-9.4090353],[-73.1756672,-9.4091316],[-73.1756024,-9.4037357],[-73.1837142,-9.4036395],[-73.1837791,-9.4090353]]]}},{"type":"Feature","id":"AC-Y446-X149","properties":{"id":"AC-Y446-X149","grid_x":149,"grid_y":446,"region":"oeste","centroid":[-73.1715788,-9.4064817],"aggregation":"none","score_unico_gradboost":0.2474773,"score_unico_random_forest":0.1261154,"score_unico_logistic_regression":0.2689218,"score_unico_fuzzy_knn":0.148878,"score_unico_xgboost":0.0882693,"score_regional_gradboost":0.0741233,"score_regional_random_forest":0.2281068,"score_regional_logistic_regression":0.369584,"score_regional_fuzzy_knn":0.246014,"score_regional_xgboost":0.1544251},"geometry":{"type":"Polygon","coordinates":[[[-73.1756672,-9.4091316],[-73.1675552,-9.4092276],[-73.1674905,-9.4038317],[-73.1756024,-9.4037357],[-73.1756672,-9.4091316]]]}},{"type":"Feature","id":"AC-Y446-X150","properties":{"id":"AC-Y446-X150","grid_x":150,"grid_y":446,"region":"oeste","centroid":[-73.1634668,-9.4065776],"aggregation":"none","score_unico_gradboost":0.2888327,"score_unico_random_forest":0.1278536,"score_unico_logistic_regression":0.2453332,"score_unico_fuzzy_knn":0.1187415,"score_unico_xgboost":0.0625221,"score_regional_gradboost":0.043549,"score_regional_random_forest":0.2170483,"score_regional_logistic_regression":0.3638231,"score_regional_fuzzy_knn":0.1923287,"score_regional_xgboost":0.1206695},"geometry":{"type":"Polygon","coordinates":[[[-73.1675552,-9.4092276],[-73.1594431,-9.4093235],[-73.1593785,-9.4039275],[-73.1674905,-9.4038317],[-73.1675552,-9.4092276]]]}},{"type":"Feature","id":"AC-Y446-X151","properties":{"id":"AC-Y446-X151","grid_x":151,"grid_y":446,"region":"oeste","centroid":[-73.1553547,-9.4066734],"aggregation":"none","score_unico_gradboost":0.2893808,"score_unico_random_forest":0.1349213,"score_unico_logistic_regression":0.2322153,"score_unico_fuzzy_knn":0.1101059,"score_unico_xgboost":0.0916846,"score_regional_gradboost":0.1256086,"score_regional_random_forest":0.221275,"score_regional_logistic_regression":0.3334239,"score_regional_fuzzy_knn":0.1657283,"score_regional_xgboost":0.1699407},"geometry":{"type":"Polygon","coordinates":[[[-73.1594431,-9.4093235],[-73.1513309,-9.4094192],[-73.1512664,-9.4040232],[-73.1593785,-9.4039275],[-73.1594431,-9.4093235]]]}},{"type":"Feature","id":"AC-Y447-X146","properties":{"id":"AC-Y447-X146","grid_x":146,"grid_y":447,"region":"oeste","centroid":[-73.1958491,-9.4007971],"aggregation":"none","score_unico_gradboost":0.2656541,"score_unico_random_forest":0.1138853,"score_unico_logistic_regression":0.2452438,"score_unico_fuzzy_knn":0.116609,"score_unico_xgboost":0.0631809,"score_regional_gradboost":0.0731769,"score_regional_random_forest":0.2226583,"score_regional_logistic_regression":0.3395861,"score_regional_fuzzy_knn":0.1996794,"score_regional_xgboost":0.1544251},"geometry":{"type":"Polygon","coordinates":[[[-73.1999375,-9.4034466],[-73.1918259,-9.4035432],[-73.1917608,-9.3981475],[-73.1998723,-9.398051],[-73.1999375,-9.4034466]]]}},{"type":"Feature","id":"AC-Y447-X147","properties":{"id":"AC-Y447-X147","grid_x":147,"grid_y":447,"region":"oeste","centroid":[-73.1877375,-9.4008935],"aggregation":"none","score_unico_gradboost":0.2775661,"score_unico_random_forest":0.1231456,"score_unico_logistic_regression":0.2312923,"score_unico_fuzzy_knn":0.0992255,"score_unico_xgboost":0.1029702,"score_regional_gradboost":0.0900142,"score_regional_random_forest":0.2217606,"score_regional_logistic_regression":0.3263683,"score_regional_fuzzy_knn":0.1649449,"score_regional_xgboost":0.1722465},"geometry":{"type":"Polygon","coordinates":[[[-73.1918259,-9.4035432],[-73.1837142,-9.4036395],[-73.1836492,-9.3982438],[-73.1917608,-9.3981475],[-73.1918259,-9.4035432]]]}},{"type":"Feature","id":"AC-Y447-X148","properties":{"id":"AC-Y447-X148","grid_x":148,"grid_y":447,"region":"oeste","centroid":[-73.1796258,-9.4009898],"aggregation":"none","score_unico_gradboost":0.2318718,"score_unico_random_forest":0.1287331,"score_unico_logistic_regression":0.2579505,"score_unico_fuzzy_knn":0.1179555,"score_unico_xgboost":0.0599483,"score_regional_gradboost":0.0320336,"score_regional_random_forest":0.2147671,"score_regional_logistic_regression":0.4205566,"score_regional_fuzzy_knn":0.2017958,"score_regional_xgboost":0.0783932},"geometry":{"type":"Polygon","coordinates":[[[-73.1837142,-9.4036395],[-73.1756024,-9.4037357],[-73.1755376,-9.3983399],[-73.1836492,-9.3982438],[-73.1837142,-9.4036395]]]}},{"type":"Feature","id":"AC-Y447-X149","properties":{"id":"AC-Y447-X149","grid_x":149,"grid_y":447,"region":"oeste","centroid":[-73.171514,-9.4010858],"aggregation":"none","score_unico_gradboost":0.2547806,"score_unico_random_forest":0.1237905,"score_unico_logistic_regression":0.2724399,"score_unico_fuzzy_knn":0.1474521,"score_unico_xgboost":0.0636382,"score_regional_gradboost":0.0310918,"score_regional_random_forest":0.2132383,"score_regional_logistic_regression":0.4143512,"score_regional_fuzzy_knn":0.2247627,"score_regional_xgboost":0.0773515},"geometry":{"type":"Polygon","coordinates":[[[-73.1756024,-9.4037357],[-73.1674905,-9.4038317],[-73.1674258,-9.3984359],[-73.1755376,-9.3983399],[-73.1756024,-9.4037357]]]}},{"type":"Feature","id":"AC-Y447-X150","properties":{"id":"AC-Y447-X150","grid_x":150,"grid_y":447,"region":"oeste","centroid":[-73.1634022,-9.4011817],"aggregation":"none","score_unico_gradboost":0.2888327,"score_unico_random_forest":0.1319881,"score_unico_logistic_regression":0.236103,"score_unico_fuzzy_knn":0.1101527,"score_unico_xgboost":0.0653907,"score_regional_gradboost":0.0574481,"score_regional_random_forest":0.2171392,"score_regional_logistic_regression":0.3525806,"score_regional_fuzzy_knn":0.1664046,"score_regional_xgboost":0.1352183},"geometry":{"type":"Polygon","coordinates":[[[-73.1674905,-9.4038317],[-73.1593785,-9.4039275],[-73.1593139,-9.3985316],[-73.1674258,-9.3984359],[-73.1674905,-9.4038317]]]}},{"type":"Feature","id":"AC-Y447-X151","properties":{"id":"AC-Y447-X151","grid_x":151,"grid_y":447,"region":"oeste","centroid":[-73.1552902,-9.4012774],"aggregation":"none","score_unico_gradboost":0.1648976,"score_unico_random_forest":0.1226005,"score_unico_logistic_regression":0.307919,"score_unico_fuzzy_knn":0.2213933,"score_unico_xgboost":0.0639056,"score_regional_gradboost":0.0332094,"score_regional_random_forest":0.2297633,"score_regional_logistic_regression":0.4783495,"score_regional_fuzzy_knn":0.3133251,"score_regional_xgboost":0.0904164},"geometry":{"type":"Polygon","coordinates":[[[-73.1593785,-9.4039275],[-73.1512664,-9.4040232],[-73.151202,-9.3986272],[-73.1593139,-9.3985316],[-73.1593785,-9.4039275]]]}},{"type":"Feature","id":"AC-Y448-X146","properties":{"id":"AC-Y448-X146","grid_x":146,"grid_y":448,"region":"oeste","centroid":[-73.1957841,-9.3954014],"aggregation":"none","score_unico_gradboost":0.1465817,"score_unico_random_forest":0.1023467,"score_unico_logistic_regression":0.275186,"score_unico_fuzzy_knn":0.1663679,"score_unico_xgboost":0.0426934,"score_regional_gradboost":0.0408561,"score_regional_random_forest":0.2193521,"score_regional_logistic_regression":0.3641034,"score_regional_fuzzy_knn":0.263532,"score_regional_xgboost":0.1321189},"geometry":{"type":"Polygon","coordinates":[[[-73.1998723,-9.398051],[-73.1917608,-9.3981475],[-73.1916958,-9.3927517],[-73.1998072,-9.3926553],[-73.1998723,-9.398051]]]}},{"type":"Feature","id":"AC-Y448-X147","properties":{"id":"AC-Y448-X147","grid_x":147,"grid_y":448,"region":"oeste","centroid":[-73.1876726,-9.3954978],"aggregation":"none","score_unico_gradboost":0.1546551,"score_unico_random_forest":0.1067219,"score_unico_logistic_regression":0.2062698,"score_unico_fuzzy_knn":0.0962037,"score_unico_xgboost":0.0387381,"score_regional_gradboost":0.0561701,"score_regional_random_forest":0.2097467,"score_regional_logistic_regression":0.2762104,"score_regional_fuzzy_knn":0.180739,"score_regional_xgboost":0.1478161},"geometry":{"type":"Polygon","coordinates":[[[-73.1917608,-9.3981475],[-73.1836492,-9.3982438],[-73.1835844,-9.392848],[-73.1916958,-9.3927517],[-73.1917608,-9.3981475]]]}},{"type":"Feature","id":"AC-Y448-X148","properties":{"id":"AC-Y448-X148","grid_x":148,"grid_y":448,"region":"oeste","centroid":[-73.179561,-9.395594],"aggregation":"none","score_unico_gradboost":0.2656541,"score_unico_random_forest":0.1151226,"score_unico_logistic_regression":0.2474366,"score_unico_fuzzy_knn":0.1283732,"score_unico_xgboost":0.0684792,"score_regional_gradboost":0.0731769,"score_regional_random_forest":0.2200909,"score_regional_logistic_regression":0.3457088,"score_regional_fuzzy_knn":0.1920045,"score_regional_xgboost":0.1507308},"geometry":{"type":"Polygon","coordinates":[[[-73.1836492,-9.3982438],[-73.1755376,-9.3983399],[-73.1754728,-9.3929441],[-73.1835844,-9.392848],[-73.1836492,-9.3982438]]]}},{"type":"Feature","id":"AC-Y448-X149","properties":{"id":"AC-Y448-X149","grid_x":149,"grid_y":448,"region":"oeste","centroid":[-73.1714493,-9.39569],"aggregation":"none","score_unico_gradboost":0.2893808,"score_unico_random_forest":0.1342519,"score_unico_logistic_regression":0.2323213,"score_unico_fuzzy_knn":0.1100522,"score_unico_xgboost":0.0916846,"score_regional_gradboost":0.1256086,"score_regional_random_forest":0.221275,"score_regional_logistic_regression":0.3340168,"score_regional_fuzzy_knn":0.1657508,"score_regional_xgboost":0.1699407},"geometry":{"type":"Polygon","coordinates":[[[-73.1755376,-9.3983399],[-73.1674258,-9.3984359],[-73.1673612,-9.39304],[-73.1754728,-9.3929441],[-73.1755376,-9.3983399]]]}},{"type":"Feature","id":"AC-Y448-X150","properties":{"id":"AC-Y448-X150","grid_x":150,"grid_y":448,"region":"oeste","centroid":[-73.1633376,-9.3957858],"aggregation":"none","score_unico_gradboost":0.3242776,"score_unico_random_forest":0.1262345,"score_unico_logistic_regression":0.2634835,"score_unico_fuzzy_knn":0.1433137,"score_unico_xgboost":0.1187919,"score_regional_gradboost":0.0731769,"score_regional_random_forest":0.2241722,"score_regional_logistic_regression":0.3615328,"score_regional_fuzzy_knn":0.2334825,"score_regional_xgboost":0.1507308},"geometry":{"type":"Polygon","coordinates":[[[-73.1674258,-9.3984359],[-73.1593139,-9.3985316],[-73.1592494,-9.3931357],[-73.1673612,-9.39304],[-73.1674258,-9.3984359]]]}},{"type":"Feature","id":"AC-Y448-X151","properties":{"id":"AC-Y448-X151","grid_x":151,"grid_y":448,"region":"oeste","centroid":[-73.1552257,-9.3958814],"aggregation":"none","score_unico_gradboost":0.269412,"score_unico_random_forest":0.1156869,"score_unico_logistic_regression":0.2527762,"score_unico_fuzzy_knn":0.1331692,"score_unico_xgboost":0.0858479,"score_regional_gradboost":0.0799774,"score_regional_random_forest":0.220122,"score_regional_logistic_regression":0.352505,"score_regional_fuzzy_knn":0.2107631,"score_regional_xgboost":0.1507308},"geometry":{"type":"Polygon","coordinates":[[[-73.1593139,-9.3985316],[-73.151202,-9.3986272],[-73.1511376,-9.3932312],[-73.1592494,-9.3931357],[-73.1593139,-9.3985316]]]}},{"type":"Feature","id":"AC-Y449-X147","properties":{"id":"AC-Y449-X147","grid_x":147,"grid_y":449,"region":"oeste","centroid":[-73.1876076,-9.390102],"aggregation":"none","score_unico_gradboost":0.1269708,"score_unico_random_forest":0.0891796,"score_unico_logistic_regression":0.2343132,"score_unico_fuzzy_knn":0.1111792,"score_unico_xgboost":0.0346243,"score_regional_gradboost":0.0381269,"score_regional_random_forest":0.2048028,"score_regional_logistic_regression":0.3046044,"score_regional_fuzzy_knn":0.1878144,"score_regional_xgboost":0.1267993},"geometry":{"type":"Polygon","coordinates":[[[-73.1916958,-9.3927517],[-73.1835844,-9.392848],[-73.1835195,-9.3874522],[-73.1916308,-9.387356],[-73.1916958,-9.3927517]]]}},{"type":"Feature","id":"AC-Y449-X148","properties":{"id":"AC-Y449-X148","grid_x":148,"grid_y":449,"region":"oeste","centroid":[-73.1794962,-9.3901982],"aggregation":"none","score_unico_gradboost":0.1388812,"score_unico_random_forest":0.1068837,"score_unico_logistic_regression":0.2136382,"score_unico_fuzzy_knn":0.1074101,"score_unico_xgboost":0.0401799,"score_regional_gradboost":0.0530958,"score_regional_random_forest":0.2088038,"score_regional_logistic_regression":0.2837189,"score_regional_fuzzy_knn":0.1802382,"score_regional_xgboost":0.144253},"geometry":{"type":"Polygon","coordinates":[[[-73.1835844,-9.392848],[-73.1754728,-9.3929441],[-73.1754081,-9.3875482],[-73.1835195,-9.3874522],[-73.1835844,-9.392848]]]}},{"type":"Feature","id":"AC-Y449-X149","properties":{"id":"AC-Y449-X149","grid_x":149,"grid_y":449,"region":"oeste","centroid":[-73.1713847,-9.3902941],"aggregation":"none","score_unico_gradboost":0.2293823,"score_unico_random_forest":0.1021888,"score_unico_logistic_regression":0.2463551,"score_unico_fuzzy_knn":0.1314778,"score_unico_xgboost":0.0432594,"score_regional_gradboost":0.0392815,"score_regional_random_forest":0.2060271,"score_regional_logistic_regression":0.3308042,"score_regional_fuzzy_knn":0.1912942,"score_regional_xgboost":0.128877},"geometry":{"type":"Polygon","coordinates":[[[-73.1754728,-9.3929441],[-73.1673612,-9.39304],[-73.1672966,-9.3876441],[-73.1754081,-9.3875482],[-73.1754728,-9.3929441]]]}},{"type":"Feature","id":"AC-Y449-X150","properties":{"id":"AC-Y449-X150","grid_x":150,"grid_y":449,"region":"oeste","centroid":[-73.163273,-9.3903899],"aggregation":"none","score_unico_gradboost":0.1420587,"score_unico_random_forest":0.1008824,"score_unico_logistic_regression":0.2212142,"score_unico_fuzzy_knn":0.1111468,"score_unico_xgboost":0.0398247,"score_regional_gradboost":0.0572644,"score_regional_random_forest":0.2071678,"score_regional_logistic_regression":0.2912945,"score_regional_fuzzy_knn":0.1798282,"score_regional_xgboost":0.144253},"geometry":{"type":"Polygon","coordinates":[[[-73.1673612,-9.39304],[-73.1592494,-9.3931357],[-73.159185,-9.3877397],[-73.1672966,-9.3876441],[-73.1673612,-9.39304]]]}},{"type":"Feature","id":"AC-Y449-X151","properties":{"id":"AC-Y449-X151","grid_x":151,"grid_y":449,"region":"oeste","centroid":[-73.1551613,-9.3904855],"aggregation":"none","score_unico_gradboost":0.2327897,"score_unico_random_forest":0.1057794,"score_unico_logistic_regression":0.253355,"score_unico_fuzzy_knn":0.1441599,"score_unico_xgboost":0.0432594,"score_regional_gradboost":0.0430784,"score_regional_random_forest":0.2068981,"score_regional_logistic_regression":0.3397218,"score_regional_fuzzy_knn":0.2024223,"score_regional_xgboost":0.128877},"geometry":{"type":"Polygon","coordinates":[[[-73.1592494,-9.3931357],[-73.1511376,-9.3932312],[-73.1510733,-9.3878352],[-73.159185,-9.3877397],[-73.1592494,-9.3931357]]]}},{"type":"Feature","id":"AC-Y450-X147","properties":{"id":"AC-Y450-X147","grid_x":147,"grid_y":450,"region":"oeste","centroid":[-73.1875427,-9.3847063],"aggregation":"none","score_unico_gradboost":0.0883476,"score_unico_random_forest":0.1175127,"score_unico_logistic_regression":0.2266674,"score_unico_fuzzy_knn":0.1109991,"score_unico_xgboost":0.038207,"score_regional_gradboost":0.029669,"score_regional_random_forest":0.1286015,"score_regional_logistic_regression":0.2875652,"score_regional_fuzzy_knn":0.1942745,"score_regional_xgboost":0.066796},"geometry":{"type":"Polygon","coordinates":[[[-73.1916308,-9.387356],[-73.1835195,-9.3874522],[-73.1834547,-9.3820565],[-73.1915659,-9.3819603],[-73.1916308,-9.387356]]]}},{"type":"Feature","id":"AC-Y450-X148","properties":{"id":"AC-Y450-X148","grid_x":148,"grid_y":450,"region":"oeste","centroid":[-73.1794314,-9.3848024],"aggregation":"none","score_unico_gradboost":0.121706,"score_unico_random_forest":0.1058493,"score_unico_logistic_regression":0.234316,"score_unico_fuzzy_knn":0.1135167,"score_unico_xgboost":0.0351807,"score_regional_gradboost":0.032433,"score_regional_random_forest":0.1937942,"score_regional_logistic_regression":0.3019112,"score_regional_fuzzy_knn":0.1876424,"score_regional_xgboost":0.1088239},"geometry":{"type":"Polygon","coordinates":[[[-73.1835195,-9.3874522],[-73.1754081,-9.3875482],[-73.1753434,-9.3821524],[-73.1834547,-9.3820565],[-73.1835195,-9.3874522]]]}},{"type":"Feature","id":"AC-Y450-X149","properties":{"id":"AC-Y450-X149","grid_x":149,"grid_y":450,"region":"oeste","centroid":[-73.17132,-9.3848983],"aggregation":"none","score_unico_gradboost":0.1291118,"score_unico_random_forest":0.0942443,"score_unico_logistic_regression":0.2234344,"score_unico_fuzzy_knn":0.1119544,"score_unico_xgboost":0.0370261,"score_regional_gradboost":0.0522374,"score_regional_random_forest":0.2076499,"score_regional_logistic_regression":0.288966,"score_regional_fuzzy_knn":0.1873074,"score_regional_xgboost":0.1419678},"geometry":{"type":"Polygon","coordinates":[[[-73.1754081,-9.3875482],[-73.1672966,-9.3876441],[-73.167232,-9.3822482],[-73.1753434,-9.3821524],[-73.1754081,-9.3875482]]]}},{"type":"Feature","id":"AC-Y450-X150","properties":{"id":"AC-Y450-X150","grid_x":150,"grid_y":450,"region":"oeste","centroid":[-73.1632085,-9.384994],"aggregation":"none","score_unico_gradboost":0.101974,"score_unico_random_forest":0.1067644,"score_unico_logistic_regression":0.2267851,"score_unico_fuzzy_knn":0.1221174,"score_unico_xgboost":0.0361583,"score_regional_gradboost":0.0453406,"score_regional_random_forest":0.1838286,"score_regional_logistic_regression":0.2902882,"score_regional_fuzzy_knn":0.1867994,"score_regional_xgboost":0.1051477},"geometry":{"type":"Polygon","coordinates":[[[-73.1672966,-9.3876441],[-73.159185,-9.3877397],[-73.1591205,-9.3823438],[-73.167232,-9.3822482],[-73.1672966,-9.3876441]]]}},{"type":"Feature","id":"AC-Y450-X151","properties":{"id":"AC-Y450-X151","grid_x":151,"grid_y":450,"region":"oeste","centroid":[-73.1550969,-9.3850895],"aggregation":"none","score_unico_gradboost":0.1420587,"score_unico_random_forest":0.1020406,"score_unico_logistic_regression":0.2377171,"score_unico_fuzzy_knn":0.1250625,"score_unico_xgboost":0.0432601,"score_regional_gradboost":0.0427613,"score_regional_random_forest":0.2062862,"score_regional_logistic_regression":0.3133412,"score_regional_fuzzy_knn":0.1981979,"score_regional_xgboost":0.128877},"geometry":{"type":"Polygon","coordinates":[[[-73.159185,-9.3877397],[-73.1510733,-9.3878352],[-73.151009,-9.3824392],[-73.1591205,-9.3823438],[-73.159185,-9.3877397]]]}},{"type":"Feature","id":"AC-Y451-X147","properties":{"id":"AC-Y451-X147","grid_x":147,"grid_y":451,"region":"oeste","centroid":[-73.1874779,-9.3793105],"aggregation":"none","score_unico_gradboost":0.1320665,"score_unico_random_forest":0.1107653,"score_unico_logistic_regression":0.2332208,"score_unico_fuzzy_knn":0.1220596,"score_unico_xgboost":0.0393465,"score_regional_gradboost":0.0212906,"score_regional_random_forest":0.0861841,"score_regional_logistic_regression":0.290627,"score_regional_fuzzy_knn":0.1941485,"score_regional_xgboost":0.0530538},"geometry":{"type":"Polygon","coordinates":[[[-73.1915659,-9.3819603],[-73.1834547,-9.3820565],[-73.1833899,-9.3766607],[-73.191501,-9.3765646],[-73.1915659,-9.3819603]]]}},{"type":"Feature","id":"AC-Y451-X148","properties":{"id":"AC-Y451-X148","grid_x":148,"grid_y":451,"region":"oeste","centroid":[-73.1793667,-9.3794066],"aggregation":"none","score_unico_gradboost":0.1196755,"score_unico_random_forest":0.1023412,"score_unico_logistic_regression":0.2592783,"score_unico_fuzzy_knn":0.1482755,"score_unico_xgboost":0.0417109,"score_regional_gradboost":0.0260244,"score_regional_random_forest":0.0920434,"score_regional_logistic_regression":0.3271118,"score_regional_fuzzy_knn":0.2081468,"score_regional_xgboost":0.0589235},"geometry":{"type":"Polygon","coordinates":[[[-73.1834547,-9.3820565],[-73.1753434,-9.3821524],[-73.1752787,-9.3767566],[-73.1833899,-9.3766607],[-73.1834547,-9.3820565]]]}},{"type":"Feature","id":"AC-Y451-X149","properties":{"id":"AC-Y451-X149","grid_x":149,"grid_y":451,"region":"oeste","centroid":[-73.1712554,-9.3795024],"aggregation":"none","score_unico_gradboost":0.1382643,"score_unico_random_forest":0.1007485,"score_unico_logistic_regression":0.2474238,"score_unico_fuzzy_knn":0.1452009,"score_unico_xgboost":0.0417775,"score_regional_gradboost":0.0280462,"score_regional_random_forest":0.1057913,"score_regional_logistic_regression":0.3126928,"score_regional_fuzzy_knn":0.1824716,"score_regional_xgboost":0.066796},"geometry":{"type":"Polygon","coordinates":[[[-73.1753434,-9.3821524],[-73.167232,-9.3822482],[-73.1671675,-9.3768523],[-73.1752787,-9.3767566],[-73.1753434,-9.3821524]]]}},{"type":"Feature","id":"AC-Y451-X150","properties":{"id":"AC-Y451-X150","grid_x":150,"grid_y":451,"region":"oeste","centroid":[-73.163144,-9.3795981],"aggregation":"none","score_unico_gradboost":0.086553,"score_unico_random_forest":0.1137748,"score_unico_logistic_regression":0.2139917,"score_unico_fuzzy_knn":0.1200424,"score_unico_xgboost":0.0374084,"score_regional_gradboost":0.0353749,"score_regional_random_forest":0.106723,"score_regional_logistic_regression":0.2677815,"score_regional_fuzzy_knn":0.1683031,"score_regional_xgboost":0.0665915},"geometry":{"type":"Polygon","coordinates":[[[-73.167232,-9.3822482],[-73.1591205,-9.3823438],[-73.1590561,-9.3769478],[-73.1671675,-9.3768523],[-73.167232,-9.3822482]]]}},{"type":"Feature","id":"AC-Y451-X151","properties":{"id":"AC-Y451-X151","grid_x":151,"grid_y":451,"region":"oeste","centroid":[-73.1550326,-9.3796935],"aggregation":"none","score_unico_gradboost":0.1355176,"score_unico_random_forest":0.098562,"score_unico_logistic_regression":0.2721356,"score_unico_fuzzy_knn":0.1868653,"score_unico_xgboost":0.0482108,"score_regional_gradboost":0.0401871,"score_regional_random_forest":0.2075609,"score_regional_logistic_regression":0.3525685,"score_regional_fuzzy_knn":0.2534464,"score_regional_xgboost":0.1252427},"geometry":{"type":"Polygon","coordinates":[[[-73.1591205,-9.3823438],[-73.151009,-9.3824392],[-73.1509447,-9.3770432],[-73.1590561,-9.3769478],[-73.1591205,-9.3823438]]]}},{"type":"Feature","id":"AC-Y452-X147","properties":{"id":"AC-Y452-X147","grid_x":147,"grid_y":452,"region":"oeste","centroid":[-73.1874131,-9.3739148],"aggregation":"none","score_unico_gradboost":0.1401794,"score_unico_random_forest":0.110464,"score_unico_logistic_regression":0.2381722,"score_unico_fuzzy_knn":0.1253492,"score_unico_xgboost":0.0493635,"score_regional_gradboost":0.020308,"score_regional_random_forest":0.087092,"score_regional_logistic_regression":0.2924019,"score_regional_fuzzy_knn":0.1607785,"score_regional_xgboost":0.0514113},"geometry":{"type":"Polygon","coordinates":[[[-73.191501,-9.3765646],[-73.1833899,-9.3766607],[-73.1833252,-9.3712649],[-73.1914362,-9.3711689],[-73.191501,-9.3765646]]]}},{"type":"Feature","id":"AC-Y452-X148","properties":{"id":"AC-Y452-X148","grid_x":148,"grid_y":452,"region":"oeste","centroid":[-73.179302,-9.3740108],"aggregation":"none","score_unico_gradboost":0.1401794,"score_unico_random_forest":0.1092416,"score_unico_logistic_regression":0.2474321,"score_unico_fuzzy_knn":0.1542261,"score_unico_xgboost":0.0484082,"score_regional_gradboost":0.020308,"score_regional_random_forest":0.0828348,"score_regional_logistic_regression":0.3062706,"score_regional_fuzzy_knn":0.1830135,"score_regional_xgboost":0.0514113},"geometry":{"type":"Polygon","coordinates":[[[-73.1833899,-9.3766607],[-73.1752787,-9.3767566],[-73.1752141,-9.3713607],[-73.1833252,-9.3712649],[-73.1833899,-9.3766607]]]}},{"type":"Feature","id":"AC-Y452-X149","properties":{"id":"AC-Y452-X149","grid_x":149,"grid_y":452,"region":"oeste","centroid":[-73.1711908,-9.3741065],"aggregation":"none","score_unico_gradboost":0.0825423,"score_unico_random_forest":0.1123287,"score_unico_logistic_regression":0.2649714,"score_unico_fuzzy_knn":0.1703324,"score_unico_xgboost":0.0552004,"score_regional_gradboost":0.0205858,"score_regional_random_forest":0.083125,"score_regional_logistic_regression":0.3291102,"score_regional_fuzzy_knn":0.2139311,"score_regional_xgboost":0.0514113},"geometry":{"type":"Polygon","coordinates":[[[-73.1752787,-9.3767566],[-73.1671675,-9.3768523],[-73.167103,-9.3714564],[-73.1752141,-9.3713607],[-73.1752787,-9.3767566]]]}},{"type":"Feature","id":"AC-Y452-X150","properties":{"id":"AC-Y452-X150","grid_x":150,"grid_y":452,"region":"oeste","centroid":[-73.1630796,-9.3742021],"aggregation":"none","score_unico_gradboost":0.1210071,"score_unico_random_forest":0.1083275,"score_unico_logistic_regression":0.2615213,"score_unico_fuzzy_knn":0.1703682,"score_unico_xgboost":0.0547176,"score_regional_gradboost":0.0237098,"score_regional_random_forest":0.0828523,"score_regional_logistic_regression":0.3258904,"score_regional_fuzzy_knn":0.2196581,"score_regional_xgboost":0.0514113},"geometry":{"type":"Polygon","coordinates":[[[-73.1671675,-9.3768523],[-73.1590561,-9.3769478],[-73.1589918,-9.3715519],[-73.167103,-9.3714564],[-73.1671675,-9.3768523]]]}},{"type":"Feature","id":"AC-Y452-X151","properties":{"id":"AC-Y452-X151","grid_x":151,"grid_y":452,"region":"oeste","centroid":[-73.1549683,-9.3742975],"aggregation":"none","score_unico_gradboost":0.1676933,"score_unico_random_forest":0.1032242,"score_unico_logistic_regression":0.25433,"score_unico_fuzzy_knn":0.1671834,"score_unico_xgboost":0.0510129,"score_regional_gradboost":0.0310001,"score_regional_random_forest":0.1768342,"score_regional_logistic_regression":0.3261216,"score_regional_fuzzy_knn":0.195228,"score_regional_xgboost":0.0922937},"geometry":{"type":"Polygon","coordinates":[[[-73.1590561,-9.3769478],[-73.1509447,-9.3770432],[-73.1508805,-9.3716472],[-73.1589918,-9.3715519],[-73.1590561,-9.3769478]]]}},{"type":"Feature","id":"AC-Y453-X147","properties":{"id":"AC-Y453-X147","grid_x":147,"grid_y":453,"region":"oeste","centroid":[-73.1873483,-9.368519],"aggregation":"none","score_unico_gradboost":0.0992126,"score_unico_random_forest":0.1331087,"score_unico_logistic_regression":0.2197574,"score_unico_fuzzy_knn":0.0964825,"score_unico_xgboost":0.0427484,"score_regional_gradboost":0.0282546,"score_regional_random_forest":0.099408,"score_regional_logistic_regression":0.2651625,"score_regional_fuzzy_knn":0.1400023,"score_regional_xgboost":0.0581621},"geometry":{"type":"Polygon","coordinates":[[[-73.1914362,-9.3711689],[-73.1833252,-9.3712649],[-73.1832605,-9.3658691],[-73.1913714,-9.3657731],[-73.1914362,-9.3711689]]]}},{"type":"Feature","id":"AC-Y453-X148","properties":{"id":"AC-Y453-X148","grid_x":148,"grid_y":453,"region":"oeste","centroid":[-73.1792374,-9.3686149],"aggregation":"none","score_unico_gradboost":0.1511265,"score_unico_random_forest":0.1310251,"score_unico_logistic_regression":0.2443506,"score_unico_fuzzy_knn":0.1304112,"score_unico_xgboost":0.0655452,"score_regional_gradboost":0.020308,"score_regional_random_forest":0.090764,"score_regional_logistic_regression":0.2977942,"score_regional_fuzzy_knn":0.1638271,"score_regional_xgboost":0.0514113},"geometry":{"type":"Polygon","coordinates":[[[-73.1833252,-9.3712649],[-73.1752141,-9.3713607],[-73.1751496,-9.3659649],[-73.1832605,-9.3658691],[-73.1833252,-9.3712649]]]}},{"type":"Feature","id":"AC-Y453-X149","properties":{"id":"AC-Y453-X149","grid_x":149,"grid_y":453,"region":"oeste","centroid":[-73.1711263,-9.3687107],"aggregation":"none","score_unico_gradboost":0.1511265,"score_unico_random_forest":0.1372038,"score_unico_logistic_regression":0.2328395,"score_unico_fuzzy_knn":0.1269534,"score_unico_xgboost":0.053819,"score_regional_gradboost":0.020308,"score_regional_random_forest":0.0942024,"score_regional_logistic_regression":0.2835174,"score_regional_fuzzy_knn":0.1592277,"score_regional_xgboost":0.0514113},"geometry":{"type":"Polygon","coordinates":[[[-73.1752141,-9.3713607],[-73.167103,-9.3714564],[-73.1670386,-9.3660605],[-73.1751496,-9.3659649],[-73.1752141,-9.3713607]]]}},{"type":"Feature","id":"AC-Y453-X150","properties":{"id":"AC-Y453-X150","grid_x":150,"grid_y":453,"region":"oeste","centroid":[-73.1630152,-9.3688062],"aggregation":"none","score_unico_gradboost":0.0906233,"score_unico_random_forest":0.1211863,"score_unico_logistic_regression":0.2287561,"score_unico_fuzzy_knn":0.1429696,"score_unico_xgboost":0.0471697,"score_regional_gradboost":0.0228567,"score_regional_random_forest":0.0975636,"score_regional_logistic_regression":0.2826816,"score_regional_fuzzy_knn":0.1766839,"score_regional_xgboost":0.0514113},"geometry":{"type":"Polygon","coordinates":[[[-73.167103,-9.3714564],[-73.1589918,-9.3715519],[-73.1589275,-9.3661559],[-73.1670386,-9.3660605],[-73.167103,-9.3714564]]]}},{"type":"Feature","id":"AC-Y453-X151","properties":{"id":"AC-Y453-X151","grid_x":151,"grid_y":453,"region":"oeste","centroid":[-73.154904,-9.3689016],"aggregation":"none","score_unico_gradboost":0.1246583,"score_unico_random_forest":0.1112067,"score_unico_logistic_regression":0.2627096,"score_unico_fuzzy_knn":0.1962614,"score_unico_xgboost":0.0577791,"score_regional_gradboost":0.0310001,"score_regional_random_forest":0.1758582,"score_regional_logistic_regression":0.3351185,"score_regional_fuzzy_knn":0.2105254,"score_regional_xgboost":0.0922937},"geometry":{"type":"Polygon","coordinates":[[[-73.1589918,-9.3715519],[-73.1508805,-9.3716472],[-73.1508163,-9.3662512],[-73.1589275,-9.3661559],[-73.1589918,-9.3715519]]]}},{"type":"Feature","id":"AC-Y454-X147","properties":{"id":"AC-Y454-X147","grid_x":147,"grid_y":454,"region":"oeste","centroid":[-73.1872836,-9.3631233],"aggregation":"none","score_unico_gradboost":0.0994101,"score_unico_random_forest":0.1311873,"score_unico_logistic_regression":0.217232,"score_unico_fuzzy_knn":0.0956107,"score_unico_xgboost":0.047993,"score_regional_gradboost":0.0254056,"score_regional_random_forest":0.0959647,"score_regional_logistic_regression":0.2587943,"score_regional_fuzzy_knn":0.1395058,"score_regional_xgboost":0.0512835},"geometry":{"type":"Polygon","coordinates":[[[-73.1913714,-9.3657731],[-73.1832605,-9.3658691],[-73.1831959,-9.3604733],[-73.1913066,-9.3603774],[-73.1913714,-9.3657731]]]}},{"type":"Feature","id":"AC-Y454-X148","properties":{"id":"AC-Y454-X148","grid_x":148,"grid_y":454,"region":"oeste","centroid":[-73.1791728,-9.3632191],"aggregation":"none","score_unico_gradboost":0.1008522,"score_unico_random_forest":0.1341493,"score_unico_logistic_regression":0.2068584,"score_unico_fuzzy_knn":0.0934988,"score_unico_xgboost":0.050184,"score_regional_gradboost":0.0254056,"score_regional_random_forest":0.0935462,"score_regional_logistic_regression":0.2466303,"score_regional_fuzzy_knn":0.1394766,"score_regional_xgboost":0.0512835},"geometry":{"type":"Polygon","coordinates":[[[-73.1832605,-9.3658691],[-73.1751496,-9.3659649],[-73.175085,-9.3605691],[-73.1831959,-9.3604733],[-73.1832605,-9.3658691]]]}},{"type":"Feature","id":"AC-Y454-X149","properties":{"id":"AC-Y454-X149","grid_x":149,"grid_y":454,"region":"oeste","centroid":[-73.1710618,-9.3633148],"aggregation":"none","score_unico_gradboost":0.0992126,"score_unico_random_forest":0.1374942,"score_unico_logistic_regression":0.2207116,"score_unico_fuzzy_knn":0.1073438,"score_unico_xgboost":0.0508476,"score_regional_gradboost":0.0277173,"score_regional_random_forest":0.100032,"score_regional_logistic_regression":0.2653813,"score_regional_fuzzy_knn":0.1401733,"score_regional_xgboost":0.0581621},"geometry":{"type":"Polygon","coordinates":[[[-73.1751496,-9.3659649],[-73.1670386,-9.3660605],[-73.1669742,-9.3606646],[-73.175085,-9.3605691],[-73.1751496,-9.3659649]]]}},{"type":"Feature","id":"AC-Y454-X150","properties":{"id":"AC-Y454-X150","grid_x":150,"grid_y":454,"region":"oeste","centroid":[-73.1629508,-9.3634103],"aggregation":"none","score_unico_gradboost":0.0910381,"score_unico_random_forest":0.1232996,"score_unico_logistic_regression":0.2209153,"score_unico_fuzzy_knn":0.1168042,"score_unico_xgboost":0.0474116,"score_regional_gradboost":0.0287314,"score_regional_random_forest":0.102478,"score_regional_logistic_regression":0.2709641,"score_regional_fuzzy_knn":0.1844163,"score_regional_xgboost":0.0581621},"geometry":{"type":"Polygon","coordinates":[[[-73.1670386,-9.3660605],[-73.1589275,-9.3661559],[-73.1588632,-9.36076],[-73.1669742,-9.3606646],[-73.1670386,-9.3660605]]]}},{"type":"Feature","id":"AC-Y454-X151","properties":{"id":"AC-Y454-X151","grid_x":151,"grid_y":454,"region":"oeste","centroid":[-73.1548398,-9.3635056],"aggregation":"none","score_unico_gradboost":0.1488576,"score_unico_random_forest":0.1010802,"score_unico_logistic_regression":0.2536034,"score_unico_fuzzy_knn":0.1872312,"score_unico_xgboost":0.0473958,"score_regional_gradboost":0.0275126,"score_regional_random_forest":0.1044992,"score_regional_logistic_regression":0.3199876,"score_regional_fuzzy_knn":0.1953717,"score_regional_xgboost":0.066796},"geometry":{"type":"Polygon","coordinates":[[[-73.1589275,-9.3661559],[-73.1508163,-9.3662512],[-73.1507521,-9.3608552],[-73.1588632,-9.36076],[-73.1589275,-9.3661559]]]}},{"type":"Feature","id":"AC-Y455-X149","properties":{"id":"AC-Y455-X149","grid_x":149,"grid_y":455,"region":"oeste","centroid":[-73.1709974,-9.3579189],"aggregation":"none","score_unico_gradboost":0.0994101,"score_unico_random_forest":0.1398397,"score_unico_logistic_regression":0.2283709,"score_unico_fuzzy_knn":0.1186426,"score_unico_xgboost":0.0493345,"score_regional_gradboost":0.0184491,"score_regional_random_forest":0.0904938,"score_regional_logistic_regression":0.2736359,"score_regional_fuzzy_knn":0.1406014,"score_regional_xgboost":0.0452926},"geometry":{"type":"Polygon","coordinates":[[[-73.175085,-9.3605691],[-73.1669742,-9.3606646],[-73.1669098,-9.3552687],[-73.1750206,-9.3551732],[-73.175085,-9.3605691]]]}},{"type":"Feature","id":"AC-Y455-X150","properties":{"id":"AC-Y455-X150","grid_x":150,"grid_y":455,"region":"oeste","centroid":[-73.1628865,-9.3580144],"aggregation":"none","score_unico_gradboost":0.1401794,"score_unico_random_forest":0.114716,"score_unico_logistic_regression":0.2423029,"score_unico_fuzzy_knn":0.150644,"score_unico_xgboost":0.062334,"score_regional_gradboost":0.0199186,"score_regional_random_forest":0.0879296,"score_regional_logistic_regression":0.2960009,"score_regional_fuzzy_knn":0.1544765,"score_regional_xgboost":0.0514113},"geometry":{"type":"Polygon","coordinates":[[[-73.1669742,-9.3606646],[-73.1588632,-9.36076],[-73.1587989,-9.355364],[-73.1669098,-9.3552687],[-73.1669742,-9.3606646]]]}},{"type":"Feature","id":"AC-Y455-X151","properties":{"id":"AC-Y455-X151","grid_x":151,"grid_y":455,"region":"oeste","centroid":[-73.1547756,-9.3581096],"aggregation":"none","score_unico_gradboost":0.0915332,"score_unico_random_forest":0.1212402,"score_unico_logistic_regression":0.215123,"score_unico_fuzzy_knn":0.141666,"score_unico_xgboost":0.0452283,"score_regional_gradboost":0.0330499,"score_regional_random_forest":0.0984068,"score_regional_logistic_regression":0.2665022,"score_regional_fuzzy_knn":0.1768247,"score_regional_xgboost":0.0600067},"geometry":{"type":"Polygon","coordinates":[[[-73.1588632,-9.36076],[-73.1507521,-9.3608552],[-73.150688,-9.3554592],[-73.1587989,-9.355364],[-73.1588632,-9.36076]]]}},{"type":"Feature","id":"AC-Y456-X151","properties":{"id":"AC-Y456-X151","grid_x":151,"grid_y":456,"region":"oeste","centroid":[-73.1547114,-9.3527136],"aggregation":"none","score_unico_gradboost":0.1247333,"score_unico_random_forest":0.1191183,"score_unico_logistic_regression":0.2626162,"score_unico_fuzzy_knn":0.1949627,"score_unico_xgboost":0.0512341,"score_regional_gradboost":0.0201913,"score_regional_random_forest":0.0842204,"score_regional_logistic_regression":0.3235029,"score_regional_fuzzy_knn":0.203206,"score_regional_xgboost":0.0514113},"geometry":{"type":"Polygon","coordinates":[[[-73.1587989,-9.355364],[-73.150688,-9.3554592],[-73.1506239,-9.3500631],[-73.1587347,-9.3499681],[-73.1587989,-9.355364]]]}},{"type":"Feature","id":"AC-Y457-X151","properties":{"id":"AC-Y457-X151","grid_x":151,"grid_y":457,"region":"oeste","centroid":[-73.1546473,-9.3473176],"aggregation":"none","score_unico_gradboost":0.063444,"score_unico_random_forest":0.1046708,"score_unico_logistic_regression":0.2450173,"score_unico_fuzzy_knn":0.1541051,"score_unico_xgboost":0.036528,"score_regional_gradboost":0.0313387,"score_regional_random_forest":0.0901984,"score_regional_logistic_regression":0.3060906,"score_regional_fuzzy_knn":0.1782191,"score_regional_xgboost":0.0568554},"geometry":{"type":"Polygon","coordinates":[[[-73.1587347,-9.3499681],[-73.1506239,-9.3500631],[-73.1505599,-9.3446671],[-73.1586706,-9.3445721],[-73.1587347,-9.3499681]]]}}]}