{"type":"FeatureCollection","features":[{"type":"Feature","id":"AC-Y595-X642","properties":{"id":"AC-Y595-X642","grid_x":642,"grid_y":595,"region":"leste","centroid":[-69.1648554,-8.6249984],"aggregation":"none","score_unico_gradboost":0.4172724,"score_unico_random_forest":0.4050113,"score_unico_logistic_regression":0.5450001,"score_unico_fuzzy_knn":0.5981495,"score_unico_xgboost":0.2113765,"score_regional_gradboost":0.2884095,"score_regional_random_forest":0.341948,"score_regional_logistic_regression":0.4988092,"score_regional_fuzzy_knn":0.6739887,"score_regional_xgboost":0.1274531},"geometry":{"type":"Polygon","coordinates":[[[-69.1689147,-8.6277019],[-69.1607985,-8.6277054],[-69.1607962,-8.6222949],[-69.1689123,-8.6222914],[-69.1689147,-8.6277019]]]}},{"type":"Feature","id":"AC-Y595-X643","properties":{"id":"AC-Y595-X643","grid_x":643,"grid_y":595,"region":"leste","centroid":[-69.1567393,-8.6250018],"aggregation":"none","score_unico_gradboost":0.4377181,"score_unico_random_forest":0.3766904,"score_unico_logistic_regression":0.5547416,"score_unico_fuzzy_knn":0.6226273,"score_unico_xgboost":0.2493399,"score_regional_gradboost":0.3520983,"score_regional_random_forest":0.3363611,"score_regional_logistic_regression":0.502583,"score_regional_fuzzy_knn":0.6565332,"score_regional_xgboost":0.1040429},"geometry":{"type":"Polygon","coordinates":[[[-69.1607985,-8.6277054],[-69.1526823,-8.6277087],[-69.1526801,-8.6222982],[-69.1607962,-8.6222949],[-69.1607985,-8.6277054]]]}},{"type":"Feature","id":"AC-Y595-X644","properties":{"id":"AC-Y595-X644","grid_x":644,"grid_y":595,"region":"leste","centroid":[-69.1486231,-8.6250051],"aggregation":"none","score_unico_gradboost":0.4944683,"score_unico_random_forest":0.3855619,"score_unico_logistic_regression":0.5722037,"score_unico_fuzzy_knn":0.6348412,"score_unico_xgboost":0.2769868,"score_regional_gradboost":0.3523699,"score_regional_random_forest":0.371865,"score_regional_logistic_regression":0.514424,"score_regional_fuzzy_knn":0.6616683,"score_regional_xgboost":0.1053026},"geometry":{"type":"Polygon","coordinates":[[[-69.1526823,-8.6277087],[-69.1445661,-8.6277119],[-69.144564,-8.6223014],[-69.1526801,-8.6222982],[-69.1526823,-8.6277087]]]}},{"type":"Feature","id":"AC-Y596-X642","properties":{"id":"AC-Y596-X642","grid_x":642,"grid_y":596,"region":"leste","centroid":[-69.1648531,-8.619588],"aggregation":"none","score_unico_gradboost":0.4107745,"score_unico_random_forest":0.3915246,"score_unico_logistic_regression":0.5283154,"score_unico_fuzzy_knn":0.5698041,"score_unico_xgboost":0.1968357,"score_regional_gradboost":0.2931004,"score_regional_random_forest":0.3452695,"score_regional_logistic_regression":0.4821212,"score_regional_fuzzy_knn":0.6426104,"score_regional_xgboost":0.1150096},"geometry":{"type":"Polygon","coordinates":[[[-69.1689123,-8.6222914],[-69.1607962,-8.6222949],[-69.1607939,-8.6168844],[-69.1689099,-8.616881],[-69.1689123,-8.6222914]]]}},{"type":"Feature","id":"AC-Y596-X643","properties":{"id":"AC-Y596-X643","grid_x":643,"grid_y":596,"region":"leste","centroid":[-69.156737,-8.6195914],"aggregation":"none","score_unico_gradboost":0.4101421,"score_unico_random_forest":0.3718371,"score_unico_logistic_regression":0.5491284,"score_unico_fuzzy_knn":0.5874234,"score_unico_xgboost":0.2247883,"score_regional_gradboost":0.3299537,"score_regional_random_forest":0.3342187,"score_regional_logistic_regression":0.4964685,"score_regional_fuzzy_knn":0.6224191,"score_regional_xgboost":0.0929326},"geometry":{"type":"Polygon","coordinates":[[[-69.1607962,-8.6222949],[-69.1526801,-8.6222982],[-69.1526779,-8.6168878],[-69.1607939,-8.6168844],[-69.1607962,-8.6222949]]]}},{"type":"Feature","id":"AC-Y597-X642","properties":{"id":"AC-Y597-X642","grid_x":642,"grid_y":597,"region":"leste","centroid":[-69.1648507,-8.6141775],"aggregation":"none","score_unico_gradboost":0.4270103,"score_unico_random_forest":0.3850647,"score_unico_logistic_regression":0.5283141,"score_unico_fuzzy_knn":0.5907832,"score_unico_xgboost":0.2131649,"score_regional_gradboost":0.3120405,"score_regional_random_forest":0.3481506,"score_regional_logistic_regression":0.4808796,"score_regional_fuzzy_knn":0.6432618,"score_regional_xgboost":0.1126074},"geometry":{"type":"Polygon","coordinates":[[[-69.1689099,-8.616881],[-69.1607939,-8.6168844],[-69.1607916,-8.611474],[-69.1689075,-8.6114705],[-69.1689099,-8.616881]]]}},{"type":"Feature","id":"AC-Y597-X643","properties":{"id":"AC-Y597-X643","grid_x":643,"grid_y":597,"region":"leste","centroid":[-69.1567348,-8.6141809],"aggregation":"none","score_unico_gradboost":0.4039567,"score_unico_random_forest":0.3673501,"score_unico_logistic_regression":0.5464113,"score_unico_fuzzy_knn":0.5833283,"score_unico_xgboost":0.2329108,"score_regional_gradboost":0.3234762,"score_regional_random_forest":0.3522235,"score_regional_logistic_regression":0.49287,"score_regional_fuzzy_knn":0.6074863,"score_regional_xgboost":0.1003643},"geometry":{"type":"Polygon","coordinates":[[[-69.1607939,-8.6168844],[-69.1526779,-8.6168878],[-69.1526758,-8.6114773],[-69.1607916,-8.611474],[-69.1607939,-8.6168844]]]}},{"type":"Feature","id":"AC-Y598-X642","properties":{"id":"AC-Y598-X642","grid_x":642,"grid_y":598,"region":"leste","centroid":[-69.1648484,-8.608767],"aggregation":"none","score_unico_gradboost":0.4255042,"score_unico_random_forest":0.3842614,"score_unico_logistic_regression":0.5256768,"score_unico_fuzzy_knn":0.6224191,"score_unico_xgboost":0.2304338,"score_regional_gradboost":0.3396019,"score_regional_random_forest":0.3443186,"score_regional_logistic_regression":0.4770186,"score_regional_fuzzy_knn":0.6158294,"score_regional_xgboost":0.123959},"geometry":{"type":"Polygon","coordinates":[[[-69.1689075,-8.6114705],[-69.1607916,-8.611474],[-69.1607893,-8.6060635],[-69.1689051,-8.60606],[-69.1689075,-8.6114705]]]}},{"type":"Feature","id":"AC-Y595-X634","properties":{"id":"AC-Y595-X634","grid_x":634,"grid_y":595,"region":"leste","centroid":[-69.2297844,-8.6249651],"aggregation":"none","score_unico_gradboost":0.5123062,"score_unico_random_forest":0.4881133,"score_unico_logistic_regression":0.5170147,"score_unico_fuzzy_knn":0.665233,"score_unico_xgboost":0.2625518,"score_regional_gradboost":0.3730398,"score_regional_random_forest":0.3932371,"score_regional_logistic_regression":0.5042035,"score_regional_fuzzy_knn":0.6949055,"score_regional_xgboost":0.2050867},"geometry":{"type":"Polygon","coordinates":[[[-69.2338441,-8.6276679],[-69.2257279,-8.6276727],[-69.2257247,-8.6222623],[-69.2338408,-8.6222574],[-69.2338441,-8.6276679]]]}},{"type":"Feature","id":"AC-Y595-X635","properties":{"id":"AC-Y595-X635","grid_x":635,"grid_y":595,"region":"leste","centroid":[-69.2216683,-8.6249698],"aggregation":"none","score_unico_gradboost":0.5063302,"score_unico_random_forest":0.4776943,"score_unico_logistic_regression":0.5336643,"score_unico_fuzzy_knn":0.6168564,"score_unico_xgboost":0.2841669,"score_regional_gradboost":0.3504266,"score_regional_random_forest":0.4055981,"score_regional_logistic_regression":0.5167404,"score_regional_fuzzy_knn":0.6926138,"score_regional_xgboost":0.1821972},"geometry":{"type":"Polygon","coordinates":[[[-69.2257279,-8.6276727],[-69.2176118,-8.6276774],[-69.2176087,-8.6222669],[-69.2257247,-8.6222623],[-69.2257279,-8.6276727]]]}},{"type":"Feature","id":"AC-Y595-X636","properties":{"id":"AC-Y595-X636","grid_x":636,"grid_y":595,"region":"leste","centroid":[-69.2135522,-8.6249744],"aggregation":"none","score_unico_gradboost":0.5472078,"score_unico_random_forest":0.4199055,"score_unico_logistic_regression":0.5664238,"score_unico_fuzzy_knn":0.598951,"score_unico_xgboost":0.278465,"score_regional_gradboost":0.3406457,"score_regional_random_forest":0.391509,"score_regional_logistic_regression":0.5441463,"score_regional_fuzzy_knn":0.672644,"score_regional_xgboost":0.1542422},"geometry":{"type":"Polygon","coordinates":[[[-69.2176118,-8.6276774],[-69.2094956,-8.6276819],[-69.2094926,-8.6222714],[-69.2176087,-8.6222669],[-69.2176118,-8.6276774]]]}},{"type":"Feature","id":"AC-Y595-X637","properties":{"id":"AC-Y595-X637","grid_x":637,"grid_y":595,"region":"leste","centroid":[-69.205436,-8.6249789],"aggregation":"none","score_unico_gradboost":0.4927184,"score_unico_random_forest":0.467917,"score_unico_logistic_regression":0.5360576,"score_unico_fuzzy_knn":0.579174,"score_unico_xgboost":0.2490362,"score_regional_gradboost":0.3552234,"score_regional_random_forest":0.3816366,"score_regional_logistic_regression":0.5114899,"score_regional_fuzzy_knn":0.6809903,"score_regional_xgboost":0.166136},"geometry":{"type":"Polygon","coordinates":[[[-69.2094956,-8.6276819],[-69.2013794,-8.6276863],[-69.2013765,-8.6222758],[-69.2094926,-8.6222714],[-69.2094956,-8.6276819]]]}},{"type":"Feature","id":"AC-Y595-X638","properties":{"id":"AC-Y595-X638","grid_x":638,"grid_y":595,"region":"leste","centroid":[-69.1973199,-8.6249831],"aggregation":"none","score_unico_gradboost":0.4907866,"score_unico_random_forest":0.4444639,"score_unico_logistic_regression":0.5465158,"score_unico_fuzzy_knn":0.5667102,"score_unico_xgboost":0.2500889,"score_regional_gradboost":0.3143346,"score_regional_random_forest":0.3710232,"score_regional_logistic_regression":0.5173633,"score_regional_fuzzy_knn":0.6506359,"score_regional_xgboost":0.1707891},"geometry":{"type":"Polygon","coordinates":[[[-69.2013794,-8.6276863],[-69.1932632,-8.6276904],[-69.1932605,-8.62228],[-69.2013765,-8.6222758],[-69.2013794,-8.6276863]]]}},{"type":"Feature","id":"AC-Y595-X639","properties":{"id":"AC-Y595-X639","grid_x":639,"grid_y":595,"region":"leste","centroid":[-69.1892038,-8.6249872],"aggregation":"none","score_unico_gradboost":0.5627911,"score_unico_random_forest":0.4229968,"score_unico_logistic_regression":0.581046,"score_unico_fuzzy_knn":0.6433712,"score_unico_xgboost":0.2843578,"score_regional_gradboost":0.3593022,"score_regional_random_forest":0.3853662,"score_regional_logistic_regression":0.5463129,"score_regional_fuzzy_knn":0.6592661,"score_regional_xgboost":0.1265379},"geometry":{"type":"Polygon","coordinates":[[[-69.1932632,-8.6276904],[-69.185147,-8.6276944],[-69.1851444,-8.622284],[-69.1932605,-8.62228],[-69.1932632,-8.6276904]]]}},{"type":"Feature","id":"AC-Y595-X640","properties":{"id":"AC-Y595-X640","grid_x":640,"grid_y":595,"region":"leste","centroid":[-69.1810877,-8.6249911],"aggregation":"none","score_unico_gradboost":0.5721657,"score_unico_random_forest":0.4077976,"score_unico_logistic_regression":0.5746328,"score_unico_fuzzy_knn":0.6224703,"score_unico_xgboost":0.2533525,"score_regional_gradboost":0.3488003,"score_regional_random_forest":0.3705643,"score_regional_logistic_regression":0.5361614,"score_regional_fuzzy_knn":0.6553087,"score_regional_xgboost":0.1128892},"geometry":{"type":"Polygon","coordinates":[[[-69.185147,-8.6276944],[-69.1770309,-8.6276983],[-69.1770283,-8.6222878],[-69.1851444,-8.622284],[-69.185147,-8.6276944]]]}},{"type":"Feature","id":"AC-Y595-X641","properties":{"id":"AC-Y595-X641","grid_x":641,"grid_y":595,"region":"leste","centroid":[-69.1729715,-8.6249949],"aggregation":"none","score_unico_gradboost":0.44972,"score_unico_random_forest":0.4058063,"score_unico_logistic_regression":0.5654388,"score_unico_fuzzy_knn":0.6247361,"score_unico_xgboost":0.2160139,"score_regional_gradboost":0.3472787,"score_regional_random_forest":0.344414,"score_regional_logistic_regression":0.5227425,"score_regional_fuzzy_knn":0.6655483,"score_regional_xgboost":0.1057153},"geometry":{"type":"Polygon","coordinates":[[[-69.1770309,-8.6276983],[-69.1689147,-8.6277019],[-69.1689123,-8.6222914],[-69.1770283,-8.6222878],[-69.1770309,-8.6276983]]]}},{"type":"Feature","id":"AC-Y596-X634","properties":{"id":"AC-Y596-X634","grid_x":634,"grid_y":596,"region":"leste","centroid":[-69.2297811,-8.6195546],"aggregation":"none","score_unico_gradboost":0.6014365,"score_unico_random_forest":0.5529042,"score_unico_logistic_regression":0.5000342,"score_unico_fuzzy_knn":0.6843983,"score_unico_xgboost":0.3910356,"score_regional_gradboost":0.3730398,"score_regional_random_forest":0.4837353,"score_regional_logistic_regression":0.4864069,"score_regional_fuzzy_knn":0.7062257,"score_regional_xgboost":0.2028455},"geometry":{"type":"Polygon","coordinates":[[[-69.2338408,-8.6222574],[-69.2257247,-8.6222623],[-69.2257215,-8.6168518],[-69.2338374,-8.6168469],[-69.2338408,-8.6222574]]]}},{"type":"Feature","id":"AC-Y596-X635","properties":{"id":"AC-Y596-X635","grid_x":635,"grid_y":596,"region":"leste","centroid":[-69.2216651,-8.6195594],"aggregation":"none","score_unico_gradboost":0.5177133,"score_unico_random_forest":0.5000251,"score_unico_logistic_regression":0.5166766,"score_unico_fuzzy_knn":0.6469333,"score_unico_xgboost":0.2737092,"score_regional_gradboost":0.3689511,"score_regional_random_forest":0.3861138,"score_regional_logistic_regression":0.4991228,"score_regional_fuzzy_knn":0.6864979,"score_regional_xgboost":0.1804556},"geometry":{"type":"Polygon","coordinates":[[[-69.2257247,-8.6222623],[-69.2176087,-8.6222669],[-69.2176056,-8.6168565],[-69.2257215,-8.6168518],[-69.2257247,-8.6222623]]]}},{"type":"Feature","id":"AC-Y596-X636","properties":{"id":"AC-Y596-X636","grid_x":636,"grid_y":596,"region":"leste","centroid":[-69.2135491,-8.619564],"aggregation":"none","score_unico_gradboost":0.5123842,"score_unico_random_forest":0.4613749,"score_unico_logistic_regression":0.5441909,"score_unico_fuzzy_knn":0.6147559,"score_unico_xgboost":0.2708879,"score_regional_gradboost":0.3361601,"score_regional_random_forest":0.355302,"score_regional_logistic_regression":0.5213705,"score_regional_fuzzy_knn":0.657316,"score_regional_xgboost":0.1742769},"geometry":{"type":"Polygon","coordinates":[[[-69.2176087,-8.6222669],[-69.2094926,-8.6222714],[-69.2094896,-8.616861],[-69.2176056,-8.6168565],[-69.2176087,-8.6222669]]]}},{"type":"Feature","id":"AC-Y596-X637","properties":{"id":"AC-Y596-X637","grid_x":637,"grid_y":596,"region":"leste","centroid":[-69.2054331,-8.6195684],"aggregation":"none","score_unico_gradboost":0.5123842,"score_unico_random_forest":0.4729356,"score_unico_logistic_regression":0.5466852,"score_unico_fuzzy_knn":0.6003651,"score_unico_xgboost":0.2767308,"score_regional_gradboost":0.3310236,"score_regional_random_forest":0.3442221,"score_regional_logistic_regression":0.519837,"score_regional_fuzzy_knn":0.6460286,"score_regional_xgboost":0.159773},"geometry":{"type":"Polygon","coordinates":[[[-69.2094926,-8.6222714],[-69.2013765,-8.6222758],[-69.2013737,-8.6168653],[-69.2094896,-8.616861],[-69.2094926,-8.6222714]]]}},{"type":"Feature","id":"AC-Y596-X638","properties":{"id":"AC-Y596-X638","grid_x":638,"grid_y":596,"region":"leste","centroid":[-69.1973171,-8.6195727],"aggregation":"none","score_unico_gradboost":0.5929274,"score_unico_random_forest":0.4179621,"score_unico_logistic_regression":0.5842536,"score_unico_fuzzy_knn":0.6290894,"score_unico_xgboost":0.277415,"score_regional_gradboost":0.3559287,"score_regional_random_forest":0.399372,"score_regional_logistic_regression":0.5515654,"score_regional_fuzzy_knn":0.6501419,"score_regional_xgboost":0.1555404},"geometry":{"type":"Polygon","coordinates":[[[-69.2013765,-8.6222758],[-69.1932605,-8.62228],[-69.1932577,-8.6168695],[-69.2013737,-8.6168653],[-69.2013765,-8.6222758]]]}},{"type":"Feature","id":"AC-Y596-X639","properties":{"id":"AC-Y596-X639","grid_x":639,"grid_y":596,"region":"leste","centroid":[-69.1892011,-8.6195767],"aggregation":"none","score_unico_gradboost":0.43635,"score_unico_random_forest":0.4236647,"score_unico_logistic_regression":0.5507488,"score_unico_fuzzy_knn":0.590943,"score_unico_xgboost":0.2243443,"score_regional_gradboost":0.3415417,"score_regional_random_forest":0.3526686,"score_regional_logistic_regression":0.5164548,"score_regional_fuzzy_knn":0.6357176,"score_regional_xgboost":0.1141105},"geometry":{"type":"Polygon","coordinates":[[[-69.1932605,-8.62228],[-69.1851444,-8.622284],[-69.1851418,-8.6168735],[-69.1932577,-8.6168695],[-69.1932605,-8.62228]]]}},{"type":"Feature","id":"AC-Y596-X640","properties":{"id":"AC-Y596-X640","grid_x":640,"grid_y":596,"region":"leste","centroid":[-69.1810851,-8.6195807],"aggregation":"none","score_unico_gradboost":0.4068865,"score_unico_random_forest":0.4309424,"score_unico_logistic_regression":0.53055,"score_unico_fuzzy_knn":0.5869676,"score_unico_xgboost":0.1958399,"score_regional_gradboost":0.3297786,"score_regional_random_forest":0.3576777,"score_regional_logistic_regression":0.4933787,"score_regional_fuzzy_knn":0.6491414,"score_regional_xgboost":0.1163164},"geometry":{"type":"Polygon","coordinates":[[[-69.1851444,-8.622284],[-69.1770283,-8.6222878],[-69.1770258,-8.6168773],[-69.1851418,-8.6168735],[-69.1851444,-8.622284]]]}},{"type":"Feature","id":"AC-Y596-X641","properties":{"id":"AC-Y596-X641","grid_x":641,"grid_y":596,"region":"leste","centroid":[-69.1729691,-8.6195844],"aggregation":"none","score_unico_gradboost":0.4107745,"score_unico_random_forest":0.3909411,"score_unico_logistic_regression":0.5405379,"score_unico_fuzzy_knn":0.5642455,"score_unico_xgboost":0.1954712,"score_regional_gradboost":0.3129808,"score_regional_random_forest":0.3564882,"score_regional_logistic_regression":0.498231,"score_regional_fuzzy_knn":0.6348807,"score_regional_xgboost":0.1311843},"geometry":{"type":"Polygon","coordinates":[[[-69.1770283,-8.6222878],[-69.1689123,-8.6222914],[-69.1689099,-8.616881],[-69.1770258,-8.6168773],[-69.1770283,-8.6222878]]]}},{"type":"Feature","id":"AC-Y597-X634","properties":{"id":"AC-Y597-X634","grid_x":634,"grid_y":597,"region":"leste","centroid":[-69.2297778,-8.6141441],"aggregation":"none","score_unico_gradboost":0.5930313,"score_unico_random_forest":0.5823266,"score_unico_logistic_regression":0.4942692,"score_unico_fuzzy_knn":0.7083986,"score_unico_xgboost":0.4214095,"score_regional_gradboost":0.3689511,"score_regional_random_forest":0.5067322,"score_regional_logistic_regression":0.4789797,"score_regional_fuzzy_knn":0.6991283,"score_regional_xgboost":0.1949747},"geometry":{"type":"Polygon","coordinates":[[[-69.2338374,-8.6168469],[-69.2257215,-8.6168518],[-69.2257183,-8.6114413],[-69.2338341,-8.6114365],[-69.2338374,-8.6168469]]]}},{"type":"Feature","id":"AC-Y597-X635","properties":{"id":"AC-Y597-X635","grid_x":635,"grid_y":597,"region":"leste","centroid":[-69.221662,-8.6141489],"aggregation":"none","score_unico_gradboost":0.5349328,"score_unico_random_forest":0.5037388,"score_unico_logistic_regression":0.5191898,"score_unico_fuzzy_knn":0.6784406,"score_unico_xgboost":0.3180353,"score_regional_gradboost":0.3580575,"score_regional_random_forest":0.3954817,"score_regional_logistic_regression":0.4995893,"score_regional_fuzzy_knn":0.6617704,"score_regional_xgboost":0.1619196},"geometry":{"type":"Polygon","coordinates":[[[-69.2257215,-8.6168518],[-69.2176056,-8.6168565],[-69.2176025,-8.611446],[-69.2257183,-8.6114413],[-69.2257215,-8.6168518]]]}},{"type":"Feature","id":"AC-Y597-X636","properties":{"id":"AC-Y597-X636","grid_x":636,"grid_y":597,"region":"leste","centroid":[-69.2135461,-8.6141535],"aggregation":"none","score_unico_gradboost":0.5292744,"score_unico_random_forest":0.4437304,"score_unico_logistic_regression":0.5384791,"score_unico_fuzzy_knn":0.6288714,"score_unico_xgboost":0.2677283,"score_regional_gradboost":0.3594802,"score_regional_random_forest":0.3672388,"score_regional_logistic_regression":0.5140316,"score_regional_fuzzy_knn":0.6473645,"score_regional_xgboost":0.1708292},"geometry":{"type":"Polygon","coordinates":[[[-69.2176056,-8.6168565],[-69.2094896,-8.616861],[-69.2094867,-8.6114505],[-69.2176025,-8.611446],[-69.2176056,-8.6168565]]]}},{"type":"Feature","id":"AC-Y597-X637","properties":{"id":"AC-Y597-X637","grid_x":637,"grid_y":597,"region":"leste","centroid":[-69.2054302,-8.6141579],"aggregation":"none","score_unico_gradboost":0.4556104,"score_unico_random_forest":0.4118568,"score_unico_logistic_regression":0.565606,"score_unico_fuzzy_knn":0.6200075,"score_unico_xgboost":0.2422545,"score_regional_gradboost":0.3600855,"score_regional_random_forest":0.358999,"score_regional_logistic_regression":0.535895,"score_regional_fuzzy_knn":0.6486368,"score_regional_xgboost":0.1328761},"geometry":{"type":"Polygon","coordinates":[[[-69.2094896,-8.616861],[-69.2013737,-8.6168653],[-69.2013708,-8.6114548],[-69.2094867,-8.6114505],[-69.2094896,-8.616861]]]}},{"type":"Feature","id":"AC-Y597-X638","properties":{"id":"AC-Y597-X638","grid_x":638,"grid_y":597,"region":"leste","centroid":[-69.1973143,-8.6141622],"aggregation":"none","score_unico_gradboost":0.4304328,"score_unico_random_forest":0.4140172,"score_unico_logistic_regression":0.5459071,"score_unico_fuzzy_knn":0.6226312,"score_unico_xgboost":0.2252067,"score_regional_gradboost":0.3374831,"score_regional_random_forest":0.3329689,"score_regional_logistic_regression":0.5138016,"score_regional_fuzzy_knn":0.6354818,"score_regional_xgboost":0.1421384},"geometry":{"type":"Polygon","coordinates":[[[-69.2013737,-8.6168653],[-69.1932577,-8.6168695],[-69.193255,-8.611459],[-69.2013708,-8.6114548],[-69.2013737,-8.6168653]]]}},{"type":"Feature","id":"AC-Y597-X639","properties":{"id":"AC-Y597-X639","grid_x":639,"grid_y":597,"region":"leste","centroid":[-69.1891984,-8.6141663],"aggregation":"none","score_unico_gradboost":0.4370556,"score_unico_random_forest":0.4020185,"score_unico_logistic_regression":0.5642323,"score_unico_fuzzy_knn":0.6096761,"score_unico_xgboost":0.2163218,"score_regional_gradboost":0.3262168,"score_regional_random_forest":0.3511046,"score_regional_logistic_regression":0.5277319,"score_regional_fuzzy_knn":0.6407316,"score_regional_xgboost":0.1118474},"geometry":{"type":"Polygon","coordinates":[[[-69.1932577,-8.6168695],[-69.1851418,-8.6168735],[-69.1851392,-8.611463],[-69.193255,-8.611459],[-69.1932577,-8.6168695]]]}},{"type":"Feature","id":"AC-Y597-X640","properties":{"id":"AC-Y597-X640","grid_x":640,"grid_y":597,"region":"leste","centroid":[-69.1810825,-8.6141702],"aggregation":"none","score_unico_gradboost":0.4260947,"score_unico_random_forest":0.4150035,"score_unico_logistic_regression":0.5276742,"score_unico_fuzzy_knn":0.5993826,"score_unico_xgboost":0.2084899,"score_regional_gradboost":0.3214991,"score_regional_random_forest":0.3487592,"score_regional_logistic_regression":0.4892456,"score_regional_fuzzy_knn":0.6695564,"score_regional_xgboost":0.1250128},"geometry":{"type":"Polygon","coordinates":[[[-69.1851418,-8.6168735],[-69.1770258,-8.6168773],[-69.1770233,-8.6114668],[-69.1851392,-8.611463],[-69.1851418,-8.6168735]]]}},{"type":"Feature","id":"AC-Y597-X641","properties":{"id":"AC-Y597-X641","grid_x":641,"grid_y":597,"region":"leste","centroid":[-69.1729666,-8.6141739],"aggregation":"none","score_unico_gradboost":0.4223974,"score_unico_random_forest":0.3903411,"score_unico_logistic_regression":0.5294219,"score_unico_fuzzy_knn":0.6019591,"score_unico_xgboost":0.202046,"score_regional_gradboost":0.314127,"score_regional_random_forest":0.3504123,"score_regional_logistic_regression":0.4865695,"score_regional_fuzzy_knn":0.664082,"score_regional_xgboost":0.1121885},"geometry":{"type":"Polygon","coordinates":[[[-69.1770258,-8.6168773],[-69.1689099,-8.616881],[-69.1689075,-8.6114705],[-69.1770233,-8.6114668],[-69.1770258,-8.6168773]]]}},{"type":"Feature","id":"AC-Y598-X634","properties":{"id":"AC-Y598-X634","grid_x":634,"grid_y":598,"region":"leste","centroid":[-69.2297746,-8.6087337],"aggregation":"none","score_unico_gradboost":0.485383,"score_unico_random_forest":0.4872713,"score_unico_logistic_regression":0.5191062,"score_unico_fuzzy_knn":0.6464823,"score_unico_xgboost":0.2903724,"score_regional_gradboost":0.3421816,"score_regional_random_forest":0.4220513,"score_regional_logistic_regression":0.4999651,"score_regional_fuzzy_knn":0.64374,"score_regional_xgboost":0.1657711},"geometry":{"type":"Polygon","coordinates":[[[-69.2338341,-8.6114365],[-69.2257183,-8.6114413],[-69.2257151,-8.6060309],[-69.2338308,-8.606026],[-69.2338341,-8.6114365]]]}},{"type":"Feature","id":"AC-Y598-X635","properties":{"id":"AC-Y598-X635","grid_x":635,"grid_y":598,"region":"leste","centroid":[-69.2216588,-8.6087384],"aggregation":"none","score_unico_gradboost":0.4797079,"score_unico_random_forest":0.4561674,"score_unico_logistic_regression":0.5411924,"score_unico_fuzzy_knn":0.6186116,"score_unico_xgboost":0.2679577,"score_regional_gradboost":0.338449,"score_regional_random_forest":0.3976235,"score_regional_logistic_regression":0.5180081,"score_regional_fuzzy_knn":0.5957425,"score_regional_xgboost":0.1618901},"geometry":{"type":"Polygon","coordinates":[[[-69.2257183,-8.6114413],[-69.2176025,-8.611446],[-69.2175994,-8.6060355],[-69.2257151,-8.6060309],[-69.2257183,-8.6114413]]]}},{"type":"Feature","id":"AC-Y598-X636","properties":{"id":"AC-Y598-X636","grid_x":636,"grid_y":598,"region":"leste","centroid":[-69.2135431,-8.608743],"aggregation":"none","score_unico_gradboost":0.4823457,"score_unico_random_forest":0.4506308,"score_unico_logistic_regression":0.5273571,"score_unico_fuzzy_knn":0.6349572,"score_unico_xgboost":0.2338913,"score_regional_gradboost":0.3551362,"score_regional_random_forest":0.4069208,"score_regional_logistic_regression":0.5015481,"score_regional_fuzzy_knn":0.634138,"score_regional_xgboost":0.1540618},"geometry":{"type":"Polygon","coordinates":[[[-69.2176025,-8.611446],[-69.2094867,-8.6114505],[-69.2094837,-8.60604],[-69.2175994,-8.6060355],[-69.2176025,-8.611446]]]}},{"type":"Feature","id":"AC-Y598-X637","properties":{"id":"AC-Y598-X637","grid_x":637,"grid_y":598,"region":"leste","centroid":[-69.2054273,-8.6087475],"aggregation":"none","score_unico_gradboost":0.4722458,"score_unico_random_forest":0.4168616,"score_unico_logistic_regression":0.5518416,"score_unico_fuzzy_knn":0.5972304,"score_unico_xgboost":0.2478477,"score_regional_gradboost":0.3504904,"score_regional_random_forest":0.3566862,"score_regional_logistic_regression":0.5210666,"score_regional_fuzzy_knn":0.5854925,"score_regional_xgboost":0.1230634},"geometry":{"type":"Polygon","coordinates":[[[-69.2094867,-8.6114505],[-69.2013708,-8.6114548],[-69.201368,-8.6060444],[-69.2094837,-8.60604],[-69.2094867,-8.6114505]]]}},{"type":"Feature","id":"AC-Y598-X638","properties":{"id":"AC-Y598-X638","grid_x":638,"grid_y":598,"region":"leste","centroid":[-69.1973115,-8.6087517],"aggregation":"none","score_unico_gradboost":0.442723,"score_unico_random_forest":0.4002315,"score_unico_logistic_regression":0.5458213,"score_unico_fuzzy_knn":0.6029978,"score_unico_xgboost":0.2436348,"score_regional_gradboost":0.3541398,"score_regional_random_forest":0.3537591,"score_regional_logistic_regression":0.5119979,"score_regional_fuzzy_knn":0.6315481,"score_regional_xgboost":0.1211648},"geometry":{"type":"Polygon","coordinates":[[[-69.2013708,-8.6114548],[-69.193255,-8.611459],[-69.1932522,-8.6060485],[-69.201368,-8.6060444],[-69.2013708,-8.6114548]]]}},{"type":"Feature","id":"AC-Y598-X639","properties":{"id":"AC-Y598-X639","grid_x":639,"grid_y":598,"region":"leste","centroid":[-69.1891957,-8.6087558],"aggregation":"none","score_unico_gradboost":0.5201321,"score_unico_random_forest":0.4042912,"score_unico_logistic_regression":0.5669078,"score_unico_fuzzy_knn":0.6172251,"score_unico_xgboost":0.2571553,"score_regional_gradboost":0.3463923,"score_regional_random_forest":0.3808198,"score_regional_logistic_regression":0.5286675,"score_regional_fuzzy_knn":0.6039784,"score_regional_xgboost":0.1232028},"geometry":{"type":"Polygon","coordinates":[[[-69.193255,-8.611459],[-69.1851392,-8.611463],[-69.1851365,-8.6060525],[-69.1932522,-8.6060485],[-69.193255,-8.611459]]]}},{"type":"Feature","id":"AC-Y598-X640","properties":{"id":"AC-Y598-X640","grid_x":640,"grid_y":598,"region":"leste","centroid":[-69.1810799,-8.6087597],"aggregation":"none","score_unico_gradboost":0.4283499,"score_unico_random_forest":0.3865931,"score_unico_logistic_regression":0.5442333,"score_unico_fuzzy_knn":0.6057899,"score_unico_xgboost":0.2252475,"score_regional_gradboost":0.3464014,"score_regional_random_forest":0.3452377,"score_regional_logistic_regression":0.5031608,"score_regional_fuzzy_knn":0.6132916,"score_regional_xgboost":0.1071091},"geometry":{"type":"Polygon","coordinates":[[[-69.1851392,-8.611463],[-69.1770233,-8.6114668],[-69.1770208,-8.6060563],[-69.1851365,-8.6060525],[-69.1851392,-8.611463]]]}},{"type":"Feature","id":"AC-Y598-X641","properties":{"id":"AC-Y598-X641","grid_x":641,"grid_y":598,"region":"leste","centroid":[-69.1729642,-8.6087634],"aggregation":"none","score_unico_gradboost":0.4195327,"score_unico_random_forest":0.3795596,"score_unico_logistic_regression":0.5432579,"score_unico_fuzzy_knn":0.6265192,"score_unico_xgboost":0.2131792,"score_regional_gradboost":0.3464014,"score_regional_random_forest":0.3440684,"score_regional_logistic_regression":0.4980979,"score_regional_fuzzy_knn":0.6184176,"score_regional_xgboost":0.1056883},"geometry":{"type":"Polygon","coordinates":[[[-69.1770233,-8.6114668],[-69.1689075,-8.6114705],[-69.1689051,-8.60606],[-69.1770208,-8.6060563],[-69.1770233,-8.6114668]]]}},{"type":"Feature","id":"AC-Y599-X634","properties":{"id":"AC-Y599-X634","grid_x":634,"grid_y":599,"region":"leste","centroid":[-69.2297713,-8.6033232],"aggregation":"none","score_unico_gradboost":0.5453345,"score_unico_random_forest":0.5743965,"score_unico_logistic_regression":0.4665271,"score_unico_fuzzy_knn":0.7562574,"score_unico_xgboost":0.4307089,"score_regional_gradboost":0.4267337,"score_regional_random_forest":0.5889937,"score_regional_logistic_regression":0.4488551,"score_regional_fuzzy_knn":0.7628365,"score_regional_xgboost":0.2921493},"geometry":{"type":"Polygon","coordinates":[[[-69.2338308,-8.606026],[-69.2257151,-8.6060309],[-69.2257119,-8.6006204],[-69.2338275,-8.6006155],[-69.2338308,-8.606026]]]}},{"type":"Feature","id":"AC-Y599-X635","properties":{"id":"AC-Y599-X635","grid_x":635,"grid_y":599,"region":"leste","centroid":[-69.2216557,-8.603328],"aggregation":"none","score_unico_gradboost":0.4508926,"score_unico_random_forest":0.4604232,"score_unico_logistic_regression":0.5108537,"score_unico_fuzzy_knn":0.6489701,"score_unico_xgboost":0.2745143,"score_regional_gradboost":0.3246657,"score_regional_random_forest":0.4366936,"score_regional_logistic_regression":0.4872992,"score_regional_fuzzy_knn":0.6396231,"score_regional_xgboost":0.1763126},"geometry":{"type":"Polygon","coordinates":[[[-69.2257151,-8.6060309],[-69.2175994,-8.6060355],[-69.2175963,-8.6006251],[-69.2257119,-8.6006204],[-69.2257151,-8.6060309]]]}},{"type":"Feature","id":"AC-Y599-X636","properties":{"id":"AC-Y599-X636","grid_x":636,"grid_y":599,"region":"leste","centroid":[-69.21354,-8.6033326],"aggregation":"none","score_unico_gradboost":0.4880769,"score_unico_random_forest":0.4354528,"score_unico_logistic_regression":0.5246227,"score_unico_fuzzy_knn":0.633718,"score_unico_xgboost":0.244534,"score_regional_gradboost":0.3320581,"score_regional_random_forest":0.4088212,"score_regional_logistic_regression":0.4968279,"score_regional_fuzzy_knn":0.6316033,"score_regional_xgboost":0.1444537},"geometry":{"type":"Polygon","coordinates":[[[-69.2175994,-8.6060355],[-69.2094837,-8.60604],[-69.2094807,-8.6006296],[-69.2175963,-8.6006251],[-69.2175994,-8.6060355]]]}},{"type":"Feature","id":"AC-Y599-X637","properties":{"id":"AC-Y599-X637","grid_x":637,"grid_y":599,"region":"leste","centroid":[-69.2054244,-8.603337],"aggregation":"none","score_unico_gradboost":0.5038952,"score_unico_random_forest":0.4112115,"score_unico_logistic_regression":0.5573428,"score_unico_fuzzy_knn":0.5921277,"score_unico_xgboost":0.2473622,"score_regional_gradboost":0.3368538,"score_regional_random_forest":0.3987264,"score_regional_logistic_regression":0.5242504,"score_regional_fuzzy_knn":0.5650722,"score_regional_xgboost":0.1260888},"geometry":{"type":"Polygon","coordinates":[[[-69.2094837,-8.60604],[-69.201368,-8.6060444],[-69.2013651,-8.6006339],[-69.2094807,-8.6006296],[-69.2094837,-8.60604]]]}},{"type":"Feature","id":"AC-Y599-X638","properties":{"id":"AC-Y599-X638","grid_x":638,"grid_y":599,"region":"leste","centroid":[-69.1973087,-8.6033412],"aggregation":"none","score_unico_gradboost":0.4483374,"score_unico_random_forest":0.4519922,"score_unico_logistic_regression":0.5154985,"score_unico_fuzzy_knn":0.6567365,"score_unico_xgboost":0.2541339,"score_regional_gradboost":0.3287035,"score_regional_random_forest":0.4028011,"score_regional_logistic_regression":0.4817816,"score_regional_fuzzy_knn":0.6297324,"score_regional_xgboost":0.1540019},"geometry":{"type":"Polygon","coordinates":[[[-69.201368,-8.6060444],[-69.1932522,-8.6060485],[-69.1932495,-8.600638],[-69.2013651,-8.6006339],[-69.201368,-8.6060444]]]}},{"type":"Feature","id":"AC-Y599-X639","properties":{"id":"AC-Y599-X639","grid_x":639,"grid_y":599,"region":"leste","centroid":[-69.189193,-8.6033453],"aggregation":"none","score_unico_gradboost":0.4826361,"score_unico_random_forest":0.4218522,"score_unico_logistic_regression":0.5368357,"score_unico_fuzzy_knn":0.625207,"score_unico_xgboost":0.2368314,"score_regional_gradboost":0.3250452,"score_regional_random_forest":0.3865607,"score_regional_logistic_regression":0.4986195,"score_regional_fuzzy_knn":0.5969288,"score_regional_xgboost":0.158375},"geometry":{"type":"Polygon","coordinates":[[[-69.1932522,-8.6060485],[-69.1851365,-8.6060525],[-69.1851339,-8.600642],[-69.1932495,-8.600638],[-69.1932522,-8.6060485]]]}},{"type":"Feature","id":"AC-Y599-X640","properties":{"id":"AC-Y599-X640","grid_x":640,"grid_y":599,"region":"leste","centroid":[-69.1810774,-8.6033492],"aggregation":"none","score_unico_gradboost":0.4844583,"score_unico_random_forest":0.3966322,"score_unico_logistic_regression":0.552604,"score_unico_fuzzy_knn":0.5901621,"score_unico_xgboost":0.2596861,"score_regional_gradboost":0.341548,"score_regional_random_forest":0.3688131,"score_regional_logistic_regression":0.5093036,"score_regional_fuzzy_knn":0.5637935,"score_regional_xgboost":0.1217672},"geometry":{"type":"Polygon","coordinates":[[[-69.1851365,-8.6060525],[-69.1770208,-8.6060563],[-69.1770183,-8.6006459],[-69.1851339,-8.600642],[-69.1851365,-8.6060525]]]}},{"type":"Feature","id":"AC-Y599-X641","properties":{"id":"AC-Y599-X641","grid_x":641,"grid_y":599,"region":"leste","centroid":[-69.1729617,-8.6033529],"aggregation":"none","score_unico_gradboost":0.4524517,"score_unico_random_forest":0.3943315,"score_unico_logistic_regression":0.529648,"score_unico_fuzzy_knn":0.6339264,"score_unico_xgboost":0.2579348,"score_regional_gradboost":0.3301347,"score_regional_random_forest":0.3575019,"score_regional_logistic_regression":0.4837683,"score_regional_fuzzy_knn":0.6102175,"score_regional_xgboost":0.1454985},"geometry":{"type":"Polygon","coordinates":[[[-69.1770208,-8.6060563],[-69.1689051,-8.60606],[-69.1689027,-8.6006495],[-69.1770183,-8.6006459],[-69.1770208,-8.6060563]]]}},{"type":"Feature","id":"AC-Y600-X634","properties":{"id":"AC-Y600-X634","grid_x":634,"grid_y":600,"region":"leste","centroid":[-69.2297681,-8.5979127],"aggregation":"none","score_unico_gradboost":0.572439,"score_unico_random_forest":0.5558994,"score_unico_logistic_regression":0.4804712,"score_unico_fuzzy_knn":0.7303861,"score_unico_xgboost":0.3829237,"score_regional_gradboost":0.3501019,"score_regional_random_forest":0.5585338,"score_regional_logistic_regression":0.4594718,"score_regional_fuzzy_knn":0.7151795,"score_regional_xgboost":0.2675551},"geometry":{"type":"Polygon","coordinates":[[[-69.2338275,-8.6006155],[-69.2257119,-8.6006204],[-69.2257087,-8.5952099],[-69.2338242,-8.5952051],[-69.2338275,-8.6006155]]]}},{"type":"Feature","id":"AC-Y600-X635","properties":{"id":"AC-Y600-X635","grid_x":635,"grid_y":600,"region":"leste","centroid":[-69.2216525,-8.5979175],"aggregation":"none","score_unico_gradboost":0.4950688,"score_unico_random_forest":0.4563608,"score_unico_logistic_regression":0.497153,"score_unico_fuzzy_knn":0.6909636,"score_unico_xgboost":0.2662884,"score_regional_gradboost":0.3172283,"score_regional_random_forest":0.4629117,"score_regional_logistic_regression":0.4721322,"score_regional_fuzzy_knn":0.6573276,"score_regional_xgboost":0.1981788},"geometry":{"type":"Polygon","coordinates":[[[-69.2257119,-8.6006204],[-69.2175963,-8.6006251],[-69.2175932,-8.5952146],[-69.2257087,-8.5952099],[-69.2257119,-8.6006204]]]}},{"type":"Feature","id":"AC-Y600-X636","properties":{"id":"AC-Y600-X636","grid_x":636,"grid_y":600,"region":"leste","centroid":[-69.213537,-8.5979221],"aggregation":"none","score_unico_gradboost":0.4805004,"score_unico_random_forest":0.4104761,"score_unico_logistic_regression":0.5275223,"score_unico_fuzzy_knn":0.6319773,"score_unico_xgboost":0.2493085,"score_regional_gradboost":0.3134141,"score_regional_random_forest":0.4203383,"score_regional_logistic_regression":0.4972876,"score_regional_fuzzy_knn":0.5892487,"score_regional_xgboost":0.1408963},"geometry":{"type":"Polygon","coordinates":[[[-69.2175963,-8.6006251],[-69.2094807,-8.6006296],[-69.2094777,-8.5952191],[-69.2175932,-8.5952146],[-69.2175963,-8.6006251]]]}},{"type":"Feature","id":"AC-Y600-X637","properties":{"id":"AC-Y600-X637","grid_x":637,"grid_y":600,"region":"leste","centroid":[-69.2054214,-8.5979265],"aggregation":"none","score_unico_gradboost":0.4852148,"score_unico_random_forest":0.408855,"score_unico_logistic_regression":0.5299843,"score_unico_fuzzy_knn":0.6389385,"score_unico_xgboost":0.2525597,"score_regional_gradboost":0.3186333,"score_regional_random_forest":0.4072868,"score_regional_logistic_regression":0.4964589,"score_regional_fuzzy_knn":0.5861887,"score_regional_xgboost":0.1554614},"geometry":{"type":"Polygon","coordinates":[[[-69.2094807,-8.6006296],[-69.2013651,-8.6006339],[-69.2013622,-8.5952234],[-69.2094777,-8.5952191],[-69.2094807,-8.6006296]]]}},{"type":"Feature","id":"AC-Y600-X638","properties":{"id":"AC-Y600-X638","grid_x":638,"grid_y":600,"region":"leste","centroid":[-69.1973059,-8.5979307],"aggregation":"none","score_unico_gradboost":0.4549161,"score_unico_random_forest":0.4620256,"score_unico_logistic_regression":0.4962565,"score_unico_fuzzy_knn":0.6787781,"score_unico_xgboost":0.2478113,"score_regional_gradboost":0.3241635,"score_regional_random_forest":0.4425408,"score_regional_logistic_regression":0.4619361,"score_regional_fuzzy_knn":0.6458045,"score_regional_xgboost":0.1760456},"geometry":{"type":"Polygon","coordinates":[[[-69.2013651,-8.6006339],[-69.1932495,-8.600638],[-69.1932468,-8.5952276],[-69.2013622,-8.5952234],[-69.2013651,-8.6006339]]]}},{"type":"Feature","id":"AC-Y600-X639","properties":{"id":"AC-Y600-X639","grid_x":639,"grid_y":600,"region":"leste","centroid":[-69.1891904,-8.5979348],"aggregation":"none","score_unico_gradboost":0.4424879,"score_unico_random_forest":0.4288208,"score_unico_logistic_regression":0.5176959,"score_unico_fuzzy_knn":0.6352492,"score_unico_xgboost":0.2854911,"score_regional_gradboost":0.3252824,"score_regional_random_forest":0.40587,"score_regional_logistic_regression":0.4788171,"score_regional_fuzzy_knn":0.6208017,"score_regional_xgboost":0.1573021},"geometry":{"type":"Polygon","coordinates":[[[-69.1932495,-8.600638],[-69.1851339,-8.600642],[-69.1851313,-8.5952315],[-69.1932468,-8.5952276],[-69.1932495,-8.600638]]]}},{"type":"Feature","id":"AC-Y600-X640","properties":{"id":"AC-Y600-X640","grid_x":640,"grid_y":600,"region":"leste","centroid":[-69.1810748,-8.5979387],"aggregation":"none","score_unico_gradboost":0.5104206,"score_unico_random_forest":0.4195563,"score_unico_logistic_regression":0.5501012,"score_unico_fuzzy_knn":0.6052025,"score_unico_xgboost":0.3239161,"score_regional_gradboost":0.3368538,"score_regional_random_forest":0.4084066,"score_regional_logistic_regression":0.5050937,"score_regional_fuzzy_knn":0.5518357,"score_regional_xgboost":0.138707},"geometry":{"type":"Polygon","coordinates":[[[-69.1851339,-8.600642],[-69.1770183,-8.6006459],[-69.1770158,-8.5952354],[-69.1851313,-8.5952315],[-69.1851339,-8.600642]]]}},{"type":"Feature","id":"AC-Y601-X634","properties":{"id":"AC-Y601-X634","grid_x":634,"grid_y":601,"region":"leste","centroid":[-69.2297648,-8.5925023],"aggregation":"none","score_unico_gradboost":0.5793924,"score_unico_random_forest":0.5793777,"score_unico_logistic_regression":0.4724015,"score_unico_fuzzy_knn":0.7414595,"score_unico_xgboost":0.4282064,"score_regional_gradboost":0.3450411,"score_regional_random_forest":0.5606002,"score_regional_logistic_regression":0.4496162,"score_regional_fuzzy_knn":0.7191007,"score_regional_xgboost":0.289473},"geometry":{"type":"Polygon","coordinates":[[[-69.2338242,-8.5952051],[-69.2257087,-8.5952099],[-69.2257055,-8.5897994],[-69.2338208,-8.5897946],[-69.2338242,-8.5952051]]]}},{"type":"Feature","id":"AC-Y601-X635","properties":{"id":"AC-Y601-X635","grid_x":635,"grid_y":601,"region":"leste","centroid":[-69.2216494,-8.592507],"aggregation":"none","score_unico_gradboost":0.5030458,"score_unico_random_forest":0.4282094,"score_unico_logistic_regression":0.525095,"score_unico_fuzzy_knn":0.6286964,"score_unico_xgboost":0.2575591,"score_regional_gradboost":0.3112748,"score_regional_random_forest":0.4251799,"score_regional_logistic_regression":0.4956732,"score_regional_fuzzy_knn":0.5661839,"score_regional_xgboost":0.1583641},"geometry":{"type":"Polygon","coordinates":[[[-69.2257087,-8.5952099],[-69.2175932,-8.5952146],[-69.2175901,-8.5898041],[-69.2257055,-8.5897994],[-69.2257087,-8.5952099]]]}},{"type":"Feature","id":"AC-Y601-X636","properties":{"id":"AC-Y601-X636","grid_x":636,"grid_y":601,"region":"leste","centroid":[-69.213534,-8.5925116],"aggregation":"none","score_unico_gradboost":0.4983111,"score_unico_random_forest":0.4354839,"score_unico_logistic_regression":0.5028415,"score_unico_fuzzy_knn":0.6614835,"score_unico_xgboost":0.2889262,"score_regional_gradboost":0.3172283,"score_regional_random_forest":0.4389157,"score_regional_logistic_regression":0.4719635,"score_regional_fuzzy_knn":0.6459526,"score_regional_xgboost":0.1839907},"geometry":{"type":"Polygon","coordinates":[[[-69.2175932,-8.5952146],[-69.2094777,-8.5952191],[-69.2094748,-8.5898086],[-69.2175901,-8.5898041],[-69.2175932,-8.5952146]]]}},{"type":"Feature","id":"AC-Y601-X637","properties":{"id":"AC-Y601-X637","grid_x":637,"grid_y":601,"region":"leste","centroid":[-69.2054185,-8.592516],"aggregation":"none","score_unico_gradboost":0.4976685,"score_unico_random_forest":0.4267386,"score_unico_logistic_regression":0.5163974,"score_unico_fuzzy_knn":0.6458831,"score_unico_xgboost":0.2802823,"score_regional_gradboost":0.3183985,"score_regional_random_forest":0.4288252,"score_regional_logistic_regression":0.4815677,"score_regional_fuzzy_knn":0.5948093,"score_regional_xgboost":0.1625006},"geometry":{"type":"Polygon","coordinates":[[[-69.2094777,-8.5952191],[-69.2013622,-8.5952234],[-69.2013594,-8.5898129],[-69.2094748,-8.5898086],[-69.2094777,-8.5952191]]]}},{"type":"Feature","id":"AC-Y601-X638","properties":{"id":"AC-Y601-X638","grid_x":638,"grid_y":601,"region":"leste","centroid":[-69.1973031,-8.5925203],"aggregation":"none","score_unico_gradboost":0.5215605,"score_unico_random_forest":0.4356714,"score_unico_logistic_regression":0.5186761,"score_unico_fuzzy_knn":0.646056,"score_unico_xgboost":0.2909816,"score_regional_gradboost":0.3250999,"score_regional_random_forest":0.437253,"score_regional_logistic_regression":0.4806841,"score_regional_fuzzy_knn":0.5909067,"score_regional_xgboost":0.1733857},"geometry":{"type":"Polygon","coordinates":[[[-69.2013622,-8.5952234],[-69.1932468,-8.5952276],[-69.193244,-8.5898171],[-69.2013594,-8.5898129],[-69.2013622,-8.5952234]]]}},{"type":"Feature","id":"AC-Y601-X639","properties":{"id":"AC-Y601-X639","grid_x":639,"grid_y":601,"region":"leste","centroid":[-69.1891877,-8.5925243],"aggregation":"none","score_unico_gradboost":0.4701175,"score_unico_random_forest":0.4774833,"score_unico_logistic_regression":0.4930782,"score_unico_fuzzy_knn":0.698251,"score_unico_xgboost":0.3162422,"score_regional_gradboost":0.3172283,"score_regional_random_forest":0.4694516,"score_regional_logistic_regression":0.4538687,"score_regional_fuzzy_knn":0.6287256,"score_regional_xgboost":0.2205739},"geometry":{"type":"Polygon","coordinates":[[[-69.1932468,-8.5952276],[-69.1851313,-8.5952315],[-69.1851286,-8.5898211],[-69.193244,-8.5898171],[-69.1932468,-8.5952276]]]}},{"type":"Feature","id":"AC-Y602-X634","properties":{"id":"AC-Y602-X634","grid_x":634,"grid_y":602,"region":"leste","centroid":[-69.2297615,-8.5870918],"aggregation":"none","score_unico_gradboost":0.5872123,"score_unico_random_forest":0.5878781,"score_unico_logistic_regression":0.47828,"score_unico_fuzzy_knn":0.7425469,"score_unico_xgboost":0.4449321,"score_regional_gradboost":0.3088121,"score_regional_random_forest":0.5455818,"score_regional_logistic_regression":0.4524283,"score_regional_fuzzy_knn":0.7001611,"score_regional_xgboost":0.2846605},"geometry":{"type":"Polygon","coordinates":[[[-69.2338208,-8.5897946],[-69.2257055,-8.5897994],[-69.2257023,-8.584389],[-69.2338175,-8.5843841],[-69.2338208,-8.5897946]]]}},{"type":"Feature","id":"AC-Y602-X635","properties":{"id":"AC-Y602-X635","grid_x":635,"grid_y":602,"region":"leste","centroid":[-69.2216462,-8.5870966],"aggregation":"none","score_unico_gradboost":0.5087511,"score_unico_random_forest":0.4823534,"score_unico_logistic_regression":0.4977374,"score_unico_fuzzy_knn":0.6913167,"score_unico_xgboost":0.3082607,"score_regional_gradboost":0.3176849,"score_regional_random_forest":0.4600905,"score_regional_logistic_regression":0.4676602,"score_regional_fuzzy_knn":0.6461501,"score_regional_xgboost":0.2379863},"geometry":{"type":"Polygon","coordinates":[[[-69.2257055,-8.5897994],[-69.2175901,-8.5898041],[-69.217587,-8.5843936],[-69.2257023,-8.584389],[-69.2257055,-8.5897994]]]}},{"type":"Feature","id":"AC-Y602-X636","properties":{"id":"AC-Y602-X636","grid_x":636,"grid_y":602,"region":"leste","centroid":[-69.2135309,-8.5871011],"aggregation":"none","score_unico_gradboost":0.5062552,"score_unico_random_forest":0.4894296,"score_unico_logistic_regression":0.497625,"score_unico_fuzzy_knn":0.682411,"score_unico_xgboost":0.3085775,"score_regional_gradboost":0.3282693,"score_regional_random_forest":0.4588925,"score_regional_logistic_regression":0.4647253,"score_regional_fuzzy_knn":0.6436407,"score_regional_xgboost":0.2411072},"geometry":{"type":"Polygon","coordinates":[[[-69.2175901,-8.5898041],[-69.2094748,-8.5898086],[-69.2094718,-8.5843981],[-69.217587,-8.5843936],[-69.2175901,-8.5898041]]]}},{"type":"Feature","id":"AC-Y602-X637","properties":{"id":"AC-Y602-X637","grid_x":637,"grid_y":602,"region":"leste","centroid":[-69.2054156,-8.5871055],"aggregation":"none","score_unico_gradboost":0.5062552,"score_unico_random_forest":0.483348,"score_unico_logistic_regression":0.5056508,"score_unico_fuzzy_knn":0.6541596,"score_unico_xgboost":0.3461742,"score_regional_gradboost":0.315075,"score_regional_random_forest":0.4520793,"score_regional_logistic_regression":0.4692797,"score_regional_fuzzy_knn":0.6248539,"score_regional_xgboost":0.206448},"geometry":{"type":"Polygon","coordinates":[[[-69.2094748,-8.5898086],[-69.2013594,-8.5898129],[-69.2013565,-8.5844024],[-69.2094718,-8.5843981],[-69.2094748,-8.5898086]]]}},{"type":"Feature","id":"AC-Y602-X638","properties":{"id":"AC-Y602-X638","grid_x":638,"grid_y":602,"region":"leste","centroid":[-69.1973003,-8.5871098],"aggregation":"none","score_unico_gradboost":0.5219364,"score_unico_random_forest":0.4675529,"score_unico_logistic_regression":0.5162586,"score_unico_fuzzy_knn":0.6325343,"score_unico_xgboost":0.3093002,"score_regional_gradboost":0.3229184,"score_regional_random_forest":0.4419995,"score_regional_logistic_regression":0.4762496,"score_regional_fuzzy_knn":0.569736,"score_regional_xgboost":0.1883351},"geometry":{"type":"Polygon","coordinates":[[[-69.2013594,-8.5898129],[-69.193244,-8.5898171],[-69.1932413,-8.5844066],[-69.2013565,-8.5844024],[-69.2013594,-8.5898129]]]}},{"type":"Feature","id":"AC-Y602-X639","properties":{"id":"AC-Y602-X639","grid_x":639,"grid_y":602,"region":"leste","centroid":[-69.189185,-8.5871138],"aggregation":"none","score_unico_gradboost":0.5172088,"score_unico_random_forest":0.4723135,"score_unico_logistic_regression":0.5017966,"score_unico_fuzzy_knn":0.6566861,"score_unico_xgboost":0.3268918,"score_regional_gradboost":0.315075,"score_regional_random_forest":0.4447704,"score_regional_logistic_regression":0.4597379,"score_regional_fuzzy_knn":0.6384639,"score_regional_xgboost":0.1969749},"geometry":{"type":"Polygon","coordinates":[[[-69.193244,-8.5898171],[-69.1851286,-8.5898211],[-69.185126,-8.5844106],[-69.1932413,-8.5844066],[-69.193244,-8.5898171]]]}},{"type":"Feature","id":"AC-Y603-X634","properties":{"id":"AC-Y603-X634","grid_x":634,"grid_y":603,"region":"leste","centroid":[-69.2297583,-8.5816813],"aggregation":"none","score_unico_gradboost":0.6472079,"score_unico_random_forest":0.6253206,"score_unico_logistic_regression":0.4649028,"score_unico_fuzzy_knn":0.7518642,"score_unico_xgboost":0.4833019,"score_regional_gradboost":0.3275205,"score_regional_random_forest":0.5936668,"score_regional_logistic_regression":0.4373704,"score_regional_fuzzy_knn":0.7287636,"score_regional_xgboost":0.3154922},"geometry":{"type":"Polygon","coordinates":[[[-69.2338175,-8.5843841],[-69.2257023,-8.584389],[-69.2256991,-8.5789785],[-69.2338142,-8.5789737],[-69.2338175,-8.5843841]]]}},{"type":"Feature","id":"AC-Y603-X635","properties":{"id":"AC-Y603-X635","grid_x":635,"grid_y":603,"region":"leste","centroid":[-69.2216431,-8.5816861],"aggregation":"none","score_unico_gradboost":0.6469795,"score_unico_random_forest":0.5891998,"score_unico_logistic_regression":0.4760024,"score_unico_fuzzy_knn":0.7405282,"score_unico_xgboost":0.4573789,"score_regional_gradboost":0.280799,"score_regional_random_forest":0.5408705,"score_regional_logistic_regression":0.4449637,"score_regional_fuzzy_knn":0.7087182,"score_regional_xgboost":0.2642714},"geometry":{"type":"Polygon","coordinates":[[[-69.2257023,-8.584389],[-69.217587,-8.5843936],[-69.217584,-8.5789831],[-69.2256991,-8.5789785],[-69.2257023,-8.584389]]]}},{"type":"Feature","id":"AC-Y603-X636","properties":{"id":"AC-Y603-X636","grid_x":636,"grid_y":603,"region":"leste","centroid":[-69.2135279,-8.5816907],"aggregation":"none","score_unico_gradboost":0.5062552,"score_unico_random_forest":0.5044143,"score_unico_logistic_regression":0.4924944,"score_unico_fuzzy_knn":0.6978888,"score_unico_xgboost":0.29769,"score_regional_gradboost":0.3088121,"score_regional_random_forest":0.4700939,"score_regional_logistic_regression":0.4575087,"score_regional_fuzzy_knn":0.6447536,"score_regional_xgboost":0.2250693},"geometry":{"type":"Polygon","coordinates":[[[-69.217587,-8.5843936],[-69.2094718,-8.5843981],[-69.2094688,-8.5789876],[-69.217584,-8.5789831],[-69.217587,-8.5843936]]]}},{"type":"Feature","id":"AC-Y603-X637","properties":{"id":"AC-Y603-X637","grid_x":637,"grid_y":603,"region":"leste","centroid":[-69.2054127,-8.5816951],"aggregation":"none","score_unico_gradboost":0.5109886,"score_unico_random_forest":0.4708745,"score_unico_logistic_regression":0.5199181,"score_unico_fuzzy_knn":0.6374542,"score_unico_xgboost":0.2911132,"score_regional_gradboost":0.2989341,"score_regional_random_forest":0.4446889,"score_regional_logistic_regression":0.480173,"score_regional_fuzzy_knn":0.5721435,"score_regional_xgboost":0.1716765},"geometry":{"type":"Polygon","coordinates":[[[-69.2094718,-8.5843981],[-69.2013565,-8.5844024],[-69.2013537,-8.578992],[-69.2094688,-8.5789876],[-69.2094718,-8.5843981]]]}},{"type":"Feature","id":"AC-Y603-X638","properties":{"id":"AC-Y603-X638","grid_x":638,"grid_y":603,"region":"leste","centroid":[-69.1972975,-8.5816993],"aggregation":"none","score_unico_gradboost":0.5062552,"score_unico_random_forest":0.4709399,"score_unico_logistic_regression":0.4945307,"score_unico_fuzzy_knn":0.6955743,"score_unico_xgboost":0.2962206,"score_regional_gradboost":0.2459298,"score_regional_random_forest":0.4489806,"score_regional_logistic_regression":0.4538314,"score_regional_fuzzy_knn":0.6433892,"score_regional_xgboost":0.215057},"geometry":{"type":"Polygon","coordinates":[[[-69.2013565,-8.5844024],[-69.1932413,-8.5844066],[-69.1932385,-8.5789961],[-69.2013537,-8.578992],[-69.2013565,-8.5844024]]]}},{"type":"Feature","id":"AC-Y604-X634","properties":{"id":"AC-Y604-X634","grid_x":634,"grid_y":604,"region":"leste","centroid":[-69.229755,-8.5762709],"aggregation":"none","score_unico_gradboost":0.5811433,"score_unico_random_forest":0.4862715,"score_unico_logistic_regression":0.5041558,"score_unico_fuzzy_knn":0.6762506,"score_unico_xgboost":0.2972927,"score_regional_gradboost":0.2341515,"score_regional_random_forest":0.4733851,"score_regional_logistic_regression":0.4709193,"score_regional_fuzzy_knn":0.6465369,"score_regional_xgboost":0.2087462},"geometry":{"type":"Polygon","coordinates":[[[-69.2338142,-8.5789737],[-69.2256991,-8.5789785],[-69.2256959,-8.573568],[-69.2338109,-8.5735632],[-69.2338142,-8.5789737]]]}},{"type":"Feature","id":"AC-Y604-X635","properties":{"id":"AC-Y604-X635","grid_x":635,"grid_y":604,"region":"leste","centroid":[-69.22164,-8.5762756],"aggregation":"none","score_unico_gradboost":0.6367106,"score_unico_random_forest":0.5604496,"score_unico_logistic_regression":0.4654488,"score_unico_fuzzy_knn":0.7517349,"score_unico_xgboost":0.42728,"score_regional_gradboost":0.2565866,"score_regional_random_forest":0.562933,"score_regional_logistic_regression":0.4326216,"score_regional_fuzzy_knn":0.713938,"score_regional_xgboost":0.2925642},"geometry":{"type":"Polygon","coordinates":[[[-69.2256991,-8.5789785],[-69.217584,-8.5789831],[-69.2175809,-8.5735727],[-69.2256959,-8.573568],[-69.2256991,-8.5789785]]]}},{"type":"Feature","id":"AC-Y604-X636","properties":{"id":"AC-Y604-X636","grid_x":636,"grid_y":604,"region":"leste","centroid":[-69.2135249,-8.5762802],"aggregation":"none","score_unico_gradboost":0.5761487,"score_unico_random_forest":0.4577754,"score_unico_logistic_regression":0.4902156,"score_unico_fuzzy_knn":0.700142,"score_unico_xgboost":0.2746432,"score_regional_gradboost":0.2394612,"score_regional_random_forest":0.4602686,"score_regional_logistic_regression":0.4528705,"score_regional_fuzzy_knn":0.6562514,"score_regional_xgboost":0.2288674},"geometry":{"type":"Polygon","coordinates":[[[-69.217584,-8.5789831],[-69.2094688,-8.5789876],[-69.2094659,-8.5735772],[-69.2175809,-8.5735727],[-69.217584,-8.5789831]]]}},{"type":"Feature","id":"AC-Y604-X637","properties":{"id":"AC-Y604-X637","grid_x":637,"grid_y":604,"region":"leste","centroid":[-69.2054098,-8.5762846],"aggregation":"none","score_unico_gradboost":0.6334474,"score_unico_random_forest":0.462365,"score_unico_logistic_regression":0.4816366,"score_unico_fuzzy_knn":0.7294757,"score_unico_xgboost":0.3697308,"score_regional_gradboost":0.2206084,"score_regional_random_forest":0.5179413,"score_regional_logistic_regression":0.4422735,"score_regional_fuzzy_knn":0.6819141,"score_regional_xgboost":0.2297101},"geometry":{"type":"Polygon","coordinates":[[[-69.2094688,-8.5789876],[-69.2013537,-8.578992],[-69.2013508,-8.5735815],[-69.2094659,-8.5735772],[-69.2094688,-8.5789876]]]}},{"type":"Feature","id":"AC-Y605-X634","properties":{"id":"AC-Y605-X634","grid_x":634,"grid_y":605,"region":"leste","centroid":[-69.2297518,-8.5708604],"aggregation":"none","score_unico_gradboost":0.579187,"score_unico_random_forest":0.4391967,"score_unico_logistic_regression":0.4964217,"score_unico_fuzzy_knn":0.6984167,"score_unico_xgboost":0.2828438,"score_regional_gradboost":0.2790778,"score_regional_random_forest":0.4592158,"score_regional_logistic_regression":0.4609322,"score_regional_fuzzy_knn":0.6833909,"score_regional_xgboost":0.2400644},"geometry":{"type":"Polygon","coordinates":[[[-69.2338109,-8.5735632],[-69.2256959,-8.573568],[-69.2256927,-8.5681575],[-69.2338076,-8.5681527],[-69.2338109,-8.5735632]]]}},{"type":"Feature","id":"AC-Y605-X635","properties":{"id":"AC-Y605-X635","grid_x":635,"grid_y":605,"region":"leste","centroid":[-69.2216368,-8.5708651],"aggregation":"none","score_unico_gradboost":0.579187,"score_unico_random_forest":0.4213398,"score_unico_logistic_regression":0.4992195,"score_unico_fuzzy_knn":0.6977954,"score_unico_xgboost":0.2811381,"score_regional_gradboost":0.2534885,"score_regional_random_forest":0.4540104,"score_regional_logistic_regression":0.4610897,"score_regional_fuzzy_knn":0.6533017,"score_regional_xgboost":0.2152516},"geometry":{"type":"Polygon","coordinates":[[[-69.2256959,-8.573568],[-69.2175809,-8.5735727],[-69.2175778,-8.5681622],[-69.2256927,-8.5681575],[-69.2256959,-8.573568]]]}},{"type":"Feature","id":"AC-Y605-X636","properties":{"id":"AC-Y605-X636","grid_x":636,"grid_y":605,"region":"leste","centroid":[-69.2135219,-8.5708697],"aggregation":"none","score_unico_gradboost":0.5926927,"score_unico_random_forest":0.4190161,"score_unico_logistic_regression":0.4852437,"score_unico_fuzzy_knn":0.7243958,"score_unico_xgboost":0.2517612,"score_regional_gradboost":0.2468504,"score_regional_random_forest":0.4654874,"score_regional_logistic_regression":0.4456823,"score_regional_fuzzy_knn":0.6717149,"score_regional_xgboost":0.2235822},"geometry":{"type":"Polygon","coordinates":[[[-69.2175809,-8.5735727],[-69.2094659,-8.5735772],[-69.2094629,-8.5681667],[-69.2175778,-8.5681622],[-69.2175809,-8.5735727]]]}},{"type":"Feature","id":"AC-Y606-X634","properties":{"id":"AC-Y606-X634","grid_x":634,"grid_y":606,"region":"leste","centroid":[-69.2297485,-8.5654499],"aggregation":"none","score_unico_gradboost":0.5736846,"score_unico_random_forest":0.4009765,"score_unico_logistic_regression":0.5081532,"score_unico_fuzzy_knn":0.6954283,"score_unico_xgboost":0.1988423,"score_regional_gradboost":0.2366141,"score_regional_random_forest":0.4199651,"score_regional_logistic_regression":0.4689537,"score_regional_fuzzy_knn":0.6439372,"score_regional_xgboost":0.188812},"geometry":{"type":"Polygon","coordinates":[[[-69.2338076,-8.5681527],[-69.2256927,-8.5681575],[-69.2256895,-8.562747],[-69.2338043,-8.5627422],[-69.2338076,-8.5681527]]]}},{"type":"Feature","id":"AC-Y606-X635","properties":{"id":"AC-Y606-X635","grid_x":635,"grid_y":606,"region":"leste","centroid":[-69.2216337,-8.5654546],"aggregation":"none","score_unico_gradboost":0.4557879,"score_unico_random_forest":0.4111572,"score_unico_logistic_regression":0.4915424,"score_unico_fuzzy_knn":0.692137,"score_unico_xgboost":0.2418923,"score_regional_gradboost":0.257946,"score_regional_random_forest":0.4248373,"score_regional_logistic_regression":0.4512418,"score_regional_fuzzy_knn":0.6892556,"score_regional_xgboost":0.2191542},"geometry":{"type":"Polygon","coordinates":[[[-69.2256927,-8.5681575],[-69.2175778,-8.5681622],[-69.2175747,-8.5627517],[-69.2256895,-8.562747],[-69.2256927,-8.5681575]]]}},{"type":"Feature","id":"AC-Y607-X634","properties":{"id":"AC-Y607-X634","grid_x":634,"grid_y":607,"region":"leste","centroid":[-69.2297453,-8.5600394],"aggregation":"none","score_unico_gradboost":0.1991737,"score_unico_random_forest":0.3404221,"score_unico_logistic_regression":0.4950057,"score_unico_fuzzy_knn":0.6953843,"score_unico_xgboost":0.229513,"score_regional_gradboost":0.1881991,"score_regional_random_forest":0.3761099,"score_regional_logistic_regression":0.4538801,"score_regional_fuzzy_knn":0.6624427,"score_regional_xgboost":0.1625935},"geometry":{"type":"Polygon","coordinates":[[[-69.2338043,-8.5627422],[-69.2256895,-8.562747],[-69.2256863,-8.5573366],[-69.233801,-8.5573317],[-69.2338043,-8.5627422]]]}},{"type":"Feature","id":"AC-Y607-X635","properties":{"id":"AC-Y607-X635","grid_x":635,"grid_y":607,"region":"leste","centroid":[-69.2216306,-8.5600442],"aggregation":"none","score_unico_gradboost":0.226148,"score_unico_random_forest":0.3415324,"score_unico_logistic_regression":0.4783984,"score_unico_fuzzy_knn":0.7226022,"score_unico_xgboost":0.2829545,"score_regional_gradboost":0.1605922,"score_regional_random_forest":0.3922423,"score_regional_logistic_regression":0.4363532,"score_regional_fuzzy_knn":0.6717388,"score_regional_xgboost":0.2257975},"geometry":{"type":"Polygon","coordinates":[[[-69.2256895,-8.562747],[-69.2175747,-8.5627517],[-69.2175717,-8.5573412],[-69.2256863,-8.5573366],[-69.2256895,-8.562747]]]}},{"type":"Feature","id":"AC-Y608-X634","properties":{"id":"AC-Y608-X634","grid_x":634,"grid_y":608,"region":"leste","centroid":[-69.2297421,-8.5546289],"aggregation":"none","score_unico_gradboost":0.2201372,"score_unico_random_forest":0.3055976,"score_unico_logistic_regression":0.5013166,"score_unico_fuzzy_knn":0.6798583,"score_unico_xgboost":0.1629178,"score_regional_gradboost":0.2055756,"score_regional_random_forest":0.3545632,"score_regional_logistic_regression":0.4567828,"score_regional_fuzzy_knn":0.6822116,"score_regional_xgboost":0.1563928},"geometry":{"type":"Polygon","coordinates":[[[-69.233801,-8.5573317],[-69.2256863,-8.5573366],[-69.2256832,-8.5519261],[-69.2337977,-8.5519213],[-69.233801,-8.5573317]]]}}]}