{"type":"FeatureCollection","features":[{"type":"Feature","id":"AC-Y630-X115","properties":{"id":"AC-Y630-X115","grid_x":115,"grid_y":630,"region":"oeste","centroid":[-73.4353309,-8.4106],"aggregation":"none","score_unico_gradboost":0.0041942,"score_unico_random_forest":0.0609441,"score_unico_logistic_regression":0.3074734,"score_unico_fuzzy_knn":0.2840731,"score_unico_xgboost":0.0046376,"score_regional_gradboost":0.0203472,"score_regional_random_forest":0.1090373,"score_regional_logistic_regression":0.3503062,"score_regional_fuzzy_knn":0.1008317,"score_regional_xgboost":0.033602},"geometry":{"type":"Polygon","coordinates":[[[-73.4394053,-8.4132514],[-73.431318,-8.4133428],[-73.4312566,-8.4079485],[-73.4393438,-8.4078571],[-73.4394053,-8.4132514]]]}},{"type":"Feature","id":"AC-Y631-X114","properties":{"id":"AC-Y631-X114","grid_x":114,"grid_y":631,"region":"oeste","centroid":[-73.4433565,-8.4051143],"aggregation":"none","score_unico_gradboost":0.0030428,"score_unico_random_forest":0.0425134,"score_unico_logistic_regression":0.2711937,"score_unico_fuzzy_knn":0.334208,"score_unico_xgboost":0.0042726,"score_regional_gradboost":0.0128761,"score_regional_random_forest":0.1092913,"score_regional_logistic_regression":0.3071498,"score_regional_fuzzy_knn":0.0734794,"score_regional_xgboost":0.0224369},"geometry":{"type":"Polygon","coordinates":[[[-73.4474308,-8.4077656],[-73.4393438,-8.4078571],[-73.4392823,-8.4024629],[-73.4473692,-8.4023715],[-73.4474308,-8.4077656]]]}},{"type":"Feature","id":"AC-Y631-X115","properties":{"id":"AC-Y631-X115","grid_x":115,"grid_y":631,"region":"oeste","centroid":[-73.4352695,-8.4052057],"aggregation":"none","score_unico_gradboost":0.0031752,"score_unico_random_forest":0.0464368,"score_unico_logistic_regression":0.2849638,"score_unico_fuzzy_knn":0.3217785,"score_unico_xgboost":0.0044367,"score_regional_gradboost":0.0167943,"score_regional_random_forest":0.114461,"score_regional_logistic_regression":0.3239711,"score_regional_fuzzy_knn":0.0746674,"score_regional_xgboost":0.0268957},"geometry":{"type":"Polygon","coordinates":[[[-73.4393438,-8.4078571],[-73.4312566,-8.4079485],[-73.4311953,-8.4025542],[-73.4392823,-8.4024629],[-73.4393438,-8.4078571]]]}},{"type":"Feature","id":"AC-Y632-X113","properties":{"id":"AC-Y632-X113","grid_x":113,"grid_y":632,"region":"oeste","centroid":[-73.4513819,-8.3996286],"aggregation":"none","score_unico_gradboost":0.0031917,"score_unico_random_forest":0.0360483,"score_unico_logistic_regression":0.2770102,"score_unico_fuzzy_knn":0.3205838,"score_unico_xgboost":0.0040059,"score_regional_gradboost":0.0231189,"score_regional_random_forest":0.1119031,"score_regional_logistic_regression":0.3155923,"score_regional_fuzzy_knn":0.0738204,"score_regional_xgboost":0.0275028},"geometry":{"type":"Polygon","coordinates":[[[-73.4554561,-8.4022799],[-73.4473692,-8.4023715],[-73.4473077,-8.3969773],[-73.4553944,-8.3968857],[-73.4554561,-8.4022799]]]}},{"type":"Feature","id":"AC-Y632-X114","properties":{"id":"AC-Y632-X114","grid_x":114,"grid_y":632,"region":"oeste","centroid":[-73.443295,-8.3997201],"aggregation":"none","score_unico_gradboost":0.0041888,"score_unico_random_forest":0.0505783,"score_unico_logistic_regression":0.298864,"score_unico_fuzzy_knn":0.2986538,"score_unico_xgboost":0.0040713,"score_regional_gradboost":0.0175994,"score_regional_random_forest":0.1086493,"score_regional_logistic_regression":0.3410589,"score_regional_fuzzy_knn":0.0843131,"score_regional_xgboost":0.0268957},"geometry":{"type":"Polygon","coordinates":[[[-73.4473692,-8.4023715],[-73.4392823,-8.4024629],[-73.4392209,-8.3970687],[-73.4473077,-8.3969773],[-73.4473692,-8.4023715]]]}},{"type":"Feature","id":"AC-Y632-X115","properties":{"id":"AC-Y632-X115","grid_x":115,"grid_y":632,"region":"oeste","centroid":[-73.4352081,-8.3998114],"aggregation":"none","score_unico_gradboost":0.0047136,"score_unico_random_forest":0.0598787,"score_unico_logistic_regression":0.3063347,"score_unico_fuzzy_knn":0.2958813,"score_unico_xgboost":0.0045516,"score_regional_gradboost":0.0162584,"score_regional_random_forest":0.1069777,"score_regional_logistic_regression":0.3502979,"score_regional_fuzzy_knn":0.0851781,"score_regional_xgboost":0.030912},"geometry":{"type":"Polygon","coordinates":[[[-73.4392823,-8.4024629],[-73.4311953,-8.4025542],[-73.4311339,-8.3971599],[-73.4392209,-8.3970687],[-73.4392823,-8.4024629]]]}},{"type":"Feature","id":"AC-Y633-X111","properties":{"id":"AC-Y633-X111","grid_x":111,"grid_y":633,"region":"oeste","centroid":[-73.4674935,-8.3940511],"aggregation":"none","score_unico_gradboost":0.0034311,"score_unico_random_forest":0.0470287,"score_unico_logistic_regression":0.2276127,"score_unico_fuzzy_knn":0.2041492,"score_unico_xgboost":0.0028668,"score_regional_gradboost":0.0109379,"score_regional_random_forest":0.0509664,"score_regional_logistic_regression":0.2595577,"score_regional_fuzzy_knn":0.0420626,"score_regional_xgboost":0.0207779},"geometry":{"type":"Polygon","coordinates":[[[-73.4715677,-8.3967021],[-73.4634811,-8.396794],[-73.4634194,-8.3914],[-73.4715058,-8.3913082],[-73.4715677,-8.3967021]]]}},{"type":"Feature","id":"AC-Y633-X112","properties":{"id":"AC-Y633-X112","grid_x":112,"grid_y":633,"region":"oeste","centroid":[-73.4594069,-8.3941429],"aggregation":"none","score_unico_gradboost":0.0031579,"score_unico_random_forest":0.0325686,"score_unico_logistic_regression":0.2683415,"score_unico_fuzzy_knn":0.341405,"score_unico_xgboost":0.003604,"score_regional_gradboost":0.0163531,"score_regional_random_forest":0.1092913,"score_regional_logistic_regression":0.3054943,"score_regional_fuzzy_knn":0.0568418,"score_regional_xgboost":0.0232953},"geometry":{"type":"Polygon","coordinates":[[[-73.4634811,-8.396794],[-73.4553944,-8.3968857],[-73.4553328,-8.3914916],[-73.4634194,-8.3914],[-73.4634811,-8.396794]]]}},{"type":"Feature","id":"AC-Y633-X113","properties":{"id":"AC-Y633-X113","grid_x":113,"grid_y":633,"region":"oeste","centroid":[-73.4513203,-8.3942345],"aggregation":"none","score_unico_gradboost":0.0033124,"score_unico_random_forest":0.0357416,"score_unico_logistic_regression":0.2775808,"score_unico_fuzzy_knn":0.3301872,"score_unico_xgboost":0.0038849,"score_regional_gradboost":0.0231189,"score_regional_random_forest":0.1122335,"score_regional_logistic_regression":0.3169349,"score_regional_fuzzy_knn":0.057634,"score_regional_xgboost":0.0275028},"geometry":{"type":"Polygon","coordinates":[[[-73.4553944,-8.3968857],[-73.4473077,-8.3969773],[-73.4472462,-8.3915831],[-73.4553328,-8.3914916],[-73.4553944,-8.3968857]]]}},{"type":"Feature","id":"AC-Y633-X114","properties":{"id":"AC-Y633-X114","grid_x":114,"grid_y":633,"region":"oeste","centroid":[-73.4432336,-8.3943259],"aggregation":"none","score_unico_gradboost":0.0047136,"score_unico_random_forest":0.0598787,"score_unico_logistic_regression":0.3064889,"score_unico_fuzzy_knn":0.295027,"score_unico_xgboost":0.0045516,"score_regional_gradboost":0.0162584,"score_regional_random_forest":0.1069777,"score_regional_logistic_regression":0.3508853,"score_regional_fuzzy_knn":0.0769032,"score_regional_xgboost":0.030912},"geometry":{"type":"Polygon","coordinates":[[[-73.4473077,-8.3969773],[-73.4392209,-8.3970687],[-73.4391595,-8.3916744],[-73.4472462,-8.3915831],[-73.4473077,-8.3969773]]]}},{"type":"Feature","id":"AC-Y633-X115","properties":{"id":"AC-Y633-X115","grid_x":115,"grid_y":633,"region":"oeste","centroid":[-73.4351467,-8.3944172],"aggregation":"none","score_unico_gradboost":0.0047136,"score_unico_random_forest":0.0598787,"score_unico_logistic_regression":0.3069574,"score_unico_fuzzy_knn":0.2866198,"score_unico_xgboost":0.0045516,"score_regional_gradboost":0.0162584,"score_regional_random_forest":0.1067731,"score_regional_logistic_regression":0.3517543,"score_regional_fuzzy_knn":0.0686548,"score_regional_xgboost":0.030912},"geometry":{"type":"Polygon","coordinates":[[[-73.4392209,-8.3970687],[-73.4311339,-8.3971599],[-73.4310726,-8.3917656],[-73.4391595,-8.3916744],[-73.4392209,-8.3970687]]]}},{"type":"Feature","id":"AC-Y634-X109","properties":{"id":"AC-Y634-X109","grid_x":109,"grid_y":634,"region":"oeste","centroid":[-73.4836043,-8.3884732],"aggregation":"none","score_unico_gradboost":0.0031875,"score_unico_random_forest":0.0488877,"score_unico_logistic_regression":0.2252883,"score_unico_fuzzy_knn":0.2043163,"score_unico_xgboost":0.0024695,"score_regional_gradboost":0.0109379,"score_regional_random_forest":0.0505816,"score_regional_logistic_regression":0.2565624,"score_regional_fuzzy_knn":0.0341278,"score_regional_xgboost":0.019024},"geometry":{"type":"Polygon","coordinates":[[[-73.4876784,-8.391124],[-73.4795922,-8.3912162],[-73.4795303,-8.3858222],[-73.4876164,-8.3857301],[-73.4876784,-8.391124]]]}},{"type":"Feature","id":"AC-Y634-X110","properties":{"id":"AC-Y634-X110","grid_x":110,"grid_y":634,"region":"oeste","centroid":[-73.4755181,-8.3885652],"aggregation":"none","score_unico_gradboost":0.0031875,"score_unico_random_forest":0.0516864,"score_unico_logistic_regression":0.2218749,"score_unico_fuzzy_knn":0.1951643,"score_unico_xgboost":0.0029697,"score_regional_gradboost":0.0101342,"score_regional_random_forest":0.051941,"score_regional_logistic_regression":0.2527543,"score_regional_fuzzy_knn":0.0414018,"score_regional_xgboost":0.019024},"geometry":{"type":"Polygon","coordinates":[[[-73.4795922,-8.3912162],[-73.4715058,-8.3913082],[-73.471444,-8.3859142],[-73.4795303,-8.3858222],[-73.4795922,-8.3912162]]]}},{"type":"Feature","id":"AC-Y634-X111","properties":{"id":"AC-Y634-X111","grid_x":111,"grid_y":634,"region":"oeste","centroid":[-73.4674317,-8.3886571],"aggregation":"none","score_unico_gradboost":0.0035608,"score_unico_random_forest":0.0477076,"score_unico_logistic_regression":0.2360006,"score_unico_fuzzy_knn":0.2079302,"score_unico_xgboost":0.0029254,"score_regional_gradboost":0.0101415,"score_regional_random_forest":0.0518091,"score_regional_logistic_regression":0.2703852,"score_regional_fuzzy_knn":0.0505248,"score_regional_xgboost":0.0221513},"geometry":{"type":"Polygon","coordinates":[[[-73.4715058,-8.3913082],[-73.4634194,-8.3914],[-73.4633577,-8.3860059],[-73.471444,-8.3859142],[-73.4715058,-8.3913082]]]}},{"type":"Feature","id":"AC-Y634-X112","properties":{"id":"AC-Y634-X112","grid_x":112,"grid_y":634,"region":"oeste","centroid":[-73.4593453,-8.3887488],"aggregation":"none","score_unico_gradboost":0.0029337,"score_unico_random_forest":0.0336694,"score_unico_logistic_regression":0.2602693,"score_unico_fuzzy_knn":0.3633479,"score_unico_xgboost":0.0032866,"score_regional_gradboost":0.0160549,"score_regional_random_forest":0.1105598,"score_regional_logistic_regression":0.2963605,"score_regional_fuzzy_knn":0.0573297,"score_regional_xgboost":0.0200098},"geometry":{"type":"Polygon","coordinates":[[[-73.4634194,-8.3914],[-73.4553328,-8.3914916],[-73.4552712,-8.3860975],[-73.4633577,-8.3860059],[-73.4634194,-8.3914]]]}},{"type":"Feature","id":"AC-Y634-X113","properties":{"id":"AC-Y634-X113","grid_x":113,"grid_y":634,"region":"oeste","centroid":[-73.4512588,-8.3888403],"aggregation":"none","score_unico_gradboost":0.0031579,"score_unico_random_forest":0.0357703,"score_unico_logistic_regression":0.2759399,"score_unico_fuzzy_knn":0.3484226,"score_unico_xgboost":0.0038191,"score_regional_gradboost":0.0182317,"score_regional_random_forest":0.1125031,"score_regional_logistic_regression":0.3156266,"score_regional_fuzzy_knn":0.0585448,"score_regional_xgboost":0.0232953},"geometry":{"type":"Polygon","coordinates":[[[-73.4553328,-8.3914916],[-73.4472462,-8.3915831],[-73.4471847,-8.3861889],[-73.4552712,-8.3860975],[-73.4553328,-8.3914916]]]}},{"type":"Feature","id":"AC-Y634-X114","properties":{"id":"AC-Y634-X114","grid_x":114,"grid_y":634,"region":"oeste","centroid":[-73.4431721,-8.3889317],"aggregation":"none","score_unico_gradboost":0.0046105,"score_unico_random_forest":0.0525886,"score_unico_logistic_regression":0.2977533,"score_unico_fuzzy_knn":0.307038,"score_unico_xgboost":0.0040112,"score_regional_gradboost":0.0196182,"score_regional_random_forest":0.1125239,"score_regional_logistic_regression":0.341103,"score_regional_fuzzy_knn":0.0515884,"score_regional_xgboost":0.0268957},"geometry":{"type":"Polygon","coordinates":[[[-73.4472462,-8.3915831],[-73.4391595,-8.3916744],[-73.4390981,-8.3862802],[-73.4471847,-8.3861889],[-73.4472462,-8.3915831]]]}},{"type":"Feature","id":"AC-Y634-X115","properties":{"id":"AC-Y634-X115","grid_x":115,"grid_y":634,"region":"oeste","centroid":[-73.4350854,-8.3890229],"aggregation":"none","score_unico_gradboost":0.0049148,"score_unico_random_forest":0.0556862,"score_unico_logistic_regression":0.3292372,"score_unico_fuzzy_knn":0.2468233,"score_unico_xgboost":0.0066737,"score_regional_gradboost":0.0312506,"score_regional_random_forest":0.1310107,"score_regional_logistic_regression":0.379142,"score_regional_fuzzy_knn":0.079672,"score_regional_xgboost":0.0677993},"geometry":{"type":"Polygon","coordinates":[[[-73.4391595,-8.3916744],[-73.4310726,-8.3917656],[-73.4310114,-8.3863713],[-73.4390981,-8.3862802],[-73.4391595,-8.3916744]]]}},{"type":"Feature","id":"AC-Y635-X109","properties":{"id":"AC-Y635-X109","grid_x":109,"grid_y":635,"region":"oeste","centroid":[-73.4835424,-8.3830793],"aggregation":"none","score_unico_gradboost":0.0039893,"score_unico_random_forest":0.048516,"score_unico_logistic_regression":0.212478,"score_unico_fuzzy_knn":0.1865945,"score_unico_xgboost":0.0030248,"score_regional_gradboost":0.0089905,"score_regional_random_forest":0.0485691,"score_regional_logistic_regression":0.2414015,"score_regional_fuzzy_knn":0.040342,"score_regional_xgboost":0.019024},"geometry":{"type":"Polygon","coordinates":[[[-73.4876164,-8.3857301],[-73.4795303,-8.3858222],[-73.4794684,-8.3804283],[-73.4875544,-8.3803363],[-73.4876164,-8.3857301]]]}},{"type":"Feature","id":"AC-Y635-X110","properties":{"id":"AC-Y635-X110","grid_x":110,"grid_y":635,"region":"oeste","centroid":[-73.4754562,-8.3831712],"aggregation":"none","score_unico_gradboost":0.0025357,"score_unico_random_forest":0.0506522,"score_unico_logistic_regression":0.2185363,"score_unico_fuzzy_knn":0.1841873,"score_unico_xgboost":0.0028798,"score_regional_gradboost":0.009115,"score_regional_random_forest":0.050341,"score_regional_logistic_regression":0.2492037,"score_regional_fuzzy_knn":0.0253896,"score_regional_xgboost":0.019024},"geometry":{"type":"Polygon","coordinates":[[[-73.4795303,-8.3858222],[-73.471444,-8.3859142],[-73.4713823,-8.3805202],[-73.4794684,-8.3804283],[-73.4795303,-8.3858222]]]}},{"type":"Feature","id":"AC-Y635-X111","properties":{"id":"AC-Y635-X111","grid_x":111,"grid_y":635,"region":"oeste","centroid":[-73.46737,-8.383263],"aggregation":"none","score_unico_gradboost":0.0035608,"score_unico_random_forest":0.0480892,"score_unico_logistic_regression":0.2305529,"score_unico_fuzzy_knn":0.1805375,"score_unico_xgboost":0.0027958,"score_regional_gradboost":0.0101415,"score_regional_random_forest":0.0515943,"score_regional_logistic_regression":0.2642971,"score_regional_fuzzy_knn":0.0262465,"score_regional_xgboost":0.0221513},"geometry":{"type":"Polygon","coordinates":[[[-73.471444,-8.3859142],[-73.4633577,-8.3860059],[-73.463296,-8.3806119],[-73.4713823,-8.3805202],[-73.471444,-8.3859142]]]}},{"type":"Feature","id":"AC-Y635-X112","properties":{"id":"AC-Y635-X112","grid_x":112,"grid_y":635,"region":"oeste","centroid":[-73.4592837,-8.3833547],"aggregation":"none","score_unico_gradboost":0.0061584,"score_unico_random_forest":0.0621957,"score_unico_logistic_regression":0.2554543,"score_unico_fuzzy_knn":0.1879747,"score_unico_xgboost":0.0030166,"score_regional_gradboost":0.016799,"score_regional_random_forest":0.0638743,"score_regional_logistic_regression":0.2951476,"score_regional_fuzzy_knn":0.0445843,"score_regional_xgboost":0.0306039},"geometry":{"type":"Polygon","coordinates":[[[-73.4633577,-8.3860059],[-73.4552712,-8.3860975],[-73.4552097,-8.3807034],[-73.463296,-8.3806119],[-73.4633577,-8.3860059]]]}},{"type":"Feature","id":"AC-Y635-X113","properties":{"id":"AC-Y635-X113","grid_x":113,"grid_y":635,"region":"oeste","centroid":[-73.4511973,-8.3834462],"aggregation":"none","score_unico_gradboost":0.0035673,"score_unico_random_forest":0.0406492,"score_unico_logistic_regression":0.2969243,"score_unico_fuzzy_knn":0.2935105,"score_unico_xgboost":0.0037769,"score_regional_gradboost":0.0269771,"score_regional_random_forest":0.1125239,"score_regional_logistic_regression":0.3416737,"score_regional_fuzzy_knn":0.0519842,"score_regional_xgboost":0.0275028},"geometry":{"type":"Polygon","coordinates":[[[-73.4552712,-8.3860975],[-73.4471847,-8.3861889],[-73.4471233,-8.3807948],[-73.4552097,-8.3807034],[-73.4552712,-8.3860975]]]}},{"type":"Feature","id":"AC-Y635-X114","properties":{"id":"AC-Y635-X114","grid_x":114,"grid_y":635,"region":"oeste","centroid":[-73.4431107,-8.3835375],"aggregation":"none","score_unico_gradboost":0.0035565,"score_unico_random_forest":0.0528328,"score_unico_logistic_regression":0.2960595,"score_unico_fuzzy_knn":0.3143367,"score_unico_xgboost":0.0046527,"score_regional_gradboost":0.0196182,"score_regional_random_forest":0.112613,"score_regional_logistic_regression":0.3397983,"score_regional_fuzzy_knn":0.0525724,"score_regional_xgboost":0.0268957},"geometry":{"type":"Polygon","coordinates":[[[-73.4471847,-8.3861889],[-73.4390981,-8.3862802],[-73.4390368,-8.380886],[-73.4471233,-8.3807948],[-73.4471847,-8.3861889]]]}},{"type":"Feature","id":"AC-Y635-X115","properties":{"id":"AC-Y635-X115","grid_x":115,"grid_y":635,"region":"oeste","centroid":[-73.4350241,-8.3836286],"aggregation":"none","score_unico_gradboost":0.0035565,"score_unico_random_forest":0.0528328,"score_unico_logistic_regression":0.2965416,"score_unico_fuzzy_knn":0.3216716,"score_unico_xgboost":0.0046527,"score_regional_gradboost":0.0237337,"score_regional_random_forest":0.111601,"score_regional_logistic_regression":0.340719,"score_regional_fuzzy_knn":0.0706694,"score_regional_xgboost":0.0315804},"geometry":{"type":"Polygon","coordinates":[[[-73.4390981,-8.3862802],[-73.4310114,-8.3863713],[-73.4309502,-8.380977],[-73.4390368,-8.380886],[-73.4390981,-8.3862802]]]}},{"type":"Feature","id":"AC-Y636-X107","properties":{"id":"AC-Y636-X107","grid_x":107,"grid_y":636,"region":"oeste","centroid":[-73.4996523,-8.377501],"aggregation":"none","score_unico_gradboost":0.0034311,"score_unico_random_forest":0.046697,"score_unico_logistic_regression":0.2311222,"score_unico_fuzzy_knn":0.202538,"score_unico_xgboost":0.0025281,"score_regional_gradboost":0.0111421,"score_regional_random_forest":0.0512639,"score_regional_logistic_regression":0.2638345,"score_regional_fuzzy_knn":0.0423455,"score_regional_xgboost":0.0221513},"geometry":{"type":"Polygon","coordinates":[[[-73.5037263,-8.3801517],[-73.4956404,-8.3802441],[-73.4955784,-8.3748503],[-73.5036641,-8.374758],[-73.5037263,-8.3801517]]]}},{"type":"Feature","id":"AC-Y636-X108","properties":{"id":"AC-Y636-X108","grid_x":108,"grid_y":636,"region":"oeste","centroid":[-73.4915664,-8.3775933],"aggregation":"none","score_unico_gradboost":0.0045373,"score_unico_random_forest":0.0493356,"score_unico_logistic_regression":0.2498431,"score_unico_fuzzy_knn":0.1964775,"score_unico_xgboost":0.0030371,"score_regional_gradboost":0.0165442,"score_regional_random_forest":0.06102,"score_regional_logistic_regression":0.2872064,"score_regional_fuzzy_knn":0.0603116,"score_regional_xgboost":0.0306039},"geometry":{"type":"Polygon","coordinates":[[[-73.4956404,-8.3802441],[-73.4875544,-8.3803363],[-73.4874925,-8.3749424],[-73.4955784,-8.3748503],[-73.4956404,-8.3802441]]]}},{"type":"Feature","id":"AC-Y636-X109","properties":{"id":"AC-Y636-X109","grid_x":109,"grid_y":636,"region":"oeste","centroid":[-73.4834805,-8.3776853],"aggregation":"none","score_unico_gradboost":0.0035608,"score_unico_random_forest":0.0470287,"score_unico_logistic_regression":0.2281687,"score_unico_fuzzy_knn":0.1818468,"score_unico_xgboost":0.0027801,"score_regional_gradboost":0.0109379,"score_regional_random_forest":0.0509664,"score_regional_logistic_regression":0.2611467,"score_regional_fuzzy_knn":0.0416059,"score_regional_xgboost":0.0207779},"geometry":{"type":"Polygon","coordinates":[[[-73.4875544,-8.3803363],[-73.4794684,-8.3804283],[-73.4794066,-8.3750344],[-73.4874925,-8.3749424],[-73.4875544,-8.3803363]]]}},{"type":"Feature","id":"AC-Y636-X110","properties":{"id":"AC-Y636-X110","grid_x":110,"grid_y":636,"region":"oeste","centroid":[-73.4753945,-8.3777773],"aggregation":"none","score_unico_gradboost":0.0035608,"score_unico_random_forest":0.0480892,"score_unico_logistic_regression":0.2305973,"score_unico_fuzzy_knn":0.1787318,"score_unico_xgboost":0.0027958,"score_regional_gradboost":0.0101415,"score_regional_random_forest":0.0515943,"score_regional_logistic_regression":0.2645514,"score_regional_fuzzy_knn":0.0262729,"score_regional_xgboost":0.0221513},"geometry":{"type":"Polygon","coordinates":[[[-73.4794684,-8.3804283],[-73.4713823,-8.3805202],[-73.4713205,-8.3751262],[-73.4794066,-8.3750344],[-73.4794684,-8.3804283]]]}},{"type":"Feature","id":"AC-Y636-X111","properties":{"id":"AC-Y636-X111","grid_x":111,"grid_y":636,"region":"oeste","centroid":[-73.4673083,-8.377869],"aggregation":"none","score_unico_gradboost":0.004289,"score_unico_random_forest":0.0463372,"score_unico_logistic_regression":0.2430845,"score_unico_fuzzy_knn":0.172852,"score_unico_xgboost":0.0028563,"score_regional_gradboost":0.01603,"score_regional_random_forest":0.0575276,"score_regional_logistic_regression":0.2802721,"score_regional_fuzzy_knn":0.0194642,"score_regional_xgboost":0.0306039},"geometry":{"type":"Polygon","coordinates":[[[-73.4713823,-8.3805202],[-73.463296,-8.3806119],[-73.4632344,-8.3752178],[-73.4713206,-8.3751262],[-73.4713823,-8.3805202]]]}},{"type":"Feature","id":"AC-Y636-X112","properties":{"id":"AC-Y636-X112","grid_x":112,"grid_y":636,"region":"oeste","centroid":[-73.4592221,-8.3779606],"aggregation":"none","score_unico_gradboost":0.0047533,"score_unico_random_forest":0.0628086,"score_unico_logistic_regression":0.2645444,"score_unico_fuzzy_knn":0.1393026,"score_unico_xgboost":0.0030495,"score_regional_gradboost":0.016799,"score_regional_random_forest":0.0728846,"score_regional_logistic_regression":0.3069409,"score_regional_fuzzy_knn":0.0460605,"score_regional_xgboost":0.0306039},"geometry":{"type":"Polygon","coordinates":[[[-73.463296,-8.3806119],[-73.4552097,-8.3807034],[-73.4551482,-8.3753093],[-73.4632344,-8.3752178],[-73.463296,-8.3806119]]]}},{"type":"Feature","id":"AC-Y636-X113","properties":{"id":"AC-Y636-X113","grid_x":113,"grid_y":636,"region":"oeste","centroid":[-73.4511358,-8.378052],"aggregation":"none","score_unico_gradboost":0.0027151,"score_unico_random_forest":0.0436293,"score_unico_logistic_regression":0.2929325,"score_unico_fuzzy_knn":0.3016809,"score_unico_xgboost":0.0044468,"score_regional_gradboost":0.0269771,"score_regional_random_forest":0.112613,"score_regional_logistic_regression":0.3376035,"score_regional_fuzzy_knn":0.0615115,"score_regional_xgboost":0.0275028},"geometry":{"type":"Polygon","coordinates":[[[-73.4552097,-8.3807034],[-73.4471233,-8.3807948],[-73.4470619,-8.3754006],[-73.4551482,-8.3753093],[-73.4552097,-8.3807034]]]}},{"type":"Feature","id":"AC-Y636-X114","properties":{"id":"AC-Y636-X114","grid_x":114,"grid_y":636,"region":"oeste","centroid":[-73.4430494,-8.3781433],"aggregation":"none","score_unico_gradboost":0.0026029,"score_unico_random_forest":0.0467946,"score_unico_logistic_regression":0.2875247,"score_unico_fuzzy_knn":0.3330667,"score_unico_xgboost":0.004923,"score_regional_gradboost":0.0226545,"score_regional_random_forest":0.1155695,"score_regional_logistic_regression":0.3302716,"score_regional_fuzzy_knn":0.0966354,"score_regional_xgboost":0.0315804},"geometry":{"type":"Polygon","coordinates":[[[-73.4471233,-8.3807948],[-73.4390368,-8.380886],[-73.4389755,-8.3754917],[-73.4470619,-8.3754006],[-73.4471233,-8.3807948]]]}},{"type":"Feature","id":"AC-Y636-X115","properties":{"id":"AC-Y636-X115","grid_x":115,"grid_y":636,"region":"oeste","centroid":[-73.4349629,-8.3782344],"aggregation":"none","score_unico_gradboost":0.0055861,"score_unico_random_forest":0.0519555,"score_unico_logistic_regression":0.306526,"score_unico_fuzzy_knn":0.2778775,"score_unico_xgboost":0.0046574,"score_regional_gradboost":0.0237337,"score_regional_random_forest":0.1085308,"score_regional_logistic_regression":0.3535151,"score_regional_fuzzy_knn":0.125487,"score_regional_xgboost":0.0315804},"geometry":{"type":"Polygon","coordinates":[[[-73.4390368,-8.380886],[-73.4309502,-8.380977],[-73.430889,-8.3755827],[-73.4389755,-8.3754917],[-73.4390368,-8.380886]]]}},{"type":"Feature","id":"AC-Y637-X106","properties":{"id":"AC-Y637-X106","grid_x":106,"grid_y":637,"region":"oeste","centroid":[-73.5076759,-8.3720149],"aggregation":"none","score_unico_gradboost":0.0034311,"score_unico_random_forest":0.046697,"score_unico_logistic_regression":0.2330395,"score_unico_fuzzy_knn":0.202271,"score_unico_xgboost":0.0026662,"score_regional_gradboost":0.0111421,"score_regional_random_forest":0.0512639,"score_regional_logistic_regression":0.2661508,"score_regional_fuzzy_knn":0.042515,"score_regional_xgboost":0.0221513},"geometry":{"type":"Polygon","coordinates":[[[-73.5117498,-8.3746655],[-73.5036641,-8.374758],[-73.503602,-8.3693642],[-73.5116875,-8.3692718],[-73.5117498,-8.3746655]]]}},{"type":"Feature","id":"AC-Y637-X107","properties":{"id":"AC-Y637-X107","grid_x":107,"grid_y":637,"region":"oeste","centroid":[-73.4995902,-8.3721072],"aggregation":"none","score_unico_gradboost":0.004289,"score_unico_random_forest":0.0463372,"score_unico_logistic_regression":0.2415862,"score_unico_fuzzy_knn":0.1981605,"score_unico_xgboost":0.002851,"score_regional_gradboost":0.0157866,"score_regional_random_forest":0.055739,"score_regional_logistic_regression":0.2771324,"score_regional_fuzzy_knn":0.051172,"score_regional_xgboost":0.0306039},"geometry":{"type":"Polygon","coordinates":[[[-73.5036641,-8.374758],[-73.4955784,-8.3748503],[-73.4955163,-8.3694564],[-73.503602,-8.3693642],[-73.5036641,-8.374758]]]}},{"type":"Feature","id":"AC-Y637-X108","properties":{"id":"AC-Y637-X108","grid_x":108,"grid_y":637,"region":"oeste","centroid":[-73.4915045,-8.3721994],"aggregation":"none","score_unico_gradboost":0.0061584,"score_unico_random_forest":0.0621957,"score_unico_logistic_regression":0.2545206,"score_unico_fuzzy_knn":0.1915949,"score_unico_xgboost":0.0030166,"score_regional_gradboost":0.0165442,"score_regional_random_forest":0.0620857,"score_regional_logistic_regression":0.2934785,"score_regional_fuzzy_knn":0.0607708,"score_regional_xgboost":0.0306039},"geometry":{"type":"Polygon","coordinates":[[[-73.4955784,-8.3748503],[-73.4874925,-8.3749424],[-73.4874306,-8.3695485],[-73.4955163,-8.3694564],[-73.4955784,-8.3748503]]]}},{"type":"Feature","id":"AC-Y637-X109","properties":{"id":"AC-Y637-X109","grid_x":109,"grid_y":637,"region":"oeste","centroid":[-73.4834186,-8.3722914],"aggregation":"none","score_unico_gradboost":0.0061772,"score_unico_random_forest":0.060749,"score_unico_logistic_regression":0.2571629,"score_unico_fuzzy_knn":0.1787195,"score_unico_xgboost":0.0029312,"score_regional_gradboost":0.0150658,"score_regional_random_forest":0.0631069,"score_regional_logistic_regression":0.2972282,"score_regional_fuzzy_knn":0.0447427,"score_regional_xgboost":0.0306039},"geometry":{"type":"Polygon","coordinates":[[[-73.4874925,-8.3749424],[-73.4794066,-8.3750344],[-73.4793448,-8.3696404],[-73.4874306,-8.3695485],[-73.4874925,-8.3749424]]]}},{"type":"Feature","id":"AC-Y637-X110","properties":{"id":"AC-Y637-X110","grid_x":110,"grid_y":637,"region":"oeste","centroid":[-73.4753327,-8.3723833],"aggregation":"none","score_unico_gradboost":0.0028128,"score_unico_random_forest":0.0477076,"score_unico_logistic_regression":0.239066,"score_unico_fuzzy_knn":0.1719843,"score_unico_xgboost":0.0029048,"score_regional_gradboost":0.0113147,"score_regional_random_forest":0.0546775,"score_regional_logistic_regression":0.2755351,"score_regional_fuzzy_knn":0.0193052,"score_regional_xgboost":0.0221513},"geometry":{"type":"Polygon","coordinates":[[[-73.4794066,-8.3750344],[-73.4713205,-8.3751262],[-73.4712589,-8.3697322],[-73.4793448,-8.3696404],[-73.4794066,-8.3750344]]]}},{"type":"Feature","id":"AC-Y637-X111","properties":{"id":"AC-Y637-X111","grid_x":111,"grid_y":637,"region":"oeste","centroid":[-73.4672467,-8.372475],"aggregation":"none","score_unico_gradboost":0.0047533,"score_unico_random_forest":0.0625216,"score_unico_logistic_regression":0.2624643,"score_unico_fuzzy_knn":0.1292621,"score_unico_xgboost":0.0030502,"score_regional_gradboost":0.016799,"score_regional_random_forest":0.0717125,"score_regional_logistic_regression":0.3046724,"score_regional_fuzzy_knn":0.0461069,"score_regional_xgboost":0.0306039},"geometry":{"type":"Polygon","coordinates":[[[-73.4713206,-8.3751262],[-73.4632344,-8.3752178],[-73.4631729,-8.3698237],[-73.4712589,-8.3697322],[-73.4713206,-8.3751262]]]}},{"type":"Feature","id":"AC-Y637-X112","properties":{"id":"AC-Y637-X112","grid_x":112,"grid_y":637,"region":"oeste","centroid":[-73.4591606,-8.3725665],"aggregation":"none","score_unico_gradboost":0.003371,"score_unico_random_forest":0.0463654,"score_unico_logistic_regression":0.2502771,"score_unico_fuzzy_knn":0.1208699,"score_unico_xgboost":0.0037697,"score_regional_gradboost":0.016799,"score_regional_random_forest":0.0641646,"score_regional_logistic_regression":0.2901482,"score_regional_fuzzy_knn":0.0527905,"score_regional_xgboost":0.0306039},"geometry":{"type":"Polygon","coordinates":[[[-73.4632344,-8.3752178],[-73.4551482,-8.3753093],[-73.4550868,-8.3699151],[-73.4631729,-8.3698237],[-73.4632344,-8.3752178]]]}},{"type":"Feature","id":"AC-Y637-X113","properties":{"id":"AC-Y637-X113","grid_x":113,"grid_y":637,"region":"oeste","centroid":[-73.4510744,-8.3726579],"aggregation":"none","score_unico_gradboost":0.0026029,"score_unico_random_forest":0.0354047,"score_unico_logistic_regression":0.2867093,"score_unico_fuzzy_knn":0.3103399,"score_unico_xgboost":0.0045039,"score_regional_gradboost":0.0311161,"score_regional_random_forest":0.1155695,"score_regional_logistic_regression":0.3308424,"score_regional_fuzzy_knn":0.1143941,"score_regional_xgboost":0.0322897},"geometry":{"type":"Polygon","coordinates":[[[-73.4551482,-8.3753093],[-73.4470619,-8.3754006],[-73.4470006,-8.3700064],[-73.4550868,-8.3699151],[-73.4551482,-8.3753093]]]}},{"type":"Feature","id":"AC-Y637-X114","properties":{"id":"AC-Y637-X114","grid_x":114,"grid_y":637,"region":"oeste","centroid":[-73.4429881,-8.3727491],"aggregation":"none","score_unico_gradboost":0.0057444,"score_unico_random_forest":0.0569702,"score_unico_logistic_regression":0.3090483,"score_unico_fuzzy_knn":0.2644334,"score_unico_xgboost":0.0052005,"score_regional_gradboost":0.0196832,"score_regional_random_forest":0.1042706,"score_regional_logistic_regression":0.3570159,"score_regional_fuzzy_knn":0.126967,"score_regional_xgboost":0.0362701},"geometry":{"type":"Polygon","coordinates":[[[-73.4470619,-8.3754006],[-73.4389755,-8.3754917],[-73.4389143,-8.3700975],[-73.4470006,-8.3700064],[-73.4470619,-8.3754006]]]}},{"type":"Feature","id":"AC-Y637-X115","properties":{"id":"AC-Y637-X115","grid_x":115,"grid_y":637,"region":"oeste","centroid":[-73.4349017,-8.3728401],"aggregation":"none","score_unico_gradboost":0.0041021,"score_unico_random_forest":0.046878,"score_unico_logistic_regression":0.2909248,"score_unico_fuzzy_knn":0.3257292,"score_unico_xgboost":0.005978,"score_regional_gradboost":0.0237337,"score_regional_random_forest":0.1164959,"score_regional_logistic_regression":0.3355067,"score_regional_fuzzy_knn":0.1343092,"score_regional_xgboost":0.0315804},"geometry":{"type":"Polygon","coordinates":[[[-73.4389755,-8.3754917],[-73.430889,-8.3755827],[-73.4308279,-8.3701884],[-73.4389143,-8.3700975],[-73.4389755,-8.3754917]]]}},{"type":"Feature","id":"AC-Y638-X105","properties":{"id":"AC-Y638-X105","grid_x":105,"grid_y":638,"region":"oeste","centroid":[-73.5156992,-8.3665287],"aggregation":"none","score_unico_gradboost":0.0051453,"score_unico_random_forest":0.0621957,"score_unico_logistic_regression":0.2533417,"score_unico_fuzzy_knn":0.2150162,"score_unico_xgboost":0.0027231,"score_regional_gradboost":0.0165442,"score_regional_random_forest":0.0620857,"score_regional_logistic_regression":0.290847,"score_regional_fuzzy_knn":0.0689269,"score_regional_xgboost":0.0306039},"geometry":{"type":"Polygon","coordinates":[[[-73.519773,-8.3691792],[-73.5116875,-8.3692718],[-73.5116254,-8.3638781],[-73.5197107,-8.3637856],[-73.519773,-8.3691792]]]}},{"type":"Feature","id":"AC-Y638-X106","properties":{"id":"AC-Y638-X106","grid_x":106,"grid_y":638,"region":"oeste","centroid":[-73.5076137,-8.3666211],"aggregation":"none","score_unico_gradboost":0.0035608,"score_unico_random_forest":0.0480892,"score_unico_logistic_regression":0.2295402,"score_unico_fuzzy_knn":0.2004414,"score_unico_xgboost":0.0024516,"score_regional_gradboost":0.0111421,"score_regional_random_forest":0.0512639,"score_regional_logistic_regression":0.2623423,"score_regional_fuzzy_knn":0.042012,"score_regional_xgboost":0.0221513},"geometry":{"type":"Polygon","coordinates":[[[-73.5116875,-8.3692718],[-73.503602,-8.3693642],[-73.5035399,-8.3639704],[-73.5116254,-8.3638781],[-73.5116875,-8.3692718]]]}},{"type":"Feature","id":"AC-Y638-X107","properties":{"id":"AC-Y638-X107","grid_x":107,"grid_y":638,"region":"oeste","centroid":[-73.4995282,-8.3667134],"aggregation":"none","score_unico_gradboost":0.0061772,"score_unico_random_forest":0.056936,"score_unico_logistic_regression":0.2586984,"score_unico_fuzzy_knn":0.1821689,"score_unico_xgboost":0.0029124,"score_regional_gradboost":0.0182828,"score_regional_random_forest":0.0635272,"score_regional_logistic_regression":0.2985796,"score_regional_fuzzy_knn":0.061402,"score_regional_xgboost":0.0306039},"geometry":{"type":"Polygon","coordinates":[[[-73.503602,-8.3693642],[-73.4955163,-8.3694564],[-73.4954544,-8.3640626],[-73.5035399,-8.3639704],[-73.503602,-8.3693642]]]}},{"type":"Feature","id":"AC-Y638-X108","properties":{"id":"AC-Y638-X108","grid_x":108,"grid_y":638,"region":"oeste","centroid":[-73.4914425,-8.3668056],"aggregation":"none","score_unico_gradboost":0.0042668,"score_unico_random_forest":0.0473227,"score_unico_logistic_regression":0.2446373,"score_unico_fuzzy_knn":0.173537,"score_unico_xgboost":0.002986,"score_regional_gradboost":0.014375,"score_regional_random_forest":0.056667,"score_regional_logistic_regression":0.2819447,"score_regional_fuzzy_knn":0.0273371,"score_regional_xgboost":0.0306039},"geometry":{"type":"Polygon","coordinates":[[[-73.4955163,-8.3694564],[-73.4874306,-8.3695485],[-73.4873688,-8.3641546],[-73.4954544,-8.3640626],[-73.4955163,-8.3694564]]]}},{"type":"Feature","id":"AC-Y638-X109","properties":{"id":"AC-Y638-X109","grid_x":109,"grid_y":638,"region":"oeste","centroid":[-73.4833568,-8.3668975],"aggregation":"none","score_unico_gradboost":0.003371,"score_unico_random_forest":0.0467774,"score_unico_logistic_regression":0.2472267,"score_unico_fuzzy_knn":0.1603875,"score_unico_xgboost":0.0030849,"score_regional_gradboost":0.01603,"score_regional_random_forest":0.0624303,"score_regional_logistic_regression":0.2856597,"score_regional_fuzzy_knn":0.0278967,"score_regional_xgboost":0.0306039},"geometry":{"type":"Polygon","coordinates":[[[-73.4874306,-8.3695485],[-73.4793448,-8.3696404],[-73.479283,-8.3642465],[-73.4873688,-8.3641546],[-73.4874306,-8.3695485]]]}},{"type":"Feature","id":"AC-Y638-X110","properties":{"id":"AC-Y638-X110","grid_x":110,"grid_y":638,"region":"oeste","centroid":[-73.475271,-8.3669893],"aggregation":"none","score_unico_gradboost":0.0028128,"score_unico_random_forest":0.046697,"score_unico_logistic_regression":0.235564,"score_unico_fuzzy_knn":0.1669586,"score_unico_xgboost":0.0029987,"score_regional_gradboost":0.0113147,"score_regional_random_forest":0.0530525,"score_regional_logistic_regression":0.2718448,"score_regional_fuzzy_knn":0.0193676,"score_regional_xgboost":0.0221513},"geometry":{"type":"Polygon","coordinates":[[[-73.4793448,-8.3696404],[-73.4712589,-8.3697322],[-73.4711972,-8.3643381],[-73.479283,-8.3642465],[-73.4793448,-8.3696404]]]}},{"type":"Feature","id":"AC-Y638-X111","properties":{"id":"AC-Y638-X111","grid_x":111,"grid_y":638,"region":"oeste","centroid":[-73.4671851,-8.3670809],"aggregation":"none","score_unico_gradboost":0.0024944,"score_unico_random_forest":0.0310251,"score_unico_logistic_regression":0.2728734,"score_unico_fuzzy_knn":0.3514536,"score_unico_xgboost":0.0043297,"score_regional_gradboost":0.0182317,"score_regional_random_forest":0.1117422,"score_regional_logistic_regression":0.3139505,"score_regional_fuzzy_knn":0.0954527,"score_regional_xgboost":0.0232953},"geometry":{"type":"Polygon","coordinates":[[[-73.4712589,-8.3697322],[-73.4631729,-8.3698237],[-73.4631113,-8.3644297],[-73.4711972,-8.3643381],[-73.4712589,-8.3697322]]]}},{"type":"Feature","id":"AC-Y638-X112","properties":{"id":"AC-Y638-X112","grid_x":112,"grid_y":638,"region":"oeste","centroid":[-73.4590991,-8.3671724],"aggregation":"none","score_unico_gradboost":0.0027151,"score_unico_random_forest":0.0353448,"score_unico_logistic_regression":0.2913693,"score_unico_fuzzy_knn":0.2965014,"score_unico_xgboost":0.0046273,"score_regional_gradboost":0.0325849,"score_regional_random_forest":0.1147683,"score_regional_logistic_regression":0.3368464,"score_regional_fuzzy_knn":0.1242701,"score_regional_xgboost":0.0322897},"geometry":{"type":"Polygon","coordinates":[[[-73.4631729,-8.3698237],[-73.4550868,-8.3699151],[-73.4550254,-8.364521],[-73.4631113,-8.3644297],[-73.4631729,-8.3698237]]]}},{"type":"Feature","id":"AC-Y638-X113","properties":{"id":"AC-Y638-X113","grid_x":113,"grid_y":638,"region":"oeste","centroid":[-73.451013,-8.3672637],"aggregation":"none","score_unico_gradboost":0.0067187,"score_unico_random_forest":0.0533341,"score_unico_logistic_regression":0.3105624,"score_unico_fuzzy_knn":0.2323046,"score_unico_xgboost":0.0049839,"score_regional_gradboost":0.0273314,"score_regional_random_forest":0.1093963,"score_regional_logistic_regression":0.3604548,"score_regional_fuzzy_knn":0.1279962,"score_regional_xgboost":0.0402853},"geometry":{"type":"Polygon","coordinates":[[[-73.4550868,-8.3699151],[-73.4470006,-8.3700064],[-73.4469393,-8.3646122],[-73.4550254,-8.364521],[-73.4550868,-8.3699151]]]}},{"type":"Feature","id":"AC-Y638-X114","properties":{"id":"AC-Y638-X114","grid_x":114,"grid_y":638,"region":"oeste","centroid":[-73.4429268,-8.3673549],"aggregation":"none","score_unico_gradboost":0.0055861,"score_unico_random_forest":0.0539759,"score_unico_logistic_regression":0.3050001,"score_unico_fuzzy_knn":0.2546306,"score_unico_xgboost":0.0055526,"score_regional_gradboost":0.0237337,"score_regional_random_forest":0.1092901,"score_regional_logistic_regression":0.3529874,"score_regional_fuzzy_knn":0.1285252,"score_regional_xgboost":0.0315804},"geometry":{"type":"Polygon","coordinates":[[[-73.4470006,-8.3700064],[-73.4389143,-8.3700975],[-73.4388531,-8.3647032],[-73.4469393,-8.3646122],[-73.4470006,-8.3700064]]]}},{"type":"Feature","id":"AC-Y638-X115","properties":{"id":"AC-Y638-X115","grid_x":115,"grid_y":638,"region":"oeste","centroid":[-73.4348405,-8.3674458],"aggregation":"none","score_unico_gradboost":0.0059494,"score_unico_random_forest":0.0481787,"score_unico_logistic_regression":0.3031594,"score_unico_fuzzy_knn":0.2469423,"score_unico_xgboost":0.0054047,"score_regional_gradboost":0.0280095,"score_regional_random_forest":0.1093956,"score_regional_logistic_regression":0.351112,"score_regional_fuzzy_knn":0.1290863,"score_regional_xgboost":0.0315804},"geometry":{"type":"Polygon","coordinates":[[[-73.4389143,-8.3700975],[-73.4308279,-8.3701884],[-73.4307668,-8.3647941],[-73.4388531,-8.3647032],[-73.4389143,-8.3700975]]]}},{"type":"Feature","id":"AC-Y639-X106","properties":{"id":"AC-Y639-X106","grid_x":106,"grid_y":639,"region":"oeste","centroid":[-73.5075516,-8.3612274],"aggregation":"none","score_unico_gradboost":0.0073854,"score_unico_random_forest":0.0763979,"score_unico_logistic_regression":0.2737652,"score_unico_fuzzy_knn":0.1791318,"score_unico_xgboost":0.0035032,"score_regional_gradboost":0.0327072,"score_regional_random_forest":0.0881658,"score_regional_logistic_regression":0.3168735,"score_regional_fuzzy_knn":0.0720013,"score_regional_xgboost":0.0445026},"geometry":{"type":"Polygon","coordinates":[[[-73.5116254,-8.3638781],[-73.5035399,-8.3639704],[-73.5034779,-8.3585767],[-73.5115632,-8.3584844],[-73.5116254,-8.3638781]]]}},{"type":"Feature","id":"AC-Y639-X107","properties":{"id":"AC-Y639-X107","grid_x":107,"grid_y":639,"region":"oeste","centroid":[-73.4994662,-8.3613196],"aggregation":"none","score_unico_gradboost":0.0073854,"score_unico_random_forest":0.0824848,"score_unico_logistic_regression":0.276584,"score_unico_fuzzy_knn":0.1573898,"score_unico_xgboost":0.0041635,"score_regional_gradboost":0.0367515,"score_regional_random_forest":0.1092159,"score_regional_logistic_regression":0.3209615,"score_regional_fuzzy_knn":0.0557866,"score_regional_xgboost":0.0897057},"geometry":{"type":"Polygon","coordinates":[[[-73.5035399,-8.3639704],[-73.4954544,-8.3640626],[-73.4953925,-8.3586688],[-73.5034779,-8.3585767],[-73.5035399,-8.3639704]]]}},{"type":"Feature","id":"AC-Y639-X108","properties":{"id":"AC-Y639-X108","grid_x":108,"grid_y":639,"region":"oeste","centroid":[-73.4913806,-8.3614117],"aggregation":"none","score_unico_gradboost":0.0035849,"score_unico_random_forest":0.0498962,"score_unico_logistic_regression":0.2513381,"score_unico_fuzzy_knn":0.158933,"score_unico_xgboost":0.0031025,"score_regional_gradboost":0.016799,"score_regional_random_forest":0.0628086,"score_regional_logistic_regression":0.2907283,"score_regional_fuzzy_knn":0.0282794,"score_regional_xgboost":0.0306039},"geometry":{"type":"Polygon","coordinates":[[[-73.4954544,-8.3640626],[-73.4873688,-8.3641546],[-73.487307,-8.3587607],[-73.4953925,-8.3586688],[-73.4954544,-8.3640626]]]}},{"type":"Feature","id":"AC-Y639-X109","properties":{"id":"AC-Y639-X109","grid_x":109,"grid_y":639,"region":"oeste","centroid":[-73.483295,-8.3615036],"aggregation":"none","score_unico_gradboost":0.0047533,"score_unico_random_forest":0.0633692,"score_unico_logistic_regression":0.2646367,"score_unico_fuzzy_knn":0.1181125,"score_unico_xgboost":0.0033071,"score_regional_gradboost":0.016799,"score_regional_random_forest":0.0730893,"score_regional_logistic_regression":0.307615,"score_regional_fuzzy_knn":0.0549782,"score_regional_xgboost":0.0306039},"geometry":{"type":"Polygon","coordinates":[[[-73.4873688,-8.3641546],[-73.479283,-8.3642465],[-73.4792213,-8.3588525],[-73.487307,-8.3587607],[-73.4873688,-8.3641546]]]}},{"type":"Feature","id":"AC-Y639-X110","properties":{"id":"AC-Y639-X110","grid_x":110,"grid_y":639,"region":"oeste","centroid":[-73.4752093,-8.3615953],"aggregation":"none","score_unico_gradboost":0.005718,"score_unico_random_forest":0.0684385,"score_unico_logistic_regression":0.2850955,"score_unico_fuzzy_knn":0.0767815,"score_unico_xgboost":0.0056903,"score_regional_gradboost":0.0408759,"score_regional_random_forest":0.1192367,"score_regional_logistic_regression":0.3332029,"score_regional_fuzzy_knn":0.0680454,"score_regional_xgboost":0.0897057},"geometry":{"type":"Polygon","coordinates":[[[-73.479283,-8.3642465],[-73.4711972,-8.3643381],[-73.4711357,-8.3589441],[-73.4792213,-8.3588525],[-73.479283,-8.3642465]]]}},{"type":"Feature","id":"AC-Y639-X111","properties":{"id":"AC-Y639-X111","grid_x":111,"grid_y":639,"region":"oeste","centroid":[-73.4671235,-8.3616869],"aggregation":"none","score_unico_gradboost":0.0035565,"score_unico_random_forest":0.0390493,"score_unico_logistic_regression":0.2960272,"score_unico_fuzzy_knn":0.2830254,"score_unico_xgboost":0.0045117,"score_regional_gradboost":0.0325849,"score_regional_random_forest":0.111601,"score_regional_logistic_regression":0.3427448,"score_regional_fuzzy_knn":0.1254409,"score_regional_xgboost":0.0322897},"geometry":{"type":"Polygon","coordinates":[[[-73.4711972,-8.3643381],[-73.4631113,-8.3644297],[-73.4630499,-8.3590356],[-73.4711357,-8.3589441],[-73.4711972,-8.3643381]]]}},{"type":"Feature","id":"AC-Y639-X112","properties":{"id":"AC-Y639-X112","grid_x":112,"grid_y":639,"region":"oeste","centroid":[-73.4590376,-8.3617783],"aggregation":"none","score_unico_gradboost":0.0042786,"score_unico_random_forest":0.0415418,"score_unico_logistic_regression":0.2942932,"score_unico_fuzzy_knn":0.265307,"score_unico_xgboost":0.0048271,"score_regional_gradboost":0.0325849,"score_regional_random_forest":0.1126074,"score_regional_logistic_regression":0.3411715,"score_regional_fuzzy_knn":0.135227,"score_regional_xgboost":0.0322897},"geometry":{"type":"Polygon","coordinates":[[[-73.4631113,-8.3644297],[-73.4550254,-8.364521],[-73.454964,-8.3591269],[-73.4630499,-8.3590356],[-73.4631113,-8.3644297]]]}},{"type":"Feature","id":"AC-Y639-X113","properties":{"id":"AC-Y639-X113","grid_x":113,"grid_y":639,"region":"oeste","centroid":[-73.4509517,-8.3618696],"aggregation":"none","score_unico_gradboost":0.0041021,"score_unico_random_forest":0.0333172,"score_unico_logistic_regression":0.2879768,"score_unico_fuzzy_knn":0.2765165,"score_unico_xgboost":0.0052457,"score_regional_gradboost":0.036672,"score_regional_random_forest":0.1156207,"score_regional_logistic_regression":0.3339823,"score_regional_fuzzy_knn":0.1353823,"score_regional_xgboost":0.0322897},"geometry":{"type":"Polygon","coordinates":[[[-73.4550254,-8.364521],[-73.4469393,-8.3646122],[-73.446878,-8.359218],[-73.454964,-8.3591269],[-73.4550254,-8.364521]]]}},{"type":"Feature","id":"AC-Y639-X114","properties":{"id":"AC-Y639-X114","grid_x":114,"grid_y":639,"region":"oeste","centroid":[-73.4428656,-8.3619606],"aggregation":"none","score_unico_gradboost":0.0104008,"score_unico_random_forest":0.0481787,"score_unico_logistic_regression":0.3033313,"score_unico_fuzzy_knn":0.2279096,"score_unico_xgboost":0.0061455,"score_regional_gradboost":0.0280095,"score_regional_random_forest":0.1093956,"score_regional_logistic_regression":0.3518479,"score_regional_fuzzy_knn":0.1475523,"score_regional_xgboost":0.0323641},"geometry":{"type":"Polygon","coordinates":[[[-73.4469393,-8.3646122],[-73.4388531,-8.3647032],[-73.438792,-8.359309],[-73.446878,-8.359218],[-73.4469393,-8.3646122]]]}},{"type":"Feature","id":"AC-Y639-X115","properties":{"id":"AC-Y639-X115","grid_x":115,"grid_y":639,"region":"oeste","centroid":[-73.4347794,-8.3620516],"aggregation":"none","score_unico_gradboost":0.0104008,"score_unico_random_forest":0.0517946,"score_unico_logistic_regression":0.3015034,"score_unico_fuzzy_knn":0.2131292,"score_unico_xgboost":0.0062721,"score_regional_gradboost":0.0280095,"score_regional_random_forest":0.1132797,"score_regional_logistic_regression":0.3499887,"score_regional_fuzzy_knn":0.1479367,"score_regional_xgboost":0.0323641},"geometry":{"type":"Polygon","coordinates":[[[-73.4388531,-8.3647032],[-73.4307668,-8.3647941],[-73.4307058,-8.3593998],[-73.438792,-8.359309],[-73.4388531,-8.3647032]]]}},{"type":"Feature","id":"AC-Y640-X106","properties":{"id":"AC-Y640-X106","grid_x":106,"grid_y":640,"region":"oeste","centroid":[-73.5074895,-8.3558337],"aggregation":"none","score_unico_gradboost":0.006742,"score_unico_random_forest":0.0615552,"score_unico_logistic_regression":0.2991929,"score_unico_fuzzy_knn":0.1541183,"score_unico_xgboost":0.0058095,"score_regional_gradboost":0.0458233,"score_regional_random_forest":0.1600413,"score_regional_logistic_regression":0.3483065,"score_regional_fuzzy_knn":0.094021,"score_regional_xgboost":0.1085024},"geometry":{"type":"Polygon","coordinates":[[[-73.5115632,-8.3584844],[-73.5034779,-8.3585767],[-73.5034159,-8.3531829],[-73.5115011,-8.3530907],[-73.5115632,-8.3584844]]]}},{"type":"Feature","id":"AC-Y640-X107","properties":{"id":"AC-Y640-X107","grid_x":107,"grid_y":640,"region":"oeste","centroid":[-73.4994042,-8.3559258],"aggregation":"none","score_unico_gradboost":0.0035849,"score_unico_random_forest":0.0630717,"score_unico_logistic_regression":0.2533525,"score_unico_fuzzy_knn":0.1587481,"score_unico_xgboost":0.0031025,"score_regional_gradboost":0.016799,"score_regional_random_forest":0.0631446,"score_regional_logistic_regression":0.2931375,"score_regional_fuzzy_knn":0.0284204,"score_regional_xgboost":0.0306039},"geometry":{"type":"Polygon","coordinates":[[[-73.5034779,-8.3585767],[-73.4953925,-8.3586688],[-73.4953306,-8.3532749],[-73.5034159,-8.3531829],[-73.5034779,-8.3585767]]]}},{"type":"Feature","id":"AC-Y640-X108","properties":{"id":"AC-Y640-X108","grid_x":108,"grid_y":640,"region":"oeste","centroid":[-73.4913188,-8.3560178],"aggregation":"none","score_unico_gradboost":0.005718,"score_unico_random_forest":0.0845395,"score_unico_logistic_regression":0.2777275,"score_unico_fuzzy_knn":0.1145724,"score_unico_xgboost":0.0048321,"score_regional_gradboost":0.0408759,"score_regional_random_forest":0.1109744,"score_regional_logistic_regression":0.3236179,"score_regional_fuzzy_knn":0.0571066,"score_regional_xgboost":0.0897057},"geometry":{"type":"Polygon","coordinates":[[[-73.4953925,-8.3586688],[-73.487307,-8.3587607],[-73.4872452,-8.3533668],[-73.4953306,-8.3532749],[-73.4953925,-8.3586688]]]}},{"type":"Feature","id":"AC-Y640-X109","properties":{"id":"AC-Y640-X109","grid_x":109,"grid_y":640,"region":"oeste","centroid":[-73.4832333,-8.3561097],"aggregation":"none","score_unico_gradboost":0.003371,"score_unico_random_forest":0.0433623,"score_unico_logistic_regression":0.248262,"score_unico_fuzzy_knn":0.1167277,"score_unico_xgboost":0.0033456,"score_regional_gradboost":0.01603,"score_regional_random_forest":0.0624303,"score_regional_logistic_regression":0.2881591,"score_regional_fuzzy_knn":0.0531243,"score_regional_xgboost":0.0306039},"geometry":{"type":"Polygon","coordinates":[[[-73.487307,-8.3587607],[-73.4792213,-8.3588525],[-73.4791597,-8.3534586],[-73.4872452,-8.3533668],[-73.487307,-8.3587607]]]}},{"type":"Feature","id":"AC-Y640-X110","properties":{"id":"AC-Y640-X110","grid_x":110,"grid_y":640,"region":"oeste","centroid":[-73.4751477,-8.3562014],"aggregation":"none","score_unico_gradboost":0.0047515,"score_unico_random_forest":0.0859319,"score_unico_logistic_regression":0.3159772,"score_unico_fuzzy_knn":0.0243364,"score_unico_xgboost":0.0080313,"score_regional_gradboost":0.1277731,"score_regional_random_forest":0.2862333,"score_regional_logistic_regression":0.3714327,"score_regional_fuzzy_knn":0.1377459,"score_regional_xgboost":0.2140411},"geometry":{"type":"Polygon","coordinates":[[[-73.4792213,-8.3588525],[-73.4711357,-8.3589441],[-73.4710741,-8.3535501],[-73.4791597,-8.3534586],[-73.4792213,-8.3588525]]]}},{"type":"Feature","id":"AC-Y640-X111","properties":{"id":"AC-Y640-X111","grid_x":111,"grid_y":640,"region":"oeste","centroid":[-73.467062,-8.3562929],"aggregation":"none","score_unico_gradboost":0.0056712,"score_unico_random_forest":0.0513188,"score_unico_logistic_regression":0.3300183,"score_unico_fuzzy_knn":0.1523677,"score_unico_xgboost":0.0070805,"score_regional_gradboost":0.0449085,"score_regional_random_forest":0.1238803,"score_regional_logistic_regression":0.3844452,"score_regional_fuzzy_knn":0.1410407,"score_regional_xgboost":0.0807162},"geometry":{"type":"Polygon","coordinates":[[[-73.4711357,-8.3589441],[-73.4630499,-8.3590356],[-73.4629884,-8.3536415],[-73.4710741,-8.3535501],[-73.4711357,-8.3589441]]]}},{"type":"Feature","id":"AC-Y640-X112","properties":{"id":"AC-Y640-X112","grid_x":112,"grid_y":640,"region":"oeste","centroid":[-73.4589762,-8.3563842],"aggregation":"none","score_unico_gradboost":0.0107715,"score_unico_random_forest":0.059456,"score_unico_logistic_regression":0.3184976,"score_unico_fuzzy_knn":0.1666774,"score_unico_xgboost":0.0066192,"score_regional_gradboost":0.0475047,"score_regional_random_forest":0.1077898,"score_regional_logistic_regression":0.3712135,"score_regional_fuzzy_knn":0.1497697,"score_regional_xgboost":0.0412759},"geometry":{"type":"Polygon","coordinates":[[[-73.4630499,-8.3590356],[-73.454964,-8.3591269],[-73.4549027,-8.3537328],[-73.4629884,-8.3536415],[-73.4630499,-8.3590356]]]}},{"type":"Feature","id":"AC-Y640-X113","properties":{"id":"AC-Y640-X113","grid_x":113,"grid_y":640,"region":"oeste","centroid":[-73.4508904,-8.3564754],"aggregation":"none","score_unico_gradboost":0.0104008,"score_unico_random_forest":0.0379082,"score_unico_logistic_regression":0.3024743,"score_unico_fuzzy_knn":0.2003415,"score_unico_xgboost":0.0057484,"score_regional_gradboost":0.0383927,"score_regional_random_forest":0.1093956,"score_regional_logistic_regression":0.3524068,"score_regional_fuzzy_knn":0.1568138,"score_regional_xgboost":0.0330904},"geometry":{"type":"Polygon","coordinates":[[[-73.454964,-8.3591269],[-73.446878,-8.359218],[-73.4468168,-8.3538238],[-73.4549027,-8.3537328],[-73.454964,-8.3591269]]]}},{"type":"Feature","id":"AC-Y640-X114","properties":{"id":"AC-Y640-X114","grid_x":114,"grid_y":640,"region":"oeste","centroid":[-73.4428044,-8.3565664],"aggregation":"none","score_unico_gradboost":0.0103693,"score_unico_random_forest":0.0527088,"score_unico_logistic_regression":0.2993498,"score_unico_fuzzy_knn":0.2204139,"score_unico_xgboost":0.006726,"score_regional_gradboost":0.0280095,"score_regional_random_forest":0.1133688,"score_regional_logistic_regression":0.3479399,"score_regional_fuzzy_knn":0.1483713,"score_regional_xgboost":0.0323641},"geometry":{"type":"Polygon","coordinates":[[[-73.446878,-8.359218],[-73.438792,-8.359309],[-73.4387308,-8.3539147],[-73.4468168,-8.3538238],[-73.446878,-8.359218]]]}},{"type":"Feature","id":"AC-Y640-X115","properties":{"id":"AC-Y640-X115","grid_x":115,"grid_y":640,"region":"oeste","centroid":[-73.4347184,-8.3566573],"aggregation":"none","score_unico_gradboost":0.0067692,"score_unico_random_forest":0.0454545,"score_unico_logistic_regression":0.288364,"score_unico_fuzzy_knn":0.2362466,"score_unico_xgboost":0.0083486,"score_regional_gradboost":0.0269708,"score_regional_random_forest":0.1154743,"score_regional_logistic_regression":0.3349889,"score_regional_fuzzy_knn":0.1555624,"score_regional_xgboost":0.0323641},"geometry":{"type":"Polygon","coordinates":[[[-73.438792,-8.359309],[-73.4307058,-8.3593998],[-73.4306448,-8.3540055],[-73.4387308,-8.3539147],[-73.438792,-8.359309]]]}},{"type":"Feature","id":"AC-Y641-X106","properties":{"id":"AC-Y641-X106","grid_x":106,"grid_y":641,"region":"oeste","centroid":[-73.5074275,-8.3504399],"aggregation":"none","score_unico_gradboost":0.0075942,"score_unico_random_forest":0.0362924,"score_unico_logistic_regression":0.3067618,"score_unico_fuzzy_knn":0.1352663,"score_unico_xgboost":0.0065345,"score_regional_gradboost":0.064106,"score_regional_random_forest":0.247666,"score_regional_logistic_regression":0.3613348,"score_regional_fuzzy_knn":0.1128151,"score_regional_xgboost":0.1312517},"geometry":{"type":"Polygon","coordinates":[[[-73.5115011,-8.3530907],[-73.5034159,-8.3531829],[-73.5033539,-8.3477891],[-73.511439,-8.347697],[-73.5115011,-8.3530907]]]}},{"type":"Feature","id":"AC-Y641-X107","properties":{"id":"AC-Y641-X107","grid_x":107,"grid_y":641,"region":"oeste","centroid":[-73.4993423,-8.350532],"aggregation":"none","score_unico_gradboost":0.005718,"score_unico_random_forest":0.0853791,"score_unico_logistic_regression":0.2776298,"score_unico_fuzzy_knn":0.1234874,"score_unico_xgboost":0.0044561,"score_regional_gradboost":0.0408759,"score_regional_random_forest":0.1109744,"score_regional_logistic_regression":0.3234013,"score_regional_fuzzy_knn":0.0652726,"score_regional_xgboost":0.0897057},"geometry":{"type":"Polygon","coordinates":[[[-73.5034159,-8.3531829],[-73.4953306,-8.3532749],[-73.4952687,-8.3478811],[-73.5033539,-8.3477891],[-73.5034159,-8.3531829]]]}},{"type":"Feature","id":"AC-Y641-X108","properties":{"id":"AC-Y641-X108","grid_x":108,"grid_y":641,"region":"oeste","centroid":[-73.491257,-8.350624],"aggregation":"none","score_unico_gradboost":0.0047812,"score_unico_random_forest":0.0534115,"score_unico_logistic_regression":0.2608155,"score_unico_fuzzy_knn":0.1060912,"score_unico_xgboost":0.0032265,"score_regional_gradboost":0.016799,"score_regional_random_forest":0.0651112,"score_regional_logistic_regression":0.303544,"score_regional_fuzzy_knn":0.0634398,"score_regional_xgboost":0.0306039},"geometry":{"type":"Polygon","coordinates":[[[-73.4953306,-8.3532749],[-73.4872452,-8.3533668],[-73.4871834,-8.347973],[-73.4952687,-8.3478811],[-73.4953306,-8.3532749]]]}},{"type":"Feature","id":"AC-Y641-X109","properties":{"id":"AC-Y641-X109","grid_x":109,"grid_y":641,"region":"oeste","centroid":[-73.4831716,-8.3507158],"aggregation":"none","score_unico_gradboost":0.005718,"score_unico_random_forest":0.0747974,"score_unico_logistic_regression":0.2789079,"score_unico_fuzzy_knn":0.0578314,"score_unico_xgboost":0.0056199,"score_regional_gradboost":0.0492268,"score_regional_random_forest":0.105533,"score_regional_logistic_regression":0.3264025,"score_regional_fuzzy_knn":0.0849531,"score_regional_xgboost":0.1041596},"geometry":{"type":"Polygon","coordinates":[[[-73.4872452,-8.3533668],[-73.4791597,-8.3534586],[-73.4790981,-8.3480646],[-73.4871834,-8.347973],[-73.4872452,-8.3533668]]]}},{"type":"Feature","id":"AC-Y641-X110","properties":{"id":"AC-Y641-X110","grid_x":110,"grid_y":641,"region":"oeste","centroid":[-73.4750861,-8.3508074],"aggregation":"none","score_unico_gradboost":0.0089388,"score_unico_random_forest":0.0735343,"score_unico_logistic_regression":0.2840204,"score_unico_fuzzy_knn":0.0,"score_unico_xgboost":0.0062954,"score_regional_gradboost":0.0492268,"score_regional_random_forest":0.1107998,"score_regional_logistic_regression":0.3333416,"score_regional_fuzzy_knn":0.0964609,"score_regional_xgboost":0.1041596},"geometry":{"type":"Polygon","coordinates":[[[-73.4791597,-8.3534586],[-73.4710741,-8.3535501],[-73.4710126,-8.3481561],[-73.4790981,-8.3480646],[-73.4791597,-8.3534586]]]}},{"type":"Feature","id":"AC-Y641-X111","properties":{"id":"AC-Y641-X111","grid_x":111,"grid_y":641,"region":"oeste","centroid":[-73.4670005,-8.3508988],"aggregation":"none","score_unico_gradboost":0.0151072,"score_unico_random_forest":0.0739065,"score_unico_logistic_regression":0.2779155,"score_unico_fuzzy_knn":0.0,"score_unico_xgboost":0.0056142,"score_regional_gradboost":0.0427629,"score_regional_random_forest":0.0853581,"score_regional_logistic_regression":0.326521,"score_regional_fuzzy_knn":0.10443,"score_regional_xgboost":0.0533546},"geometry":{"type":"Polygon","coordinates":[[[-73.4710741,-8.3535501],[-73.4629884,-8.3536415],[-73.462927,-8.3482475],[-73.4710126,-8.3481561],[-73.4710741,-8.3535501]]]}},{"type":"Feature","id":"AC-Y641-X112","properties":{"id":"AC-Y641-X112","grid_x":112,"grid_y":641,"region":"oeste","centroid":[-73.4589149,-8.3509901],"aggregation":"none","score_unico_gradboost":0.0142,"score_unico_random_forest":0.0532337,"score_unico_logistic_regression":0.2675077,"score_unico_fuzzy_knn":0.0079101,"score_unico_xgboost":0.0048735,"score_regional_gradboost":0.0240139,"score_regional_random_forest":0.0793883,"score_regional_logistic_regression":0.314336,"score_regional_fuzzy_knn":0.0943373,"score_regional_xgboost":0.0367978},"geometry":{"type":"Polygon","coordinates":[[[-73.4629884,-8.3536415],[-73.4549027,-8.3537328],[-73.4548414,-8.3483386],[-73.462927,-8.3482475],[-73.4629884,-8.3536415]]]}},{"type":"Feature","id":"AC-Y641-X113","properties":{"id":"AC-Y641-X113","grid_x":113,"grid_y":641,"region":"oeste","centroid":[-73.4508291,-8.3510812],"aggregation":"none","score_unico_gradboost":0.0147426,"score_unico_random_forest":0.0598113,"score_unico_logistic_regression":0.2903672,"score_unico_fuzzy_knn":0.0239359,"score_unico_xgboost":0.0083662,"score_regional_gradboost":0.0578234,"score_regional_random_forest":0.1195583,"score_regional_logistic_regression":0.3429293,"score_regional_fuzzy_knn":0.1449236,"score_regional_xgboost":0.1065463},"geometry":{"type":"Polygon","coordinates":[[[-73.4549027,-8.3537328],[-73.4468168,-8.3538238],[-73.4467556,-8.3484297],[-73.4548414,-8.3483386],[-73.4549027,-8.3537328]]]}},{"type":"Feature","id":"AC-Y641-X114","properties":{"id":"AC-Y641-X114","grid_x":114,"grid_y":641,"region":"oeste","centroid":[-73.4427433,-8.3511722],"aggregation":"none","score_unico_gradboost":0.012132,"score_unico_random_forest":0.0717212,"score_unico_logistic_regression":0.3262646,"score_unico_fuzzy_knn":0.1630272,"score_unico_xgboost":0.0118044,"score_regional_gradboost":0.0447661,"score_regional_random_forest":0.1248751,"score_regional_logistic_regression":0.3813409,"score_regional_fuzzy_knn":0.1650563,"score_regional_xgboost":0.0808928},"geometry":{"type":"Polygon","coordinates":[[[-73.4468168,-8.3538238],[-73.4387308,-8.3539147],[-73.4386698,-8.3485205],[-73.4467556,-8.3484297],[-73.4468168,-8.3538238]]]}},{"type":"Feature","id":"AC-Y641-X115","properties":{"id":"AC-Y641-X115","grid_x":115,"grid_y":641,"region":"oeste","centroid":[-73.4346573,-8.351263],"aggregation":"none","score_unico_gradboost":0.0112797,"score_unico_random_forest":0.0637993,"score_unico_logistic_regression":0.3341889,"score_unico_fuzzy_knn":0.144285,"score_unico_xgboost":0.0122327,"score_regional_gradboost":0.0447661,"score_regional_random_forest":0.1230401,"score_regional_logistic_regression":0.3912668,"score_regional_fuzzy_knn":0.1769297,"score_regional_xgboost":0.0808928},"geometry":{"type":"Polygon","coordinates":[[[-73.4387308,-8.3539147],[-73.4306448,-8.3540055],[-73.4305838,-8.3486112],[-73.4386698,-8.3485205],[-73.4387308,-8.3539147]]]}},{"type":"Feature","id":"AC-Y642-X109","properties":{"id":"AC-Y642-X109","grid_x":109,"grid_y":642,"region":"oeste","centroid":[-73.4831099,-8.3453218],"aggregation":"none","score_unico_gradboost":0.0097126,"score_unico_random_forest":0.0304234,"score_unico_logistic_regression":0.2885081,"score_unico_fuzzy_knn":0.0678188,"score_unico_xgboost":0.0078469,"score_regional_gradboost":0.0518778,"score_regional_random_forest":0.1342031,"score_regional_logistic_regression":0.3420487,"score_regional_fuzzy_knn":0.1089586,"score_regional_xgboost":0.1063258},"geometry":{"type":"Polygon","coordinates":[[[-73.4871834,-8.347973],[-73.4790981,-8.3480646],[-73.4790365,-8.3426707],[-73.4871218,-8.3425791],[-73.4871834,-8.347973]]]}},{"type":"Feature","id":"AC-Y642-X110","properties":{"id":"AC-Y642-X110","grid_x":110,"grid_y":642,"region":"oeste","centroid":[-73.4750246,-8.3454134],"aggregation":"none","score_unico_gradboost":0.0164062,"score_unico_random_forest":0.0305215,"score_unico_logistic_regression":0.2914531,"score_unico_fuzzy_knn":0.0687121,"score_unico_xgboost":0.0098112,"score_regional_gradboost":0.0609077,"score_regional_random_forest":0.1350151,"score_regional_logistic_regression":0.3464159,"score_regional_fuzzy_knn":0.1206497,"score_regional_xgboost":0.1087561},"geometry":{"type":"Polygon","coordinates":[[[-73.4790981,-8.3480646],[-73.4710126,-8.3481561],[-73.4709511,-8.3427621],[-73.4790365,-8.3426707],[-73.4790981,-8.3480646]]]}},{"type":"Feature","id":"AC-Y642-X111","properties":{"id":"AC-Y642-X111","grid_x":111,"grid_y":642,"region":"oeste","centroid":[-73.4669391,-8.3455048],"aggregation":"none","score_unico_gradboost":0.0200932,"score_unico_random_forest":0.0445716,"score_unico_logistic_regression":0.2807758,"score_unico_fuzzy_knn":0.0673722,"score_unico_xgboost":0.0086841,"score_regional_gradboost":0.0609077,"score_regional_random_forest":0.134077,"score_regional_logistic_regression":0.3340059,"score_regional_fuzzy_knn":0.1272786,"score_regional_xgboost":0.1087561},"geometry":{"type":"Polygon","coordinates":[[[-73.4710126,-8.3481561],[-73.462927,-8.3482475],[-73.4628657,-8.3428534],[-73.4709511,-8.3427621],[-73.4710126,-8.3481561]]]}},{"type":"Feature","id":"AC-Y642-X112","properties":{"id":"AC-Y642-X112","grid_x":112,"grid_y":642,"region":"oeste","centroid":[-73.4588536,-8.345596],"aggregation":"none","score_unico_gradboost":0.0181758,"score_unico_random_forest":0.0735564,"score_unico_logistic_regression":0.3258704,"score_unico_fuzzy_knn":0.106115,"score_unico_xgboost":0.0109913,"score_regional_gradboost":0.1918834,"score_regional_random_forest":0.3064543,"score_regional_logistic_regression":0.3898076,"score_regional_fuzzy_knn":0.1624633,"score_regional_xgboost":0.2224699},"geometry":{"type":"Polygon","coordinates":[[[-73.462927,-8.3482475],[-73.4548414,-8.3483386],[-73.4547801,-8.3429445],[-73.4628657,-8.3428534],[-73.462927,-8.3482475]]]}},{"type":"Feature","id":"AC-Y642-X113","properties":{"id":"AC-Y642-X113","grid_x":113,"grid_y":642,"region":"oeste","centroid":[-73.4507679,-8.3456871],"aggregation":"none","score_unico_gradboost":0.0202175,"score_unico_random_forest":0.0306977,"score_unico_logistic_regression":0.3120647,"score_unico_fuzzy_knn":0.1041692,"score_unico_xgboost":0.0135968,"score_regional_gradboost":0.085638,"score_regional_random_forest":0.2433947,"score_regional_logistic_regression":0.373668,"score_regional_fuzzy_knn":0.1685367,"score_regional_xgboost":0.1545674},"geometry":{"type":"Polygon","coordinates":[[[-73.4548414,-8.3483386],[-73.4467556,-8.3484297],[-73.4466945,-8.3430355],[-73.4547801,-8.3429445],[-73.4548414,-8.3483386]]]}},{"type":"Feature","id":"AC-Y642-X114","properties":{"id":"AC-Y642-X114","grid_x":114,"grid_y":642,"region":"oeste","centroid":[-73.4426822,-8.345778],"aggregation":"none","score_unico_gradboost":0.0216808,"score_unico_random_forest":0.0618212,"score_unico_logistic_regression":0.2882449,"score_unico_fuzzy_knn":0.0676684,"score_unico_xgboost":0.0101345,"score_regional_gradboost":0.0601439,"score_regional_random_forest":0.144134,"score_regional_logistic_regression":0.3436458,"score_regional_fuzzy_knn":0.1680663,"score_regional_xgboost":0.1087561},"geometry":{"type":"Polygon","coordinates":[[[-73.4467556,-8.3484297],[-73.4386698,-8.3485205],[-73.4386088,-8.3431262],[-73.4466945,-8.3430355],[-73.4467556,-8.3484297]]]}},{"type":"Feature","id":"AC-Y642-X115","properties":{"id":"AC-Y642-X115","grid_x":115,"grid_y":642,"region":"oeste","centroid":[-73.4345963,-8.3458687],"aggregation":"none","score_unico_gradboost":0.0266558,"score_unico_random_forest":0.0605875,"score_unico_logistic_regression":0.286521,"score_unico_fuzzy_knn":0.0592843,"score_unico_xgboost":0.010685,"score_regional_gradboost":0.0601439,"score_regional_random_forest":0.1416247,"score_regional_logistic_regression":0.3419721,"score_regional_fuzzy_knn":0.1767503,"score_regional_xgboost":0.1087561},"geometry":{"type":"Polygon","coordinates":[[[-73.4386698,-8.3485205],[-73.4305838,-8.3486112],[-73.4305229,-8.3432169],[-73.4386088,-8.3431262],[-73.4386698,-8.3485205]]]}},{"type":"Feature","id":"AC-Y639-X105","properties":{"id":"AC-Y639-X105","grid_x":105,"grid_y":639,"region":"oeste","centroid":[-73.5156369,-8.361135],"aggregation":"none","score_unico_gradboost":0.0051309,"score_unico_random_forest":0.0613945,"score_unico_logistic_regression":0.2622915,"score_unico_fuzzy_knn":0.2025104,"score_unico_xgboost":0.0026947,"score_regional_gradboost":0.0182828,"score_regional_random_forest":0.0710004,"score_regional_logistic_regression":0.3022456,"score_regional_fuzzy_knn":0.0702378,"score_regional_xgboost":0.0306039},"geometry":{"type":"Polygon","coordinates":[[[-73.5197107,-8.3637856],[-73.5116254,-8.3638781],[-73.5115632,-8.3584844],[-73.5196484,-8.3583919],[-73.5197107,-8.3637856]]]}},{"type":"Feature","id":"AC-Y640-X104","properties":{"id":"AC-Y640-X104","grid_x":104,"grid_y":640,"region":"oeste","centroid":[-73.5236599,-8.3556488],"aggregation":"none","score_unico_gradboost":0.005896,"score_unico_random_forest":0.0668734,"score_unico_logistic_regression":0.2645157,"score_unico_fuzzy_knn":0.1899348,"score_unico_xgboost":0.0029882,"score_regional_gradboost":0.0197792,"score_regional_random_forest":0.0788336,"score_regional_logistic_regression":0.305422,"score_regional_fuzzy_knn":0.0704745,"score_regional_xgboost":0.0395082},"geometry":{"type":"Polygon","coordinates":[[[-73.5277336,-8.3582993],[-73.5196484,-8.3583919],[-73.5195862,-8.3529983],[-73.5276713,-8.3529057],[-73.5277336,-8.3582993]]]}},{"type":"Feature","id":"AC-Y640-X105","properties":{"id":"AC-Y640-X105","grid_x":105,"grid_y":640,"region":"oeste","centroid":[-73.5155748,-8.3557413],"aggregation":"none","score_unico_gradboost":0.0057672,"score_unico_random_forest":0.056936,"score_unico_logistic_regression":0.2585473,"score_unico_fuzzy_knn":0.1824087,"score_unico_xgboost":0.0029124,"score_regional_gradboost":0.0182828,"score_regional_random_forest":0.0635272,"score_regional_logistic_regression":0.2983391,"score_regional_fuzzy_knn":0.061387,"score_regional_xgboost":0.0306039},"geometry":{"type":"Polygon","coordinates":[[[-73.5196484,-8.3583919],[-73.5115632,-8.3584844],[-73.5115011,-8.3530907],[-73.5195862,-8.3529983],[-73.5196484,-8.3583919]]]}},{"type":"Feature","id":"AC-Y641-X104","properties":{"id":"AC-Y641-X104","grid_x":104,"grid_y":641,"region":"oeste","centroid":[-73.5235976,-8.3502552],"aggregation":"none","score_unico_gradboost":0.0070313,"score_unico_random_forest":0.0453376,"score_unico_logistic_regression":0.2565085,"score_unico_fuzzy_knn":0.1772688,"score_unico_xgboost":0.0034269,"score_regional_gradboost":0.0303602,"score_regional_random_forest":0.0809696,"score_regional_logistic_regression":0.2993071,"score_regional_fuzzy_knn":0.0287126,"score_regional_xgboost":0.0312938},"geometry":{"type":"Polygon","coordinates":[[[-73.5276713,-8.3529057],[-73.5195862,-8.3529983],[-73.5195241,-8.3476046],[-73.527609,-8.3475122],[-73.5276713,-8.3529057]]]}},{"type":"Feature","id":"AC-Y641-X105","properties":{"id":"AC-Y641-X105","grid_x":105,"grid_y":641,"region":"oeste","centroid":[-73.5155126,-8.3503477],"aggregation":"none","score_unico_gradboost":0.0075075,"score_unico_random_forest":0.0470891,"score_unico_logistic_regression":0.2548574,"score_unico_fuzzy_knn":0.1841569,"score_unico_xgboost":0.0035267,"score_regional_gradboost":0.0250724,"score_regional_random_forest":0.0787696,"score_regional_logistic_regression":0.2974943,"score_regional_fuzzy_knn":0.0288858,"score_regional_xgboost":0.0312938},"geometry":{"type":"Polygon","coordinates":[[[-73.5195862,-8.3529983],[-73.5115011,-8.3530907],[-73.511439,-8.347697],[-73.5195241,-8.3476046],[-73.5195862,-8.3529983]]]}}]}