{"type":"FeatureCollection","features":[{"type":"Feature","id":"AC-Y712-X78","properties":{"id":"AC-Y712-X78","grid_x":78,"grid_y":712,"region":"oeste","centroid":[-73.7292632,-7.9649569],"aggregation":"none","score_unico_gradboost":0.0076695,"score_unico_random_forest":0.0287067,"score_unico_logistic_regression":0.1732231,"score_unico_fuzzy_knn":0.0,"score_unico_xgboost":0.0054509,"score_regional_gradboost":0.0282685,"score_regional_random_forest":0.0811861,"score_regional_logistic_regression":0.2350452,"score_regional_fuzzy_knn":0.0647117,"score_regional_xgboost":0.0564811},"geometry":{"type":"Polygon","coordinates":[[[-73.7333317,-7.9676068],[-73.7252568,-7.9676991],[-73.7251948,-7.9623069],[-73.7332696,-7.9622147],[-73.7333317,-7.9676068]]]}},{"type":"Feature","id":"AC-Y713-X78","properties":{"id":"AC-Y713-X78","grid_x":78,"grid_y":713,"region":"oeste","centroid":[-73.7292012,-7.9595648],"aggregation":"none","score_unico_gradboost":0.0102738,"score_unico_random_forest":0.0153901,"score_unico_logistic_regression":0.1831468,"score_unico_fuzzy_knn":0.0,"score_unico_xgboost":0.0058379,"score_regional_gradboost":0.0421418,"score_regional_random_forest":0.1350286,"score_regional_logistic_regression":0.2551798,"score_regional_fuzzy_knn":0.0894014,"score_regional_xgboost":0.1082937},"geometry":{"type":"Polygon","coordinates":[[[-73.7332696,-7.9622147],[-73.7251948,-7.9623069],[-73.7251329,-7.9569148],[-73.7332076,-7.9568226],[-73.7332696,-7.9622147]]]}},{"type":"Feature","id":"AC-Y713-X79","properties":{"id":"AC-Y713-X79","grid_x":79,"grid_y":713,"region":"oeste","centroid":[-73.7211264,-7.9596569],"aggregation":"none","score_unico_gradboost":0.0096526,"score_unico_random_forest":0.0282133,"score_unico_logistic_regression":0.1715511,"score_unico_fuzzy_knn":0.0082981,"score_unico_xgboost":0.0071314,"score_regional_gradboost":0.0503032,"score_regional_random_forest":0.1364194,"score_regional_logistic_regression":0.2416755,"score_regional_fuzzy_knn":0.1004129,"score_regional_xgboost":0.1101063},"geometry":{"type":"Polygon","coordinates":[[[-73.7251948,-7.9623069],[-73.7171199,-7.962399],[-73.7170581,-7.9570068],[-73.7251329,-7.9569148],[-73.7251948,-7.9623069]]]}},{"type":"Feature","id":"AC-Y713-X80","properties":{"id":"AC-Y713-X80","grid_x":80,"grid_y":713,"region":"oeste","centroid":[-73.7130515,-7.9597489],"aggregation":"none","score_unico_gradboost":0.0080024,"score_unico_random_forest":0.0184751,"score_unico_logistic_regression":0.1894661,"score_unico_fuzzy_knn":0.0,"score_unico_xgboost":0.0077828,"score_regional_gradboost":0.0496218,"score_regional_random_forest":0.136279,"score_regional_logistic_regression":0.2651584,"score_regional_fuzzy_knn":0.0979998,"score_regional_xgboost":0.1082937},"geometry":{"type":"Polygon","coordinates":[[[-73.7171199,-7.962399],[-73.7090449,-7.962491],[-73.7089832,-7.9570987],[-73.7170581,-7.9570068],[-73.7171199,-7.962399]]]}},{"type":"Feature","id":"AC-Y714-X76","properties":{"id":"AC-Y714-X76","grid_x":76,"grid_y":714,"region":"oeste","centroid":[-73.7452884,-7.953988],"aggregation":"none","score_unico_gradboost":0.0028215,"score_unico_random_forest":0.0106206,"score_unico_logistic_regression":0.1576314,"score_unico_fuzzy_knn":0.0080751,"score_unico_xgboost":0.0033437,"score_regional_gradboost":0.0335361,"score_regional_random_forest":0.0456213,"score_regional_logistic_regression":0.2094006,"score_regional_fuzzy_knn":0.0664029,"score_regional_xgboost":0.0490781},"geometry":{"type":"Polygon","coordinates":[[[-73.7493568,-7.9566377],[-73.7412822,-7.9567302],[-73.7412202,-7.9513382],[-73.7492946,-7.9512457],[-73.7493568,-7.9566377]]]}},{"type":"Feature","id":"AC-Y714-X77","properties":{"id":"AC-Y714-X77","grid_x":77,"grid_y":714,"region":"oeste","centroid":[-73.7372139,-7.9540804],"aggregation":"none","score_unico_gradboost":0.0029014,"score_unico_random_forest":0.0273112,"score_unico_logistic_regression":0.1600643,"score_unico_fuzzy_knn":0.0089168,"score_unico_xgboost":0.0047882,"score_regional_gradboost":0.0415708,"score_regional_random_forest":0.1200124,"score_regional_logistic_regression":0.2199202,"score_regional_fuzzy_knn":0.0921255,"score_regional_xgboost":0.0922083},"geometry":{"type":"Polygon","coordinates":[[[-73.7412822,-7.9567302],[-73.7332076,-7.9568226],[-73.7331456,-7.9514305],[-73.7412202,-7.9513382],[-73.7412822,-7.9567302]]]}},{"type":"Feature","id":"AC-Y714-X78","properties":{"id":"AC-Y714-X78","grid_x":78,"grid_y":714,"region":"oeste","centroid":[-73.7291393,-7.9541726],"aggregation":"none","score_unico_gradboost":0.0043636,"score_unico_random_forest":0.0179278,"score_unico_logistic_regression":0.1940359,"score_unico_fuzzy_knn":0.0,"score_unico_xgboost":0.0051715,"score_regional_gradboost":0.0503634,"score_regional_random_forest":0.1413598,"score_regional_logistic_regression":0.2790928,"score_regional_fuzzy_knn":0.1084371,"score_regional_xgboost":0.1101063},"geometry":{"type":"Polygon","coordinates":[[[-73.7332076,-7.9568226],[-73.7251329,-7.9569148],[-73.725071,-7.9515226],[-73.7331456,-7.9514305],[-73.7332076,-7.9568226]]]}},{"type":"Feature","id":"AC-Y714-X79","properties":{"id":"AC-Y714-X79","grid_x":79,"grid_y":714,"region":"oeste","centroid":[-73.7210646,-7.9542647],"aggregation":"none","score_unico_gradboost":0.0126286,"score_unico_random_forest":0.0286963,"score_unico_logistic_regression":0.1881447,"score_unico_fuzzy_knn":0.0,"score_unico_xgboost":0.0096846,"score_regional_gradboost":0.0979737,"score_regional_random_forest":0.1541729,"score_regional_logistic_regression":0.2784275,"score_regional_fuzzy_knn":0.1107965,"score_regional_xgboost":0.1292495},"geometry":{"type":"Polygon","coordinates":[[[-73.7251329,-7.9569148],[-73.7170581,-7.9570068],[-73.7169963,-7.9516146],[-73.725071,-7.9515226],[-73.7251329,-7.9569148]]]}},{"type":"Feature","id":"AC-Y714-X80","properties":{"id":"AC-Y714-X80","grid_x":80,"grid_y":714,"region":"oeste","centroid":[-73.7129898,-7.9543566],"aggregation":"none","score_unico_gradboost":0.0045474,"score_unico_random_forest":0.0213614,"score_unico_logistic_regression":0.1975839,"score_unico_fuzzy_knn":0.0,"score_unico_xgboost":0.0083801,"score_regional_gradboost":0.0723718,"score_regional_random_forest":0.1489016,"score_regional_logistic_regression":0.2869638,"score_regional_fuzzy_knn":0.1096613,"score_regional_xgboost":0.1292495},"geometry":{"type":"Polygon","coordinates":[[[-73.7170581,-7.9570068],[-73.7089832,-7.9570987],[-73.7089215,-7.9517064],[-73.7169963,-7.9516146],[-73.7170581,-7.9570068]]]}},{"type":"Feature","id":"AC-Y715-X76","properties":{"id":"AC-Y715-X76","grid_x":76,"grid_y":715,"region":"oeste","centroid":[-73.7452263,-7.948596],"aggregation":"none","score_unico_gradboost":0.0051807,"score_unico_random_forest":0.0079391,"score_unico_logistic_regression":0.1659725,"score_unico_fuzzy_knn":0.0555575,"score_unico_xgboost":0.0040052,"score_regional_gradboost":0.0231904,"score_regional_random_forest":0.0621876,"score_regional_logistic_regression":0.2257786,"score_regional_fuzzy_knn":0.1219938,"score_regional_xgboost":0.0583173},"geometry":{"type":"Polygon","coordinates":[[[-73.7492946,-7.9512457],[-73.7412202,-7.9513382],[-73.7411581,-7.9459461],[-73.7492324,-7.9458538],[-73.7492946,-7.9512457]]]}},{"type":"Feature","id":"AC-Y715-X77","properties":{"id":"AC-Y715-X77","grid_x":77,"grid_y":715,"region":"oeste","centroid":[-73.7371519,-7.9486883],"aggregation":"none","score_unico_gradboost":0.0088944,"score_unico_random_forest":0.0150771,"score_unico_logistic_regression":0.1704318,"score_unico_fuzzy_knn":0.0797737,"score_unico_xgboost":0.0082251,"score_regional_gradboost":0.0403361,"score_regional_random_forest":0.1817669,"score_regional_logistic_regression":0.2409617,"score_regional_fuzzy_knn":0.137168,"score_regional_xgboost":0.1255877},"geometry":{"type":"Polygon","coordinates":[[[-73.7412202,-7.9513382],[-73.7331456,-7.9514305],[-73.7330837,-7.9460383],[-73.7411581,-7.9459461],[-73.7412202,-7.9513382]]]}},{"type":"Feature","id":"AC-Y715-X78","properties":{"id":"AC-Y715-X78","grid_x":78,"grid_y":715,"region":"oeste","centroid":[-73.7290774,-7.9487805],"aggregation":"none","score_unico_gradboost":0.0125013,"score_unico_random_forest":0.0309365,"score_unico_logistic_regression":0.1920195,"score_unico_fuzzy_knn":0.0764487,"score_unico_xgboost":0.0246766,"score_regional_gradboost":0.1065002,"score_regional_random_forest":0.2051686,"score_regional_logistic_regression":0.2898273,"score_regional_fuzzy_knn":0.1776322,"score_regional_xgboost":0.153684},"geometry":{"type":"Polygon","coordinates":[[[-73.7331456,-7.9514305],[-73.725071,-7.9515226],[-73.7250092,-7.9461304],[-73.7330837,-7.9460383],[-73.7331456,-7.9514305]]]}},{"type":"Feature","id":"AC-Y715-X79","properties":{"id":"AC-Y715-X79","grid_x":79,"grid_y":715,"region":"oeste","centroid":[-73.7210028,-7.9488725],"aggregation":"none","score_unico_gradboost":0.011062,"score_unico_random_forest":0.062025,"score_unico_logistic_regression":0.2000115,"score_unico_fuzzy_knn":0.0800325,"score_unico_xgboost":0.0189192,"score_regional_gradboost":0.0533982,"score_regional_random_forest":0.2020474,"score_regional_logistic_regression":0.3372515,"score_regional_fuzzy_knn":0.1903818,"score_regional_xgboost":0.0790008},"geometry":{"type":"Polygon","coordinates":[[[-73.725071,-7.9515226],[-73.7169963,-7.9516146],[-73.7169346,-7.9462223],[-73.7250092,-7.9461304],[-73.725071,-7.9515226]]]}},{"type":"Feature","id":"AC-Y715-X80","properties":{"id":"AC-Y715-X80","grid_x":80,"grid_y":715,"region":"oeste","centroid":[-73.7129281,-7.9489643],"aggregation":"none","score_unico_gradboost":0.0125261,"score_unico_random_forest":0.0608428,"score_unico_logistic_regression":0.1968343,"score_unico_fuzzy_knn":0.0786176,"score_unico_xgboost":0.0221027,"score_regional_gradboost":0.1272486,"score_regional_random_forest":0.2087976,"score_regional_logistic_regression":0.3112531,"score_regional_fuzzy_knn":0.1815087,"score_regional_xgboost":0.1552925},"geometry":{"type":"Polygon","coordinates":[[[-73.7169963,-7.9516146],[-73.7089215,-7.9517064],[-73.7088599,-7.9463141],[-73.7169346,-7.9462223],[-73.7169963,-7.9516146]]]}},{"type":"Feature","id":"AC-Y716-X76","properties":{"id":"AC-Y716-X76","grid_x":76,"grid_y":716,"region":"oeste","centroid":[-73.7451643,-7.9432039],"aggregation":"none","score_unico_gradboost":0.0051415,"score_unico_random_forest":0.0071657,"score_unico_logistic_regression":0.1770281,"score_unico_fuzzy_knn":0.0408136,"score_unico_xgboost":0.0045926,"score_regional_gradboost":0.0231904,"score_regional_random_forest":0.0606385,"score_regional_logistic_regression":0.2412293,"score_regional_fuzzy_knn":0.1220252,"score_regional_xgboost":0.0583173},"geometry":{"type":"Polygon","coordinates":[[[-73.7492324,-7.9458538],[-73.7411581,-7.9459461],[-73.7410961,-7.9405541],[-73.7491703,-7.9404618],[-73.7492324,-7.9458538]]]}},{"type":"Feature","id":"AC-Y716-X77","properties":{"id":"AC-Y716-X77","grid_x":77,"grid_y":716,"region":"oeste","centroid":[-73.7370899,-7.9432962],"aggregation":"none","score_unico_gradboost":0.0088944,"score_unico_random_forest":0.0146525,"score_unico_logistic_regression":0.1719967,"score_unico_fuzzy_knn":0.0793362,"score_unico_xgboost":0.0082251,"score_regional_gradboost":0.0449866,"score_regional_random_forest":0.1841396,"score_regional_logistic_regression":0.2429411,"score_regional_fuzzy_knn":0.1368249,"score_regional_xgboost":0.1255877},"geometry":{"type":"Polygon","coordinates":[[[-73.7411581,-7.9459461],[-73.7330837,-7.9460383],[-73.7330218,-7.9406462],[-73.7410961,-7.9405541],[-73.7411581,-7.9459461]]]}},{"type":"Feature","id":"AC-Y716-X78","properties":{"id":"AC-Y716-X78","grid_x":78,"grid_y":716,"region":"oeste","centroid":[-73.7290155,-7.9433883],"aggregation":"none","score_unico_gradboost":0.0109593,"score_unico_random_forest":0.0303265,"score_unico_logistic_regression":0.1735354,"score_unico_fuzzy_knn":0.084811,"score_unico_xgboost":0.01077,"score_regional_gradboost":0.1041777,"score_regional_random_forest":0.2012304,"score_regional_logistic_regression":0.2608702,"score_regional_fuzzy_knn":0.1589831,"score_regional_xgboost":0.153684},"geometry":{"type":"Polygon","coordinates":[[[-73.7330837,-7.9460383],[-73.7250092,-7.9461304],[-73.7249474,-7.9407382],[-73.7330218,-7.9406462],[-73.7330837,-7.9460383]]]}},{"type":"Feature","id":"AC-Y716-X79","properties":{"id":"AC-Y716-X79","grid_x":79,"grid_y":716,"region":"oeste","centroid":[-73.720941,-7.9434803],"aggregation":"none","score_unico_gradboost":0.010922,"score_unico_random_forest":0.0610097,"score_unico_logistic_regression":0.2003702,"score_unico_fuzzy_knn":0.0788131,"score_unico_xgboost":0.0209193,"score_regional_gradboost":0.0836574,"score_regional_random_forest":0.2089017,"score_regional_logistic_regression":0.3183395,"score_regional_fuzzy_knn":0.1908414,"score_regional_xgboost":0.1552925},"geometry":{"type":"Polygon","coordinates":[[[-73.7250092,-7.9461304],[-73.7169346,-7.9462223],[-73.7168729,-7.9408301],[-73.7249474,-7.9407382],[-73.7250092,-7.9461304]]]}},{"type":"Feature","id":"AC-Y716-X80","properties":{"id":"AC-Y716-X80","grid_x":80,"grid_y":716,"region":"oeste","centroid":[-73.7128664,-7.9435721],"aggregation":"none","score_unico_gradboost":0.006929,"score_unico_random_forest":0.0757842,"score_unico_logistic_regression":0.2350106,"score_unico_fuzzy_knn":0.0964107,"score_unico_xgboost":0.0239385,"score_regional_gradboost":0.0569458,"score_regional_random_forest":0.2206834,"score_regional_logistic_regression":0.429807,"score_regional_fuzzy_knn":0.2158779,"score_regional_xgboost":0.0921096},"geometry":{"type":"Polygon","coordinates":[[[-73.7169346,-7.9462223],[-73.7088599,-7.9463141],[-73.7087983,-7.9409218],[-73.7168729,-7.9408301],[-73.7169346,-7.9462223]]]}},{"type":"Feature","id":"AC-Y717-X76","properties":{"id":"AC-Y717-X76","grid_x":76,"grid_y":717,"region":"oeste","centroid":[-73.7451022,-7.9378119],"aggregation":"none","score_unico_gradboost":0.0031625,"score_unico_random_forest":0.0086827,"score_unico_logistic_regression":0.1951905,"score_unico_fuzzy_knn":0.0405248,"score_unico_xgboost":0.0044168,"score_regional_gradboost":0.0248724,"score_regional_random_forest":0.0602606,"score_regional_logistic_regression":0.2653126,"score_regional_fuzzy_knn":0.149154,"score_regional_xgboost":0.0495159},"geometry":{"type":"Polygon","coordinates":[[[-73.7491703,-7.9404618],[-73.7410961,-7.9405541],[-73.7410342,-7.935162],[-73.7491083,-7.9350698],[-73.7491703,-7.9404618]]]}},{"type":"Feature","id":"AC-Y717-X77","properties":{"id":"AC-Y717-X77","grid_x":77,"grid_y":717,"region":"oeste","centroid":[-73.737028,-7.9379041],"aggregation":"none","score_unico_gradboost":0.0074518,"score_unico_random_forest":0.02194,"score_unico_logistic_regression":0.174478,"score_unico_fuzzy_knn":0.0710255,"score_unico_xgboost":0.0080878,"score_regional_gradboost":0.0313045,"score_regional_random_forest":0.1660809,"score_regional_logistic_regression":0.2437632,"score_regional_fuzzy_knn":0.1347468,"score_regional_xgboost":0.0925577},"geometry":{"type":"Polygon","coordinates":[[[-73.7410961,-7.9405541],[-73.7330218,-7.9406462],[-73.73296,-7.9352541],[-73.7410342,-7.935162],[-73.7410961,-7.9405541]]]}},{"type":"Feature","id":"AC-Y717-X78","properties":{"id":"AC-Y717-X78","grid_x":78,"grid_y":717,"region":"oeste","centroid":[-73.7289537,-7.9379962],"aggregation":"none","score_unico_gradboost":0.0042577,"score_unico_random_forest":0.0191098,"score_unico_logistic_regression":0.1960736,"score_unico_fuzzy_knn":0.0669116,"score_unico_xgboost":0.0095729,"score_regional_gradboost":0.055687,"score_regional_random_forest":0.1987012,"score_regional_logistic_regression":0.2846283,"score_regional_fuzzy_knn":0.1758005,"score_regional_xgboost":0.1314683},"geometry":{"type":"Polygon","coordinates":[[[-73.7330218,-7.9406462],[-73.7249474,-7.9407382],[-73.7248857,-7.935346],[-73.73296,-7.9352541],[-73.7330218,-7.9406462]]]}},{"type":"Feature","id":"AC-Y717-X79","properties":{"id":"AC-Y717-X79","grid_x":79,"grid_y":717,"region":"oeste","centroid":[-73.7208793,-7.9380881],"aggregation":"none","score_unico_gradboost":0.0099143,"score_unico_random_forest":0.0244637,"score_unico_logistic_regression":0.1846183,"score_unico_fuzzy_knn":0.069037,"score_unico_xgboost":0.0124021,"score_regional_gradboost":0.1041777,"score_regional_random_forest":0.2019463,"score_regional_logistic_regression":0.2741029,"score_regional_fuzzy_knn":0.1742741,"score_regional_xgboost":0.153684},"geometry":{"type":"Polygon","coordinates":[[[-73.7249474,-7.9407382],[-73.7168729,-7.9408301],[-73.7168113,-7.9354378],[-73.7248857,-7.935346],[-73.7249474,-7.9407382]]]}},{"type":"Feature","id":"AC-Y717-X80","properties":{"id":"AC-Y717-X80","grid_x":80,"grid_y":717,"region":"oeste","centroid":[-73.7128048,-7.9381798],"aggregation":"none","score_unico_gradboost":0.0109094,"score_unico_random_forest":0.0360102,"score_unico_logistic_regression":0.1930823,"score_unico_fuzzy_knn":0.070708,"score_unico_xgboost":0.0296993,"score_regional_gradboost":0.0930505,"score_regional_random_forest":0.2063064,"score_regional_logistic_regression":0.2973687,"score_regional_fuzzy_knn":0.1715944,"score_regional_xgboost":0.153684},"geometry":{"type":"Polygon","coordinates":[[[-73.7168729,-7.9408301],[-73.7087983,-7.9409218],[-73.7087368,-7.9355294],[-73.7168113,-7.9354378],[-73.7168729,-7.9408301]]]}},{"type":"Feature","id":"AC-Y718-X77","properties":{"id":"AC-Y718-X77","grid_x":77,"grid_y":718,"region":"oeste","centroid":[-73.7369662,-7.932512],"aggregation":"none","score_unico_gradboost":0.008208,"score_unico_random_forest":0.0103457,"score_unico_logistic_regression":0.1815698,"score_unico_fuzzy_knn":0.0620164,"score_unico_xgboost":0.0067604,"score_regional_gradboost":0.0302064,"score_regional_random_forest":0.0926342,"score_regional_logistic_regression":0.249979,"score_regional_fuzzy_knn":0.1323391,"score_regional_xgboost":0.0682369},"geometry":{"type":"Polygon","coordinates":[[[-73.7410342,-7.935162],[-73.73296,-7.9352541],[-73.7328982,-7.929862],[-73.7409723,-7.92977],[-73.7410342,-7.935162]]]}},{"type":"Feature","id":"AC-Y718-X78","properties":{"id":"AC-Y718-X78","grid_x":78,"grid_y":718,"region":"oeste","centroid":[-73.728892,-7.932604],"aggregation":"none","score_unico_gradboost":0.0057141,"score_unico_random_forest":0.030175,"score_unico_logistic_regression":0.2080403,"score_unico_fuzzy_knn":0.0577608,"score_unico_xgboost":0.0099294,"score_regional_gradboost":0.0495125,"score_regional_random_forest":0.1891856,"score_regional_logistic_regression":0.2931005,"score_regional_fuzzy_knn":0.1965206,"score_regional_xgboost":0.1316815},"geometry":{"type":"Polygon","coordinates":[[[-73.73296,-7.9352541],[-73.7248857,-7.935346],[-73.724824,-7.9299539],[-73.7328982,-7.929862],[-73.73296,-7.9352541]]]}},{"type":"Feature","id":"AC-Y718-X79","properties":{"id":"AC-Y718-X79","grid_x":79,"grid_y":718,"region":"oeste","centroid":[-73.7208177,-7.9326958],"aggregation":"none","score_unico_gradboost":0.0060985,"score_unico_random_forest":0.0224018,"score_unico_logistic_regression":0.20605,"score_unico_fuzzy_knn":0.0657156,"score_unico_xgboost":0.0098169,"score_regional_gradboost":0.0592483,"score_regional_random_forest":0.1987976,"score_regional_logistic_regression":0.2941923,"score_regional_fuzzy_knn":0.1800565,"score_regional_xgboost":0.1533878},"geometry":{"type":"Polygon","coordinates":[[[-73.7248857,-7.935346],[-73.7168113,-7.9354378],[-73.7167497,-7.9300456],[-73.724824,-7.9299539],[-73.7248857,-7.935346]]]}},{"type":"Feature","id":"AC-Y718-X80","properties":{"id":"AC-Y718-X80","grid_x":80,"grid_y":718,"region":"oeste","centroid":[-73.7127433,-7.9327875],"aggregation":"none","score_unico_gradboost":0.0068431,"score_unico_random_forest":0.0200978,"score_unico_logistic_regression":0.2083339,"score_unico_fuzzy_knn":0.0742681,"score_unico_xgboost":0.0100735,"score_regional_gradboost":0.0650185,"score_regional_random_forest":0.2058991,"score_regional_logistic_regression":0.3036339,"score_regional_fuzzy_knn":0.1924218,"score_regional_xgboost":0.1548484},"geometry":{"type":"Polygon","coordinates":[[[-73.7168113,-7.9354378],[-73.7087368,-7.9355294],[-73.7086753,-7.9301371],[-73.7167497,-7.9300456],[-73.7168113,-7.9354378]]]}},{"type":"Feature","id":"AC-Y718-X76","properties":{"id":"AC-Y718-X76","grid_x":76,"grid_y":718,"region":"oeste","centroid":[-73.7450403,-7.9324199],"aggregation":"none","score_unico_gradboost":0.0044124,"score_unico_random_forest":0.00793,"score_unico_logistic_regression":0.1731867,"score_unico_fuzzy_knn":0.0396635,"score_unico_xgboost":0.0060197,"score_regional_gradboost":0.0207165,"score_regional_random_forest":0.0540413,"score_regional_logistic_regression":0.233144,"score_regional_fuzzy_knn":0.11871,"score_regional_xgboost":0.0495159},"geometry":{"type":"Polygon","coordinates":[[[-73.7491083,-7.9350698],[-73.7410342,-7.935162],[-73.7409723,-7.92977],[-73.7490463,-7.9296778],[-73.7491083,-7.9350698]]]}},{"type":"Feature","id":"AC-Y719-X76","properties":{"id":"AC-Y719-X76","grid_x":76,"grid_y":719,"region":"oeste","centroid":[-73.7449783,-7.9270279],"aggregation":"none","score_unico_gradboost":0.005346,"score_unico_random_forest":0.0077809,"score_unico_logistic_regression":0.1777139,"score_unico_fuzzy_knn":0.055129,"score_unico_xgboost":0.0055183,"score_regional_gradboost":0.0250894,"score_regional_random_forest":0.0694583,"score_regional_logistic_regression":0.2439248,"score_regional_fuzzy_knn":0.1237708,"score_regional_xgboost":0.0583173},"geometry":{"type":"Polygon","coordinates":[[[-73.7490463,-7.9296778],[-73.7409723,-7.92977],[-73.7409104,-7.9243779],[-73.7489843,-7.9242858],[-73.7490463,-7.9296778]]]}},{"type":"Feature","id":"AC-Y719-X77","properties":{"id":"AC-Y719-X77","grid_x":77,"grid_y":719,"region":"oeste","centroid":[-73.7369043,-7.9271199],"aggregation":"none","score_unico_gradboost":0.0091643,"score_unico_random_forest":0.0265889,"score_unico_logistic_regression":0.1854406,"score_unico_fuzzy_knn":0.0560934,"score_unico_xgboost":0.007437,"score_regional_gradboost":0.0302064,"score_regional_random_forest":0.1409499,"score_regional_logistic_regression":0.257157,"score_regional_fuzzy_knn":0.1420279,"score_regional_xgboost":0.0818991},"geometry":{"type":"Polygon","coordinates":[[[-73.7409723,-7.92977],[-73.7328982,-7.929862],[-73.7328364,-7.9244699],[-73.7409104,-7.9243779],[-73.7409723,-7.92977]]]}},{"type":"Feature","id":"AC-Y719-X78","properties":{"id":"AC-Y719-X78","grid_x":78,"grid_y":719,"region":"oeste","centroid":[-73.7288302,-7.9272119],"aggregation":"none","score_unico_gradboost":0.0084781,"score_unico_random_forest":0.0298018,"score_unico_logistic_regression":0.1739002,"score_unico_fuzzy_knn":0.0716481,"score_unico_xgboost":0.009877,"score_regional_gradboost":0.0439023,"score_regional_random_forest":0.1825859,"score_regional_logistic_regression":0.2444177,"score_regional_fuzzy_knn":0.135882,"score_regional_xgboost":0.1110635},"geometry":{"type":"Polygon","coordinates":[[[-73.7328982,-7.929862],[-73.724824,-7.9299539],[-73.7247623,-7.9245617],[-73.7328364,-7.9244699],[-73.7328982,-7.929862]]]}},{"type":"Feature","id":"AC-Y719-X79","properties":{"id":"AC-Y719-X79","grid_x":79,"grid_y":719,"region":"oeste","centroid":[-73.720756,-7.9273036],"aggregation":"none","score_unico_gradboost":0.0095997,"score_unico_random_forest":0.0305555,"score_unico_logistic_regression":0.1856112,"score_unico_fuzzy_knn":0.0575639,"score_unico_xgboost":0.0102356,"score_regional_gradboost":0.0343949,"score_regional_random_forest":0.1758073,"score_regional_logistic_regression":0.2603931,"score_regional_fuzzy_knn":0.151921,"score_regional_xgboost":0.1110635},"geometry":{"type":"Polygon","coordinates":[[[-73.724824,-7.9299539],[-73.7167497,-7.9300456],[-73.7166881,-7.9246533],[-73.7247623,-7.9245617],[-73.724824,-7.9299539]]]}},{"type":"Feature","id":"AC-Y719-X80","properties":{"id":"AC-Y719-X80","grid_x":80,"grid_y":719,"region":"oeste","centroid":[-73.7126818,-7.9273952],"aggregation":"none","score_unico_gradboost":0.0061296,"score_unico_random_forest":0.016364,"score_unico_logistic_regression":0.2079355,"score_unico_fuzzy_knn":0.0651883,"score_unico_xgboost":0.0110095,"score_regional_gradboost":0.0592483,"score_regional_random_forest":0.2010675,"score_regional_logistic_regression":0.2948553,"score_regional_fuzzy_knn":0.1810449,"score_regional_xgboost":0.1518256},"geometry":{"type":"Polygon","coordinates":[[[-73.7167497,-7.9300456],[-73.7086753,-7.9301371],[-73.7086139,-7.9247448],[-73.7166881,-7.9246533],[-73.7167497,-7.9300456]]]}},{"type":"Feature","id":"AC-Y720-X76","properties":{"id":"AC-Y720-X76","grid_x":76,"grid_y":720,"region":"oeste","centroid":[-73.7449164,-7.9216358],"aggregation":"none","score_unico_gradboost":0.0060166,"score_unico_random_forest":0.0263695,"score_unico_logistic_regression":0.1776776,"score_unico_fuzzy_knn":0.0713389,"score_unico_xgboost":0.0081414,"score_regional_gradboost":0.0280269,"score_regional_random_forest":0.1667686,"score_regional_logistic_regression":0.2493,"score_regional_fuzzy_knn":0.1356068,"score_regional_xgboost":0.107763},"geometry":{"type":"Polygon","coordinates":[[[-73.7489843,-7.9242858],[-73.7409104,-7.9243779],[-73.7408486,-7.9189858],[-73.7489224,-7.9188938],[-73.7489843,-7.9242858]]]}},{"type":"Feature","id":"AC-Y720-X77","properties":{"id":"AC-Y720-X77","grid_x":77,"grid_y":720,"region":"oeste","centroid":[-73.7368425,-7.9217278],"aggregation":"none","score_unico_gradboost":0.0088944,"score_unico_random_forest":0.0157148,"score_unico_logistic_regression":0.1696134,"score_unico_fuzzy_knn":0.0805292,"score_unico_xgboost":0.007548,"score_regional_gradboost":0.0482699,"score_regional_random_forest":0.1877363,"score_regional_logistic_regression":0.2413105,"score_regional_fuzzy_knn":0.1382678,"score_regional_xgboost":0.129355},"geometry":{"type":"Polygon","coordinates":[[[-73.7409104,-7.9243779],[-73.7328364,-7.9244699],[-73.7327747,-7.9190777],[-73.7408486,-7.9189858],[-73.7409104,-7.9243779]]]}},{"type":"Feature","id":"AC-Y720-X78","properties":{"id":"AC-Y720-X78","grid_x":78,"grid_y":720,"region":"oeste","centroid":[-73.7287685,-7.9218197],"aggregation":"none","score_unico_gradboost":0.0098758,"score_unico_random_forest":0.022227,"score_unico_logistic_regression":0.1764105,"score_unico_fuzzy_knn":0.0750367,"score_unico_xgboost":0.0108181,"score_regional_gradboost":0.0581378,"score_regional_random_forest":0.1938766,"score_regional_logistic_regression":0.2569824,"score_regional_fuzzy_knn":0.1634678,"score_regional_xgboost":0.1314683},"geometry":{"type":"Polygon","coordinates":[[[-73.7328364,-7.9244699],[-73.7247623,-7.9245617],[-73.7247007,-7.9191695],[-73.7327747,-7.9190777],[-73.7328364,-7.9244699]]]}},{"type":"Feature","id":"AC-Y720-X79","properties":{"id":"AC-Y720-X79","grid_x":79,"grid_y":720,"region":"oeste","centroid":[-73.7206945,-7.9219114],"aggregation":"none","score_unico_gradboost":0.0088848,"score_unico_random_forest":0.0200005,"score_unico_logistic_regression":0.1732806,"score_unico_fuzzy_knn":0.0812956,"score_unico_xgboost":0.0108831,"score_regional_gradboost":0.0549621,"score_regional_random_forest":0.1949635,"score_regional_logistic_regression":0.2508593,"score_regional_fuzzy_knn":0.1552093,"score_regional_xgboost":0.1314683},"geometry":{"type":"Polygon","coordinates":[[[-73.7247623,-7.9245617],[-73.7166881,-7.9246533],[-73.7166266,-7.9192611],[-73.7247007,-7.9191695],[-73.7247623,-7.9245617]]]}},{"type":"Feature","id":"AC-Y720-X80","properties":{"id":"AC-Y720-X80","grid_x":80,"grid_y":720,"region":"oeste","centroid":[-73.7126203,-7.9220029],"aggregation":"none","score_unico_gradboost":0.0107631,"score_unico_random_forest":0.0195484,"score_unico_logistic_regression":0.1911932,"score_unico_fuzzy_knn":0.0612242,"score_unico_xgboost":0.0122341,"score_regional_gradboost":0.0581378,"score_regional_random_forest":0.1932552,"score_regional_logistic_regression":0.2803697,"score_regional_fuzzy_knn":0.1677554,"score_regional_xgboost":0.130622},"geometry":{"type":"Polygon","coordinates":[[[-73.7166881,-7.9246533],[-73.7086139,-7.9247448],[-73.7085525,-7.9193525],[-73.7166266,-7.9192611],[-73.7166881,-7.9246533]]]}},{"type":"Feature","id":"AC-Y721-X75","properties":{"id":"AC-Y721-X75","grid_x":75,"grid_y":721,"region":"oeste","centroid":[-73.7529283,-7.9161517],"aggregation":"none","score_unico_gradboost":0.0024344,"score_unico_random_forest":0.0339448,"score_unico_logistic_regression":0.162829,"score_unico_fuzzy_knn":0.0852058,"score_unico_xgboost":0.0048317,"score_regional_gradboost":0.0298969,"score_regional_random_forest":0.1068591,"score_regional_logistic_regression":0.2290091,"score_regional_fuzzy_knn":0.1491737,"score_regional_xgboost":0.0685818},"geometry":{"type":"Polygon","coordinates":[[[-73.7569961,-7.9188016],[-73.7489224,-7.9188938],[-73.7488605,-7.9135018],[-73.7569341,-7.9134096],[-73.7569961,-7.9188016]]]}},{"type":"Feature","id":"AC-Y721-X76","properties":{"id":"AC-Y721-X76","grid_x":76,"grid_y":721,"region":"oeste","centroid":[-73.7448546,-7.9162438],"aggregation":"none","score_unico_gradboost":0.0034358,"score_unico_random_forest":0.0150448,"score_unico_logistic_regression":0.1652752,"score_unico_fuzzy_knn":0.0827026,"score_unico_xgboost":0.0072264,"score_regional_gradboost":0.0468402,"score_regional_random_forest":0.1829456,"score_regional_logistic_regression":0.23753,"score_regional_fuzzy_knn":0.1401757,"score_regional_xgboost":0.1276484},"geometry":{"type":"Polygon","coordinates":[[[-73.7489224,-7.9188938],[-73.7408486,-7.9189858],[-73.7407868,-7.9135938],[-73.7488605,-7.9135018],[-73.7489224,-7.9188938]]]}},{"type":"Feature","id":"AC-Y721-X77","properties":{"id":"AC-Y721-X77","grid_x":77,"grid_y":721,"region":"oeste","centroid":[-73.7367808,-7.9163357],"aggregation":"none","score_unico_gradboost":0.0099143,"score_unico_random_forest":0.0231442,"score_unico_logistic_regression":0.1758232,"score_unico_fuzzy_knn":0.083694,"score_unico_xgboost":0.0110857,"score_regional_gradboost":0.0954368,"score_regional_random_forest":0.1974865,"score_regional_logistic_regression":0.2614638,"score_regional_fuzzy_knn":0.165572,"score_regional_xgboost":0.153684},"geometry":{"type":"Polygon","coordinates":[[[-73.7408486,-7.9189858],[-73.7327747,-7.9190777],[-73.732713,-7.9136856],[-73.7407868,-7.9135938],[-73.7408486,-7.9189858]]]}},{"type":"Feature","id":"AC-Y721-X78","properties":{"id":"AC-Y721-X78","grid_x":78,"grid_y":721,"region":"oeste","centroid":[-73.7287069,-7.9164275],"aggregation":"none","score_unico_gradboost":0.0106703,"score_unico_random_forest":0.0284902,"score_unico_logistic_regression":0.1889641,"score_unico_fuzzy_knn":0.0776253,"score_unico_xgboost":0.0248706,"score_regional_gradboost":0.0930505,"score_regional_random_forest":0.2054046,"score_regional_logistic_regression":0.291426,"score_regional_fuzzy_knn":0.185494,"score_regional_xgboost":0.153684},"geometry":{"type":"Polygon","coordinates":[[[-73.7327747,-7.9190777],[-73.7247007,-7.9191695],[-73.7246392,-7.9137773],[-73.732713,-7.9136856],[-73.7327747,-7.9190777]]]}},{"type":"Feature","id":"AC-Y721-X79","properties":{"id":"AC-Y721-X79","grid_x":79,"grid_y":721,"region":"oeste","centroid":[-73.7206329,-7.9165192],"aggregation":"none","score_unico_gradboost":0.0105483,"score_unico_random_forest":0.0353367,"score_unico_logistic_regression":0.1830296,"score_unico_fuzzy_knn":0.0702014,"score_unico_xgboost":0.0166209,"score_regional_gradboost":0.1065002,"score_regional_random_forest":0.2075991,"score_regional_logistic_regression":0.2772014,"score_regional_fuzzy_knn":0.1755964,"score_regional_xgboost":0.153684},"geometry":{"type":"Polygon","coordinates":[[[-73.7247007,-7.9191695],[-73.7166266,-7.9192611],[-73.7165652,-7.9138688],[-73.7246392,-7.9137773],[-73.7247007,-7.9191695]]]}},{"type":"Feature","id":"AC-Y721-X80","properties":{"id":"AC-Y721-X80","grid_x":80,"grid_y":721,"region":"oeste","centroid":[-73.7125588,-7.9166107],"aggregation":"none","score_unico_gradboost":0.0075542,"score_unico_random_forest":0.0625966,"score_unico_logistic_regression":0.2104495,"score_unico_fuzzy_knn":0.0783234,"score_unico_xgboost":0.0230821,"score_regional_gradboost":0.1371816,"score_regional_random_forest":0.2198695,"score_regional_logistic_regression":0.3270236,"score_regional_fuzzy_knn":0.2049507,"score_regional_xgboost":0.1724841},"geometry":{"type":"Polygon","coordinates":[[[-73.7166266,-7.9192611],[-73.7085525,-7.9193525],[-73.7084911,-7.9139602],[-73.7165652,-7.9138688],[-73.7166266,-7.9192611]]]}},{"type":"Feature","id":"AC-Y722-X74","properties":{"id":"AC-Y722-X74","grid_x":74,"grid_y":722,"region":"oeste","centroid":[-73.7609399,-7.9106675],"aggregation":"none","score_unico_gradboost":0.0016183,"score_unico_random_forest":0.0114636,"score_unico_logistic_regression":0.1582758,"score_unico_fuzzy_knn":0.0686595,"score_unico_xgboost":0.0040365,"score_regional_gradboost":0.0206217,"score_regional_random_forest":0.0556912,"score_regional_logistic_regression":0.2181856,"score_regional_fuzzy_knn":0.1362127,"score_regional_xgboost":0.0478917},"geometry":{"type":"Polygon","coordinates":[[[-73.7650076,-7.9133173],[-73.7569341,-7.9134096],[-73.7568722,-7.9080177],[-73.7649456,-7.9079254],[-73.7650076,-7.9133173]]]}},{"type":"Feature","id":"AC-Y722-X75","properties":{"id":"AC-Y722-X75","grid_x":75,"grid_y":722,"region":"oeste","centroid":[-73.7528664,-7.9107597],"aggregation":"none","score_unico_gradboost":0.0028331,"score_unico_random_forest":0.0351301,"score_unico_logistic_regression":0.1560785,"score_unico_fuzzy_knn":0.0874067,"score_unico_xgboost":0.0049256,"score_regional_gradboost":0.0459005,"score_regional_random_forest":0.1656418,"score_regional_logistic_regression":0.2214705,"score_regional_fuzzy_knn":0.1519109,"score_regional_xgboost":0.1078403},"geometry":{"type":"Polygon","coordinates":[[[-73.7569341,-7.9134096],[-73.7488605,-7.9135018],[-73.7487987,-7.9081098],[-73.7568722,-7.9080177],[-73.7569341,-7.9134096]]]}},{"type":"Feature","id":"AC-Y722-X76","properties":{"id":"AC-Y722-X76","grid_x":76,"grid_y":722,"region":"oeste","centroid":[-73.7447928,-7.9108518],"aggregation":"none","score_unico_gradboost":0.0076371,"score_unico_random_forest":0.0156214,"score_unico_logistic_regression":0.1845576,"score_unico_fuzzy_knn":0.08162,"score_unico_xgboost":0.009609,"score_regional_gradboost":0.0603706,"score_regional_random_forest":0.1814882,"score_regional_logistic_regression":0.2719487,"score_regional_fuzzy_knn":0.165916,"score_regional_xgboost":0.1276484},"geometry":{"type":"Polygon","coordinates":[[[-73.7488605,-7.9135018],[-73.7407868,-7.9135938],[-73.7407251,-7.9082017],[-73.7487987,-7.9081098],[-73.7488605,-7.9135018]]]}},{"type":"Feature","id":"AC-Y722-X77","properties":{"id":"AC-Y722-X77","grid_x":77,"grid_y":722,"region":"oeste","centroid":[-73.7367191,-7.9109436],"aggregation":"none","score_unico_gradboost":0.0129257,"score_unico_random_forest":0.0623841,"score_unico_logistic_regression":0.1960879,"score_unico_fuzzy_knn":0.0861118,"score_unico_xgboost":0.0203043,"score_regional_gradboost":0.0635295,"score_regional_random_forest":0.1981825,"score_regional_logistic_regression":0.3180597,"score_regional_fuzzy_knn":0.1888871,"score_regional_xgboost":0.1231191},"geometry":{"type":"Polygon","coordinates":[[[-73.7407868,-7.9135938],[-73.732713,-7.9136856],[-73.7326514,-7.9082935],[-73.7407251,-7.9082017],[-73.7407868,-7.9135938]]]}},{"type":"Feature","id":"AC-Y722-X78","properties":{"id":"AC-Y722-X78","grid_x":78,"grid_y":722,"region":"oeste","centroid":[-73.7286453,-7.9110354],"aggregation":"none","score_unico_gradboost":0.0059131,"score_unico_random_forest":0.0709634,"score_unico_logistic_regression":0.2176045,"score_unico_fuzzy_knn":0.0946506,"score_unico_xgboost":0.0185695,"score_regional_gradboost":0.0559495,"score_regional_random_forest":0.2100593,"score_regional_logistic_regression":0.3908143,"score_regional_fuzzy_knn":0.2128895,"score_regional_xgboost":0.0779834},"geometry":{"type":"Polygon","coordinates":[[[-73.732713,-7.9136856],[-73.7246392,-7.9137773],[-73.7245776,-7.9083851],[-73.7326514,-7.9082935],[-73.732713,-7.9136856]]]}},{"type":"Feature","id":"AC-Y722-X79","properties":{"id":"AC-Y722-X79","grid_x":79,"grid_y":722,"region":"oeste","centroid":[-73.7205714,-7.911127],"aggregation":"none","score_unico_gradboost":0.0070041,"score_unico_random_forest":0.065154,"score_unico_logistic_regression":0.217263,"score_unico_fuzzy_knn":0.0941038,"score_unico_xgboost":0.017795,"score_regional_gradboost":0.0579492,"score_regional_random_forest":0.2135635,"score_regional_logistic_regression":0.3648476,"score_regional_fuzzy_knn":0.2161262,"score_regional_xgboost":0.0892349},"geometry":{"type":"Polygon","coordinates":[[[-73.7246392,-7.9137773],[-73.7165652,-7.9138688],[-73.7165038,-7.9084766],[-73.7245776,-7.9083851],[-73.7246392,-7.9137773]]]}},{"type":"Feature","id":"AC-Y722-X80","properties":{"id":"AC-Y722-X80","grid_x":80,"grid_y":722,"region":"oeste","centroid":[-73.7124975,-7.9112184],"aggregation":"none","score_unico_gradboost":0.0063071,"score_unico_random_forest":0.0681732,"score_unico_logistic_regression":0.2242237,"score_unico_fuzzy_knn":0.0951826,"score_unico_xgboost":0.0204105,"score_regional_gradboost":0.0569458,"score_regional_random_forest":0.2169652,"score_regional_logistic_regression":0.3926035,"score_regional_fuzzy_knn":0.2189015,"score_regional_xgboost":0.0928689},"geometry":{"type":"Polygon","coordinates":[[[-73.7165652,-7.9138688],[-73.7084911,-7.9139602],[-73.7084298,-7.9085679],[-73.7165038,-7.9084766],[-73.7165652,-7.9138688]]]}},{"type":"Feature","id":"AC-Y723-X73","properties":{"id":"AC-Y723-X73","grid_x":73,"grid_y":723,"region":"oeste","centroid":[-73.7689512,-7.9051833],"aggregation":"none","score_unico_gradboost":0.0013881,"score_unico_random_forest":0.011317,"score_unico_logistic_regression":0.1568631,"score_unico_fuzzy_knn":0.0589021,"score_unico_xgboost":0.0034015,"score_regional_gradboost":0.0182983,"score_regional_random_forest":0.0530234,"score_regional_logistic_regression":0.212481,"score_regional_fuzzy_knn":0.1224721,"score_regional_xgboost":0.0439068},"geometry":{"type":"Polygon","coordinates":[[[-73.7730188,-7.907833],[-73.7649456,-7.9079254],[-73.7648836,-7.9025336],[-73.7729567,-7.9024412],[-73.7730188,-7.907833]]]}},{"type":"Feature","id":"AC-Y723-X74","properties":{"id":"AC-Y723-X74","grid_x":74,"grid_y":723,"region":"oeste","centroid":[-73.7608779,-7.9052756],"aggregation":"none","score_unico_gradboost":0.0017159,"score_unico_random_forest":0.0139011,"score_unico_logistic_regression":0.1545278,"score_unico_fuzzy_knn":0.0776774,"score_unico_xgboost":0.0040478,"score_regional_gradboost":0.032251,"score_regional_random_forest":0.0687547,"score_regional_logistic_regression":0.2149377,"score_regional_fuzzy_knn":0.1399345,"score_regional_xgboost":0.0585599},"geometry":{"type":"Polygon","coordinates":[[[-73.7649456,-7.9079254],[-73.7568722,-7.9080177],[-73.7568103,-7.9026257],[-73.7648836,-7.9025336],[-73.7649456,-7.9079254]]]}},{"type":"Feature","id":"AC-Y723-X75","properties":{"id":"AC-Y723-X75","grid_x":75,"grid_y":723,"region":"oeste","centroid":[-73.7528045,-7.9053678],"aggregation":"none","score_unico_gradboost":0.0046102,"score_unico_random_forest":0.0287131,"score_unico_logistic_regression":0.1805009,"score_unico_fuzzy_knn":0.0885551,"score_unico_xgboost":0.0051379,"score_regional_gradboost":0.0447815,"score_regional_random_forest":0.1870787,"score_regional_logistic_regression":0.2613526,"score_regional_fuzzy_knn":0.1729162,"score_regional_xgboost":0.1299657},"geometry":{"type":"Polygon","coordinates":[[[-73.7568722,-7.9080177],[-73.7487987,-7.9081098],[-73.7487369,-7.9027178],[-73.7568103,-7.9026257],[-73.7568722,-7.9080177]]]}},{"type":"Feature","id":"AC-Y723-X76","properties":{"id":"AC-Y723-X76","grid_x":76,"grid_y":723,"region":"oeste","centroid":[-73.744731,-7.9054597],"aggregation":"none","score_unico_gradboost":0.0067765,"score_unico_random_forest":0.0238424,"score_unico_logistic_regression":0.2014736,"score_unico_fuzzy_knn":0.0757266,"score_unico_xgboost":0.009592,"score_regional_gradboost":0.0942782,"score_regional_random_forest":0.1969287,"score_regional_logistic_regression":0.3016778,"score_regional_fuzzy_knn":0.1970496,"score_regional_xgboost":0.1493297},"geometry":{"type":"Polygon","coordinates":[[[-73.7487987,-7.9081098],[-73.7407251,-7.9082017],[-73.7406634,-7.9028096],[-73.7487369,-7.9027178],[-73.7487987,-7.9081098]]]}},{"type":"Feature","id":"AC-Y723-X77","properties":{"id":"AC-Y723-X77","grid_x":77,"grid_y":723,"region":"oeste","centroid":[-73.7366574,-7.9055515],"aggregation":"none","score_unico_gradboost":0.0044676,"score_unico_random_forest":0.0673286,"score_unico_logistic_regression":0.2144275,"score_unico_fuzzy_knn":0.0877002,"score_unico_xgboost":0.0185695,"score_regional_gradboost":0.0515469,"score_regional_random_forest":0.2051557,"score_regional_logistic_regression":0.3900729,"score_regional_fuzzy_knn":0.1946237,"score_regional_xgboost":0.0779834},"geometry":{"type":"Polygon","coordinates":[[[-73.7407251,-7.9082017],[-73.7326514,-7.9082935],[-73.7325898,-7.9029013],[-73.7406634,-7.9028096],[-73.7407251,-7.9082017]]]}},{"type":"Feature","id":"AC-Y723-X78","properties":{"id":"AC-Y723-X78","grid_x":78,"grid_y":723,"region":"oeste","centroid":[-73.7285838,-7.9056432],"aggregation":"none","score_unico_gradboost":0.0102161,"score_unico_random_forest":0.0686731,"score_unico_logistic_regression":0.2007814,"score_unico_fuzzy_knn":0.0795042,"score_unico_xgboost":0.0203847,"score_regional_gradboost":0.0695728,"score_regional_random_forest":0.2034471,"score_regional_logistic_regression":0.327496,"score_regional_fuzzy_knn":0.183304,"score_regional_xgboost":0.1231191},"geometry":{"type":"Polygon","coordinates":[[[-73.7326514,-7.9082935],[-73.7245776,-7.9083851],[-73.7245161,-7.9029929],[-73.7325898,-7.9029013],[-73.7326514,-7.9082935]]]}},{"type":"Feature","id":"AC-Y723-X79","properties":{"id":"AC-Y723-X79","grid_x":79,"grid_y":723,"region":"oeste","centroid":[-73.72051,-7.9057347],"aggregation":"none","score_unico_gradboost":0.0127494,"score_unico_random_forest":0.0579493,"score_unico_logistic_regression":0.194475,"score_unico_fuzzy_knn":0.0782707,"score_unico_xgboost":0.0244079,"score_regional_gradboost":0.1272486,"score_regional_random_forest":0.2077376,"score_regional_logistic_regression":0.3051666,"score_regional_fuzzy_knn":0.1803799,"score_regional_xgboost":0.1552925},"geometry":{"type":"Polygon","coordinates":[[[-73.7245776,-7.9083851],[-73.7165038,-7.9084766],[-73.7164424,-7.9030843],[-73.7245161,-7.9029929],[-73.7245776,-7.9083851]]]}},{"type":"Feature","id":"AC-Y723-X80","properties":{"id":"AC-Y723-X80","grid_x":80,"grid_y":723,"region":"oeste","centroid":[-73.7124361,-7.9058261],"aggregation":"none","score_unico_gradboost":0.0097718,"score_unico_random_forest":0.0346058,"score_unico_logistic_regression":0.1808303,"score_unico_fuzzy_knn":0.0704752,"score_unico_xgboost":0.0186983,"score_regional_gradboost":0.0905262,"score_regional_random_forest":0.2045301,"score_regional_logistic_regression":0.2756729,"score_regional_fuzzy_knn":0.1680365,"score_regional_xgboost":0.15272},"geometry":{"type":"Polygon","coordinates":[[[-73.7165038,-7.9084766],[-73.7084298,-7.9085679],[-73.7083685,-7.9031755],[-73.7164424,-7.9030843],[-73.7165038,-7.9084766]]]}},{"type":"Feature","id":"AC-Y724-X73","properties":{"id":"AC-Y724-X73","grid_x":73,"grid_y":724,"region":"oeste","centroid":[-73.7688891,-7.8997915],"aggregation":"none","score_unico_gradboost":0.0013881,"score_unico_random_forest":0.0106232,"score_unico_logistic_regression":0.151359,"score_unico_fuzzy_knn":0.0605384,"score_unico_xgboost":0.003374,"score_regional_gradboost":0.0272794,"score_regional_random_forest":0.0539096,"score_regional_logistic_regression":0.2055087,"score_regional_fuzzy_knn":0.1242067,"score_regional_xgboost":0.0497238},"geometry":{"type":"Polygon","coordinates":[[[-73.7729567,-7.9024412],[-73.7648836,-7.9025336],[-73.7648216,-7.8971417],[-73.7728947,-7.8970494],[-73.7729567,-7.9024412]]]}},{"type":"Feature","id":"AC-Y724-X74","properties":{"id":"AC-Y724-X74","grid_x":74,"grid_y":724,"region":"oeste","centroid":[-73.760816,-7.8998837],"aggregation":"none","score_unico_gradboost":0.0018714,"score_unico_random_forest":0.0322659,"score_unico_logistic_regression":0.1685131,"score_unico_fuzzy_knn":0.0848749,"score_unico_xgboost":0.0052106,"score_regional_gradboost":0.0231499,"score_regional_random_forest":0.0854523,"score_regional_logistic_regression":0.2367079,"score_regional_fuzzy_knn":0.1353117,"score_regional_xgboost":0.0587412},"geometry":{"type":"Polygon","coordinates":[[[-73.7648836,-7.9025336],[-73.7568103,-7.9026257],[-73.7567484,-7.8972338],[-73.7648216,-7.8971417],[-73.7648836,-7.9025336]]]}},{"type":"Feature","id":"AC-Y724-X75","properties":{"id":"AC-Y724-X75","grid_x":75,"grid_y":724,"region":"oeste","centroid":[-73.7527427,-7.8999758],"aggregation":"none","score_unico_gradboost":0.0046756,"score_unico_random_forest":0.0294303,"score_unico_logistic_regression":0.1767082,"score_unico_fuzzy_knn":0.096632,"score_unico_xgboost":0.0059579,"score_regional_gradboost":0.0457894,"score_regional_random_forest":0.193096,"score_regional_logistic_regression":0.2595993,"score_regional_fuzzy_knn":0.181422,"score_regional_xgboost":0.1320875},"geometry":{"type":"Polygon","coordinates":[[[-73.7568103,-7.9026257],[-73.7487369,-7.9027178],[-73.7486751,-7.8973257],[-73.7567484,-7.8972338],[-73.7568103,-7.9026257]]]}},{"type":"Feature","id":"AC-Y724-X76","properties":{"id":"AC-Y724-X76","grid_x":76,"grid_y":724,"region":"oeste","centroid":[-73.7446693,-7.9000677],"aggregation":"none","score_unico_gradboost":0.0124705,"score_unico_random_forest":0.051549,"score_unico_logistic_regression":0.1915719,"score_unico_fuzzy_knn":0.0851933,"score_unico_xgboost":0.02029,"score_regional_gradboost":0.1168244,"score_regional_random_forest":0.1962317,"score_regional_logistic_regression":0.3020248,"score_regional_fuzzy_knn":0.1792771,"score_regional_xgboost":0.1509007},"geometry":{"type":"Polygon","coordinates":[[[-73.7487369,-7.9027178],[-73.7406634,-7.9028096],[-73.7406018,-7.8974176],[-73.7486751,-7.8973257],[-73.7487369,-7.9027178]]]}},{"type":"Feature","id":"AC-Y724-X77","properties":{"id":"AC-Y724-X77","grid_x":77,"grid_y":724,"region":"oeste","centroid":[-73.7365958,-7.9001594],"aggregation":"none","score_unico_gradboost":0.011871,"score_unico_random_forest":0.0662709,"score_unico_logistic_regression":0.1862926,"score_unico_fuzzy_knn":0.093414,"score_unico_xgboost":0.0203625,"score_regional_gradboost":0.0695728,"score_regional_random_forest":0.2005345,"score_regional_logistic_regression":0.3043391,"score_regional_fuzzy_knn":0.1789433,"score_regional_xgboost":0.1231191},"geometry":{"type":"Polygon","coordinates":[[[-73.7406634,-7.9028096],[-73.7325898,-7.9029013],[-73.7325283,-7.8975092],[-73.7406018,-7.8974176],[-73.7406634,-7.9028096]]]}},{"type":"Feature","id":"AC-Y724-X78","properties":{"id":"AC-Y724-X78","grid_x":78,"grid_y":724,"region":"oeste","centroid":[-73.7285222,-7.900251],"aggregation":"none","score_unico_gradboost":0.0109593,"score_unico_random_forest":0.0273619,"score_unico_logistic_regression":0.1818243,"score_unico_fuzzy_knn":0.0763318,"score_unico_xgboost":0.0129247,"score_regional_gradboost":0.1041777,"score_regional_random_forest":0.2040711,"score_regional_logistic_regression":0.2721373,"score_regional_fuzzy_knn":0.1744605,"score_regional_xgboost":0.153684},"geometry":{"type":"Polygon","coordinates":[[[-73.7325898,-7.9029013],[-73.7245161,-7.9029929],[-73.7244547,-7.8976007],[-73.7325283,-7.8975092],[-73.7325898,-7.9029013]]]}},{"type":"Feature","id":"AC-Y724-X79","properties":{"id":"AC-Y724-X79","grid_x":79,"grid_y":724,"region":"oeste","centroid":[-73.7204486,-7.9003425],"aggregation":"none","score_unico_gradboost":0.0101315,"score_unico_random_forest":0.021261,"score_unico_logistic_regression":0.182429,"score_unico_fuzzy_knn":0.0681972,"score_unico_xgboost":0.0118842,"score_regional_gradboost":0.0581378,"score_regional_random_forest":0.1936675,"score_regional_logistic_regression":0.2672812,"score_regional_fuzzy_knn":0.1724984,"score_regional_xgboost":0.1314683},"geometry":{"type":"Polygon","coordinates":[[[-73.7245161,-7.9029929],[-73.7164424,-7.9030843],[-73.716381,-7.897692],[-73.7244547,-7.8976007],[-73.7245161,-7.9029929]]]}},{"type":"Feature","id":"AC-Y724-X80","properties":{"id":"AC-Y724-X80","grid_x":80,"grid_y":724,"region":"oeste","centroid":[-73.7123748,-7.9004338],"aggregation":"none","score_unico_gradboost":0.0087621,"score_unico_random_forest":0.0188858,"score_unico_logistic_regression":0.1787804,"score_unico_fuzzy_knn":0.0673317,"score_unico_xgboost":0.0117159,"score_regional_gradboost":0.0463176,"score_regional_random_forest":0.1950868,"score_regional_logistic_regression":0.2587199,"score_regional_fuzzy_knn":0.1630306,"score_regional_xgboost":0.1108434},"geometry":{"type":"Polygon","coordinates":[[[-73.7164424,-7.9030843],[-73.7083685,-7.9031755],[-73.7083073,-7.8977832],[-73.716381,-7.897692],[-73.7164424,-7.9030843]]]}},{"type":"Feature","id":"AC-Y725-X75","properties":{"id":"AC-Y725-X75","grid_x":75,"grid_y":725,"region":"oeste","centroid":[-73.7526809,-7.8945838],"aggregation":"none","score_unico_gradboost":0.0044474,"score_unico_random_forest":0.0252202,"score_unico_logistic_regression":0.1888028,"score_unico_fuzzy_knn":0.0914445,"score_unico_xgboost":0.0046711,"score_regional_gradboost":0.047123,"score_regional_random_forest":0.1931407,"score_regional_logistic_regression":0.2791279,"score_regional_fuzzy_knn":0.1877106,"score_regional_xgboost":0.1320875},"geometry":{"type":"Polygon","coordinates":[[[-73.7567484,-7.8972338],[-73.7486751,-7.8973257],[-73.7486134,-7.8919337],[-73.7566866,-7.8918418],[-73.7567484,-7.8972338]]]}},{"type":"Feature","id":"AC-Y725-X76","properties":{"id":"AC-Y725-X76","grid_x":76,"grid_y":725,"region":"oeste","centroid":[-73.7446076,-7.8946756],"aggregation":"none","score_unico_gradboost":0.0129257,"score_unico_random_forest":0.0599197,"score_unico_logistic_regression":0.1979218,"score_unico_fuzzy_knn":0.0862355,"score_unico_xgboost":0.0169242,"score_regional_gradboost":0.0635295,"score_regional_random_forest":0.1936045,"score_regional_logistic_regression":0.3225789,"score_regional_fuzzy_knn":0.1819203,"score_regional_xgboost":0.1195085},"geometry":{"type":"Polygon","coordinates":[[[-73.7486751,-7.8973257],[-73.7406018,-7.8974176],[-73.7405402,-7.8920255],[-73.7486134,-7.8919337],[-73.7486751,-7.8973257]]]}},{"type":"Feature","id":"AC-Y725-X77","properties":{"id":"AC-Y725-X77","grid_x":77,"grid_y":725,"region":"oeste","centroid":[-73.7365343,-7.8947673],"aggregation":"none","score_unico_gradboost":0.0097977,"score_unico_random_forest":0.0275259,"score_unico_logistic_regression":0.1813219,"score_unico_fuzzy_knn":0.0844826,"score_unico_xgboost":0.0185286,"score_regional_gradboost":0.1065002,"score_regional_random_forest":0.2002519,"score_regional_logistic_regression":0.2773721,"score_regional_fuzzy_knn":0.1758459,"score_regional_xgboost":0.153684},"geometry":{"type":"Polygon","coordinates":[[[-73.7406018,-7.8974176],[-73.7325283,-7.8975092],[-73.7324668,-7.8921171],[-73.7405402,-7.8920255],[-73.7406018,-7.8974176]]]}},{"type":"Feature","id":"AC-Y725-X78","properties":{"id":"AC-Y725-X78","grid_x":78,"grid_y":725,"region":"oeste","centroid":[-73.7284608,-7.8948589],"aggregation":"none","score_unico_gradboost":0.0091202,"score_unico_random_forest":0.0260757,"score_unico_logistic_regression":0.1723831,"score_unico_fuzzy_knn":0.0804931,"score_unico_xgboost":0.0110094,"score_regional_gradboost":0.0536682,"score_regional_random_forest":0.193023,"score_regional_logistic_regression":0.2470287,"score_regional_fuzzy_knn":0.1464417,"score_regional_xgboost":0.1314683},"geometry":{"type":"Polygon","coordinates":[[[-73.7325283,-7.8975092],[-73.7244547,-7.8976007],[-73.7243933,-7.8922085],[-73.7324668,-7.8921171],[-73.7325283,-7.8975092]]]}},{"type":"Feature","id":"AC-Y725-X79","properties":{"id":"AC-Y725-X79","grid_x":79,"grid_y":725,"region":"oeste","centroid":[-73.7203872,-7.8949503],"aggregation":"none","score_unico_gradboost":0.0095997,"score_unico_random_forest":0.0170135,"score_unico_logistic_regression":0.1830391,"score_unico_fuzzy_knn":0.05821,"score_unico_xgboost":0.0096007,"score_regional_gradboost":0.049359,"score_regional_random_forest":0.1856002,"score_regional_logistic_regression":0.2581641,"score_regional_fuzzy_knn":0.1448119,"score_regional_xgboost":0.1168599},"geometry":{"type":"Polygon","coordinates":[[[-73.7244547,-7.8976007],[-73.716381,-7.897692],[-73.7163198,-7.8922998],[-73.7243933,-7.8922085],[-73.7244547,-7.8976007]]]}},{"type":"Feature","id":"AC-Y725-X80","properties":{"id":"AC-Y725-X80","grid_x":80,"grid_y":725,"region":"oeste","centroid":[-73.7123136,-7.8950415],"aggregation":"none","score_unico_gradboost":0.0086922,"score_unico_random_forest":0.0273794,"score_unico_logistic_regression":0.1781159,"score_unico_fuzzy_knn":0.0574098,"score_unico_xgboost":0.0099784,"score_regional_gradboost":0.0288864,"score_regional_random_forest":0.1777053,"score_regional_logistic_regression":0.2492798,"score_regional_fuzzy_knn":0.1352614,"score_regional_xgboost":0.0932959},"geometry":{"type":"Polygon","coordinates":[[[-73.716381,-7.897692],[-73.7083073,-7.8977832],[-73.7082461,-7.8923909],[-73.7163198,-7.8922998],[-73.716381,-7.897692]]]}},{"type":"Feature","id":"AC-Y726-X75","properties":{"id":"AC-Y726-X75","grid_x":75,"grid_y":726,"region":"oeste","centroid":[-73.7526192,-7.8891918],"aggregation":"none","score_unico_gradboost":0.004456,"score_unico_random_forest":0.0256973,"score_unico_logistic_regression":0.1971304,"score_unico_fuzzy_knn":0.0914615,"score_unico_xgboost":0.0044599,"score_regional_gradboost":0.0511681,"score_regional_random_forest":0.2000411,"score_regional_logistic_regression":0.2900265,"score_regional_fuzzy_knn":0.1920297,"score_regional_xgboost":0.1320875},"geometry":{"type":"Polygon","coordinates":[[[-73.7566866,-7.8918418],[-73.7486134,-7.8919337],[-73.7485518,-7.8865417],[-73.7566248,-7.8864499],[-73.7566866,-7.8918418]]]}},{"type":"Feature","id":"AC-Y726-X76","properties":{"id":"AC-Y726-X76","grid_x":76,"grid_y":726,"region":"oeste","centroid":[-73.744546,-7.8892836],"aggregation":"none","score_unico_gradboost":0.0112516,"score_unico_random_forest":0.0560644,"score_unico_logistic_regression":0.1786826,"score_unico_fuzzy_knn":0.0871173,"score_unico_xgboost":0.0197013,"score_regional_gradboost":0.1168244,"score_regional_random_forest":0.1984741,"score_regional_logistic_regression":0.2837351,"score_regional_fuzzy_knn":0.1770017,"score_regional_xgboost":0.1552925},"geometry":{"type":"Polygon","coordinates":[[[-73.7486134,-7.8919337],[-73.7405402,-7.8920255],[-73.7404786,-7.8866334],[-73.7485518,-7.8865417],[-73.7486134,-7.8919337]]]}},{"type":"Feature","id":"AC-Y726-X77","properties":{"id":"AC-Y726-X77","grid_x":77,"grid_y":726,"region":"oeste","centroid":[-73.7364727,-7.8893752],"aggregation":"none","score_unico_gradboost":0.0110492,"score_unico_random_forest":0.0719755,"score_unico_logistic_regression":0.1637396,"score_unico_fuzzy_knn":0.0970565,"score_unico_xgboost":0.0219232,"score_regional_gradboost":0.1102953,"score_regional_random_forest":0.2056684,"score_regional_logistic_regression":0.2615774,"score_regional_fuzzy_knn":0.1548881,"score_regional_xgboost":0.1731935},"geometry":{"type":"Polygon","coordinates":[[[-73.7405402,-7.8920255],[-73.7324668,-7.8921171],[-73.7324053,-7.8867249],[-73.7404786,-7.8866334],[-73.7405402,-7.8920255]]]}},{"type":"Feature","id":"AC-Y726-X78","properties":{"id":"AC-Y726-X78","grid_x":78,"grid_y":726,"region":"oeste","centroid":[-73.7283994,-7.8894667],"aggregation":"none","score_unico_gradboost":0.0091202,"score_unico_random_forest":0.0219635,"score_unico_logistic_regression":0.1760685,"score_unico_fuzzy_knn":0.0741155,"score_unico_xgboost":0.0114164,"score_regional_gradboost":0.0549621,"score_regional_random_forest":0.1956012,"score_regional_logistic_regression":0.2540532,"score_regional_fuzzy_knn":0.1548702,"score_regional_xgboost":0.1314683},"geometry":{"type":"Polygon","coordinates":[[[-73.7324668,-7.8921171],[-73.7243933,-7.8922085],[-73.724332,-7.8868163],[-73.7324053,-7.8867249],[-73.7324668,-7.8921171]]]}},{"type":"Feature","id":"AC-Y726-X79","properties":{"id":"AC-Y726-X79","grid_x":79,"grid_y":726,"region":"oeste","centroid":[-73.7203259,-7.889558],"aggregation":"none","score_unico_gradboost":0.0081885,"score_unico_random_forest":0.0171821,"score_unico_logistic_regression":0.1831317,"score_unico_fuzzy_knn":0.05554,"score_unico_xgboost":0.0098511,"score_regional_gradboost":0.0331921,"score_regional_random_forest":0.1003638,"score_regional_logistic_regression":0.252546,"score_regional_fuzzy_knn":0.1331446,"score_regional_xgboost":0.0677659},"geometry":{"type":"Polygon","coordinates":[[[-73.7243933,-7.8922085],[-73.7163198,-7.8922998],[-73.7162585,-7.8869075],[-73.724332,-7.8868163],[-73.7243933,-7.8922085]]]}},{"type":"Feature","id":"AC-Y726-X80","properties":{"id":"AC-Y726-X80","grid_x":80,"grid_y":726,"region":"oeste","centroid":[-73.7122523,-7.8896492],"aggregation":"none","score_unico_gradboost":0.0034921,"score_unico_random_forest":0.0100007,"score_unico_logistic_regression":0.1914629,"score_unico_fuzzy_knn":0.0481539,"score_unico_xgboost":0.0074236,"score_regional_gradboost":0.0227587,"score_regional_random_forest":0.0831495,"score_regional_logistic_regression":0.2620255,"score_regional_fuzzy_knn":0.1415502,"score_regional_xgboost":0.0501154},"geometry":{"type":"Polygon","coordinates":[[[-73.7163198,-7.8922998],[-73.7082461,-7.8923909],[-73.708185,-7.8869986],[-73.7162585,-7.8869075],[-73.7163198,-7.8922998]]]}},{"type":"Feature","id":"AC-Y727-X75","properties":{"id":"AC-Y727-X75","grid_x":75,"grid_y":727,"region":"oeste","centroid":[-73.7525575,-7.8837998],"aggregation":"none","score_unico_gradboost":0.0050648,"score_unico_random_forest":0.029052,"score_unico_logistic_regression":0.1694944,"score_unico_fuzzy_knn":0.0980337,"score_unico_xgboost":0.0064889,"score_regional_gradboost":0.046504,"score_regional_random_forest":0.1924144,"score_regional_logistic_regression":0.2510867,"score_regional_fuzzy_knn":0.1740421,"score_regional_xgboost":0.1320875},"geometry":{"type":"Polygon","coordinates":[[[-73.7566248,-7.8864499],[-73.7485518,-7.8865417],[-73.7484901,-7.8811497],[-73.7565631,-7.8810579],[-73.7566248,-7.8864499]]]}},{"type":"Feature","id":"AC-Y727-X76","properties":{"id":"AC-Y727-X76","grid_x":76,"grid_y":727,"region":"oeste","centroid":[-73.7444844,-7.8838916],"aggregation":"none","score_unico_gradboost":0.0114524,"score_unico_random_forest":0.0538793,"score_unico_logistic_regression":0.1846142,"score_unico_fuzzy_knn":0.092198,"score_unico_xgboost":0.0211004,"score_regional_gradboost":0.1168244,"score_regional_random_forest":0.1988704,"score_regional_logistic_regression":0.2901612,"score_regional_fuzzy_knn":0.1776293,"score_regional_xgboost":0.1552925},"geometry":{"type":"Polygon","coordinates":[[[-73.7485518,-7.8865417],[-73.7404786,-7.8866334],[-73.7404171,-7.8812413],[-73.7484901,-7.8811497],[-73.7485518,-7.8865417]]]}},{"type":"Feature","id":"AC-Y727-X77","properties":{"id":"AC-Y727-X77","grid_x":77,"grid_y":727,"region":"oeste","centroid":[-73.7364112,-7.8839831],"aggregation":"none","score_unico_gradboost":0.009795,"score_unico_random_forest":0.0619788,"score_unico_logistic_regression":0.1693854,"score_unico_fuzzy_knn":0.0954537,"score_unico_xgboost":0.0217862,"score_regional_gradboost":0.1652633,"score_regional_random_forest":0.2046488,"score_regional_logistic_regression":0.2682757,"score_regional_fuzzy_knn":0.1616262,"score_regional_xgboost":0.1731935},"geometry":{"type":"Polygon","coordinates":[[[-73.7404786,-7.8866334],[-73.7324053,-7.8867249],[-73.7323439,-7.8813328],[-73.7404171,-7.8812413],[-73.7404786,-7.8866334]]]}},{"type":"Feature","id":"AC-Y727-X78","properties":{"id":"AC-Y727-X78","grid_x":78,"grid_y":727,"region":"oeste","centroid":[-73.728338,-7.8840745],"aggregation":"none","score_unico_gradboost":0.0047898,"score_unico_random_forest":0.0211607,"score_unico_logistic_regression":0.168113,"score_unico_fuzzy_knn":0.0816825,"score_unico_xgboost":0.0094118,"score_regional_gradboost":0.0577164,"score_regional_random_forest":0.1945446,"score_regional_logistic_regression":0.2420308,"score_regional_fuzzy_knn":0.147306,"score_regional_xgboost":0.1314683},"geometry":{"type":"Polygon","coordinates":[[[-73.7324053,-7.8867249],[-73.724332,-7.8868163],[-73.7242707,-7.8814241],[-73.7323439,-7.8813328],[-73.7324053,-7.8867249]]]}},{"type":"Feature","id":"AC-Y727-X79","properties":{"id":"AC-Y727-X79","grid_x":79,"grid_y":727,"region":"oeste","centroid":[-73.7202646,-7.8841658],"aggregation":"none","score_unico_gradboost":0.0039544,"score_unico_random_forest":0.0137252,"score_unico_logistic_regression":0.1595582,"score_unico_fuzzy_knn":0.0566893,"score_unico_xgboost":0.0079212,"score_regional_gradboost":0.0445421,"score_regional_random_forest":0.1013615,"score_regional_logistic_regression":0.2189536,"score_regional_fuzzy_knn":0.1318732,"score_regional_xgboost":0.0764911},"geometry":{"type":"Polygon","coordinates":[[[-73.724332,-7.8868163],[-73.7162585,-7.8869075],[-73.7161973,-7.8815152],[-73.7242707,-7.8814241],[-73.724332,-7.8868163]]]}},{"type":"Feature","id":"AC-Y727-X80","properties":{"id":"AC-Y727-X80","grid_x":80,"grid_y":727,"region":"oeste","centroid":[-73.7121912,-7.8842569],"aggregation":"none","score_unico_gradboost":0.0069495,"score_unico_random_forest":0.0123753,"score_unico_logistic_regression":0.1817431,"score_unico_fuzzy_knn":0.0255552,"score_unico_xgboost":0.0051497,"score_regional_gradboost":0.0196295,"score_regional_random_forest":0.0680996,"score_regional_logistic_regression":0.2437658,"score_regional_fuzzy_knn":0.1194734,"score_regional_xgboost":0.042496},"geometry":{"type":"Polygon","coordinates":[[[-73.7162585,-7.8869075],[-73.708185,-7.8869986],[-73.7081239,-7.8816062],[-73.7161973,-7.8815152],[-73.7162585,-7.8869075]]]}},{"type":"Feature","id":"AC-Y728-X74","properties":{"id":"AC-Y728-X74","grid_x":74,"grid_y":728,"region":"oeste","centroid":[-73.7605687,-7.878316],"aggregation":"none","score_unico_gradboost":0.0026373,"score_unico_random_forest":0.0366096,"score_unico_logistic_regression":0.1534645,"score_unico_fuzzy_knn":0.1057431,"score_unico_xgboost":0.0060001,"score_regional_gradboost":0.0717399,"score_regional_random_forest":0.1904104,"score_regional_logistic_regression":0.2247399,"score_regional_fuzzy_knn":0.1585995,"score_regional_xgboost":0.1477815},"geometry":{"type":"Polygon","coordinates":[[[-73.764636,-7.880966],[-73.7565631,-7.8810579],[-73.7565014,-7.875666],[-73.7645742,-7.8755741],[-73.764636,-7.880966]]]}},{"type":"Feature","id":"AC-Y728-X75","properties":{"id":"AC-Y728-X75","grid_x":75,"grid_y":728,"region":"oeste","centroid":[-73.7524958,-7.8784079],"aggregation":"none","score_unico_gradboost":0.0081913,"score_unico_random_forest":0.0423573,"score_unico_logistic_regression":0.1698311,"score_unico_fuzzy_knn":0.115233,"score_unico_xgboost":0.0153585,"score_regional_gradboost":0.0966546,"score_regional_random_forest":0.2033572,"score_regional_logistic_regression":0.2646255,"score_regional_fuzzy_knn":0.1787668,"score_regional_xgboost":0.1543892},"geometry":{"type":"Polygon","coordinates":[[[-73.7565631,-7.8810579],[-73.7484901,-7.8811497],[-73.7484286,-7.8757577],[-73.7565014,-7.875666],[-73.7565631,-7.8810579]]]}},{"type":"Feature","id":"AC-Y728-X76","properties":{"id":"AC-Y728-X76","grid_x":76,"grid_y":728,"region":"oeste","centroid":[-73.7444229,-7.8784995],"aggregation":"none","score_unico_gradboost":0.0096914,"score_unico_random_forest":0.0595188,"score_unico_logistic_regression":0.1966742,"score_unico_fuzzy_knn":0.0941759,"score_unico_xgboost":0.0156717,"score_regional_gradboost":0.0486864,"score_regional_random_forest":0.1946622,"score_regional_logistic_regression":0.3427691,"score_regional_fuzzy_knn":0.188954,"score_regional_xgboost":0.0790008},"geometry":{"type":"Polygon","coordinates":[[[-73.7484901,-7.8811497],[-73.7404171,-7.8812413],[-73.7403556,-7.8758492],[-73.7484286,-7.8757577],[-73.7484901,-7.8811497]]]}},{"type":"Feature","id":"AC-Y728-X77","properties":{"id":"AC-Y728-X77","grid_x":77,"grid_y":728,"region":"oeste","centroid":[-73.7363498,-7.878591],"aggregation":"none","score_unico_gradboost":0.0085278,"score_unico_random_forest":0.0323164,"score_unico_logistic_regression":0.1687504,"score_unico_fuzzy_knn":0.0936779,"score_unico_xgboost":0.0169129,"score_regional_gradboost":0.1131515,"score_regional_random_forest":0.2024531,"score_regional_logistic_regression":0.2586637,"score_regional_fuzzy_knn":0.1601219,"score_regional_xgboost":0.153684},"geometry":{"type":"Polygon","coordinates":[[[-73.7404171,-7.8812413],[-73.7323439,-7.8813328],[-73.7322826,-7.8759406],[-73.7403556,-7.8758492],[-73.7404171,-7.8812413]]]}},{"type":"Feature","id":"AC-Y728-X78","properties":{"id":"AC-Y728-X78","grid_x":78,"grid_y":728,"region":"oeste","centroid":[-73.7282766,-7.8786824],"aggregation":"none","score_unico_gradboost":0.0046707,"score_unico_random_forest":0.0169402,"score_unico_logistic_regression":0.1674277,"score_unico_fuzzy_knn":0.0805107,"score_unico_xgboost":0.0089624,"score_regional_gradboost":0.0564616,"score_regional_random_forest":0.1908513,"score_regional_logistic_regression":0.2383768,"score_regional_fuzzy_knn":0.1457118,"score_regional_xgboost":0.129355},"geometry":{"type":"Polygon","coordinates":[[[-73.7323439,-7.8813328],[-73.7242707,-7.8814241],[-73.7242094,-7.8760319],[-73.7322826,-7.8759406],[-73.7323439,-7.8813328]]]}},{"type":"Feature","id":"AC-Y728-X79","properties":{"id":"AC-Y728-X79","grid_x":79,"grid_y":728,"region":"oeste","centroid":[-73.7202034,-7.8787736],"aggregation":"none","score_unico_gradboost":0.0077257,"score_unico_random_forest":0.0100007,"score_unico_logistic_regression":0.1762374,"score_unico_fuzzy_knn":0.0479198,"score_unico_xgboost":0.0078597,"score_regional_gradboost":0.0291043,"score_regional_random_forest":0.0811904,"score_regional_logistic_regression":0.2412417,"score_regional_fuzzy_knn":0.1232105,"score_regional_xgboost":0.0597865},"geometry":{"type":"Polygon","coordinates":[[[-73.7242707,-7.8814241],[-73.7161973,-7.8815152],[-73.7161361,-7.876123],[-73.7242094,-7.8760319],[-73.7242707,-7.8814241]]]}},{"type":"Feature","id":"AC-Y728-X80","properties":{"id":"AC-Y728-X80","grid_x":80,"grid_y":728,"region":"oeste","centroid":[-73.71213,-7.8788646],"aggregation":"none","score_unico_gradboost":0.0032992,"score_unico_random_forest":0.0111344,"score_unico_logistic_regression":0.1654605,"score_unico_fuzzy_knn":0.0312333,"score_unico_xgboost":0.0043137,"score_regional_gradboost":0.0209828,"score_regional_random_forest":0.0691442,"score_regional_logistic_regression":0.2196721,"score_regional_fuzzy_knn":0.107403,"score_regional_xgboost":0.042496},"geometry":{"type":"Polygon","coordinates":[[[-73.7161973,-7.8815152],[-73.7081239,-7.8816062],[-73.7080628,-7.8762139],[-73.7161361,-7.876123],[-73.7161973,-7.8815152]]]}},{"type":"Feature","id":"AC-Y729-X74","properties":{"id":"AC-Y729-X74","grid_x":74,"grid_y":729,"region":"oeste","centroid":[-73.760507,-7.8729241],"aggregation":"none","score_unico_gradboost":0.0030933,"score_unico_random_forest":0.0385234,"score_unico_logistic_regression":0.1505487,"score_unico_fuzzy_knn":0.1092701,"score_unico_xgboost":0.0067117,"score_regional_gradboost":0.0968162,"score_regional_random_forest":0.1905872,"score_regional_logistic_regression":0.22541,"score_regional_fuzzy_knn":0.1613379,"score_regional_xgboost":0.1592694},"geometry":{"type":"Polygon","coordinates":[[[-73.7645742,-7.8755741],[-73.7565014,-7.875666],[-73.7564398,-7.870274],[-73.7645125,-7.8701822],[-73.7645742,-7.8755741]]]}},{"type":"Feature","id":"AC-Y729-X75","properties":{"id":"AC-Y729-X75","grid_x":75,"grid_y":729,"region":"oeste","centroid":[-73.7524342,-7.8730159],"aggregation":"none","score_unico_gradboost":0.0057767,"score_unico_random_forest":0.0802277,"score_unico_logistic_regression":0.1879332,"score_unico_fuzzy_knn":0.12443,"score_unico_xgboost":0.0145115,"score_regional_gradboost":0.0564923,"score_regional_random_forest":0.202888,"score_regional_logistic_regression":0.3193682,"score_regional_fuzzy_knn":0.2003416,"score_regional_xgboost":0.1213724},"geometry":{"type":"Polygon","coordinates":[[[-73.7565014,-7.875666],[-73.7484286,-7.8757577],[-73.748367,-7.8703657],[-73.7564398,-7.870274],[-73.7565014,-7.875666]]]}},{"type":"Feature","id":"AC-Y729-X76","properties":{"id":"AC-Y729-X76","grid_x":76,"grid_y":729,"region":"oeste","centroid":[-73.7443614,-7.8731075],"aggregation":"none","score_unico_gradboost":0.0110492,"score_unico_random_forest":0.0658373,"score_unico_logistic_regression":0.1651451,"score_unico_fuzzy_knn":0.0970883,"score_unico_xgboost":0.0204544,"score_regional_gradboost":0.1102953,"score_regional_random_forest":0.2008787,"score_regional_logistic_regression":0.264706,"score_regional_fuzzy_knn":0.1550267,"score_regional_xgboost":0.1620607},"geometry":{"type":"Polygon","coordinates":[[[-73.7484286,-7.8757577],[-73.7403556,-7.8758492],[-73.7402942,-7.8704572],[-73.748367,-7.8703657],[-73.7484286,-7.8757577]]]}},{"type":"Feature","id":"AC-Y730-X74","properties":{"id":"AC-Y730-X74","grid_x":74,"grid_y":730,"region":"oeste","centroid":[-73.7604453,-7.8675322],"aggregation":"none","score_unico_gradboost":0.0056957,"score_unico_random_forest":0.0456675,"score_unico_logistic_regression":0.1530744,"score_unico_fuzzy_knn":0.1170019,"score_unico_xgboost":0.0071629,"score_regional_gradboost":0.1357448,"score_regional_random_forest":0.2002991,"score_regional_logistic_regression":0.2334057,"score_regional_fuzzy_knn":0.1628433,"score_regional_xgboost":0.1722073},"geometry":{"type":"Polygon","coordinates":[[[-73.7645125,-7.8701822],[-73.7564398,-7.870274],[-73.7563782,-7.8648821],[-73.7644508,-7.8647904],[-73.7645125,-7.8701822]]]}},{"type":"Feature","id":"AC-Y730-X75","properties":{"id":"AC-Y730-X75","grid_x":75,"grid_y":730,"region":"oeste","centroid":[-73.7523727,-7.8676239],"aggregation":"none","score_unico_gradboost":0.0082604,"score_unico_random_forest":0.0922825,"score_unico_logistic_regression":0.1765459,"score_unico_fuzzy_knn":0.1285403,"score_unico_xgboost":0.0170077,"score_regional_gradboost":0.0683837,"score_regional_random_forest":0.202303,"score_regional_logistic_regression":0.3422779,"score_regional_fuzzy_knn":0.1818668,"score_regional_xgboost":0.0870169},"geometry":{"type":"Polygon","coordinates":[[[-73.7564398,-7.870274],[-73.748367,-7.8703657],[-73.7483056,-7.8649737],[-73.7563782,-7.8648821],[-73.7564398,-7.870274]]]}},{"type":"Feature","id":"AC-Y731-X74","properties":{"id":"AC-Y731-X74","grid_x":74,"grid_y":731,"region":"oeste","centroid":[-73.7603837,-7.8621403],"aggregation":"none","score_unico_gradboost":0.0056957,"score_unico_random_forest":0.0401587,"score_unico_logistic_regression":0.1621844,"score_unico_fuzzy_knn":0.121586,"score_unico_xgboost":0.0071407,"score_regional_gradboost":0.1357448,"score_regional_random_forest":0.2013543,"score_regional_logistic_regression":0.2484194,"score_regional_fuzzy_knn":0.1699309,"score_regional_xgboost":0.1722073},"geometry":{"type":"Polygon","coordinates":[[[-73.7644508,-7.8647904],[-73.7563782,-7.8648821],[-73.7563167,-7.8594901],[-73.7643891,-7.8593985],[-73.7644508,-7.8647904]]]}}]}