{"type":"FeatureCollection","features":[{"type":"Feature","id":"AC-Y387-X910","properties":{"id":"AC-Y387-X910","grid_x":910,"grid_y":387,"region":"leste","centroid":[-66.9837973,-9.7444256],"aggregation":"none","score_unico_gradboost":0.5727953,"score_unico_random_forest":0.6707256,"score_unico_logistic_regression":0.7901125,"score_unico_fuzzy_knn":0.6958189,"score_unico_xgboost":0.6439304,"score_regional_gradboost":0.6127182,"score_regional_random_forest":0.6587021,"score_regional_logistic_regression":0.7790046,"score_regional_fuzzy_knn":0.6797131,"score_regional_xgboost":0.4791228},"geometry":{"type":"Polygon","coordinates":[[[-66.9878494,-9.747153],[-66.9797127,-9.7471049],[-66.9797453,-9.7416981],[-66.9878818,-9.7417462],[-66.9878494,-9.747153]]]}}]}