{"type":"FeatureCollection","features":[{"type":"Feature","id":"AC-Y443-X806","properties":{"id":"AC-Y443-X806","grid_x":806,"grid_y":443,"region":"leste","centroid":[-67.8312394,-9.4454699],"aggregation":"none","score_unico_gradboost":0.6397023,"score_unico_random_forest":0.7135481,"score_unico_logistic_regression":0.7779171,"score_unico_fuzzy_knn":0.6859897,"score_unico_xgboost":0.6941608,"score_regional_gradboost":0.7706999,"score_regional_random_forest":0.7219701,"score_regional_logistic_regression":0.8058719,"score_regional_fuzzy_knn":0.7216234,"score_regional_xgboost":0.4885187},"geometry":{"type":"Polygon","coordinates":[[[-67.8352968,-9.448188],[-67.8271638,-9.448161],[-67.8271821,-9.4427518],[-67.8353149,-9.4427789],[-67.8352968,-9.448188]]]}},{"type":"Feature","id":"AC-Y444-X806","properties":{"id":"AC-Y444-X806","grid_x":806,"grid_y":444,"region":"leste","centroid":[-67.8312577,-9.4400608],"aggregation":"none","score_unico_gradboost":0.5548668,"score_unico_random_forest":0.5834366,"score_unico_logistic_regression":0.8527516,"score_unico_fuzzy_knn":0.6852086,"score_unico_xgboost":0.441986,"score_regional_gradboost":0.6954885,"score_regional_random_forest":0.5382229,"score_regional_logistic_regression":0.8471003,"score_regional_fuzzy_knn":0.583549,"score_regional_xgboost":0.2086294},"geometry":{"type":"Polygon","coordinates":[[[-67.8353149,-9.4427789],[-67.8271821,-9.4427518],[-67.8272004,-9.4373427],[-67.8353331,-9.4373697],[-67.8353149,-9.4427789]]]}},{"type":"Feature","id":"AC-Y444-X807","properties":{"id":"AC-Y444-X807","grid_x":807,"grid_y":444,"region":"leste","centroid":[-67.8231249,-9.4400337],"aggregation":"none","score_unico_gradboost":0.7344545,"score_unico_random_forest":0.6142202,"score_unico_logistic_regression":0.9010727,"score_unico_fuzzy_knn":0.7134488,"score_unico_xgboost":0.508842,"score_regional_gradboost":0.673756,"score_regional_random_forest":0.5755931,"score_regional_logistic_regression":0.8493383,"score_regional_fuzzy_knn":0.5064863,"score_regional_xgboost":0.3776983},"geometry":{"type":"Polygon","coordinates":[[[-67.8271821,-9.4427518],[-67.8190494,-9.4427246],[-67.8190678,-9.4373155],[-67.8272004,-9.4373427],[-67.8271821,-9.4427518]]]}},{"type":"Feature","id":"AC-Y445-X806","properties":{"id":"AC-Y445-X806","grid_x":806,"grid_y":445,"region":"leste","centroid":[-67.8312759,-9.4346517],"aggregation":"none","score_unico_gradboost":0.8625993,"score_unico_random_forest":0.777478,"score_unico_logistic_regression":0.8127181,"score_unico_fuzzy_knn":0.733852,"score_unico_xgboost":0.7868609,"score_regional_gradboost":0.8242739,"score_regional_random_forest":0.6987178,"score_regional_logistic_regression":0.8156197,"score_regional_fuzzy_knn":0.7298517,"score_regional_xgboost":0.5337579},"geometry":{"type":"Polygon","coordinates":[[[-67.8353331,-9.4373697],[-67.8272004,-9.4373427],[-67.8272187,-9.4319336],[-67.8353513,-9.4319606],[-67.8353331,-9.4373697]]]}},{"type":"Feature","id":"AC-Y445-X807","properties":{"id":"AC-Y445-X807","grid_x":807,"grid_y":445,"region":"leste","centroid":[-67.8231433,-9.4346246],"aggregation":"none","score_unico_gradboost":0.6973541,"score_unico_random_forest":0.630035,"score_unico_logistic_regression":0.8729462,"score_unico_fuzzy_knn":0.7210966,"score_unico_xgboost":0.4864585,"score_regional_gradboost":0.6428447,"score_regional_random_forest":0.5514359,"score_regional_logistic_regression":0.8428041,"score_regional_fuzzy_knn":0.5567796,"score_regional_xgboost":0.3186516},"geometry":{"type":"Polygon","coordinates":[[[-67.8272004,-9.4373427],[-67.8190678,-9.4373155],[-67.8190862,-9.4319064],[-67.8272187,-9.4319336],[-67.8272004,-9.4373427]]]}},{"type":"Feature","id":"AC-Y445-X808","properties":{"id":"AC-Y445-X808","grid_x":808,"grid_y":445,"region":"leste","centroid":[-67.8150107,-9.4345973],"aggregation":"none","score_unico_gradboost":0.6948836,"score_unico_random_forest":0.7239856,"score_unico_logistic_regression":0.7849196,"score_unico_fuzzy_knn":0.7101827,"score_unico_xgboost":0.5612887,"score_regional_gradboost":0.8177982,"score_regional_random_forest":0.7217638,"score_regional_logistic_regression":0.8146344,"score_regional_fuzzy_knn":0.7369959,"score_regional_xgboost":0.4588819},"geometry":{"type":"Polygon","coordinates":[[[-67.8190678,-9.4373155],[-67.8109352,-9.4372881],[-67.8109537,-9.431879],[-67.8190862,-9.4319064],[-67.8190678,-9.4373155]]]}},{"type":"Feature","id":"AC-Y446-X806","properties":{"id":"AC-Y446-X806","grid_x":806,"grid_y":446,"region":"leste","centroid":[-67.8312941,-9.4292425],"aggregation":"none","score_unico_gradboost":0.5863158,"score_unico_random_forest":0.630851,"score_unico_logistic_regression":0.9116809,"score_unico_fuzzy_knn":0.7704158,"score_unico_xgboost":0.4952746,"score_regional_gradboost":0.5871562,"score_regional_random_forest":0.6102121,"score_regional_logistic_regression":0.8352599,"score_regional_fuzzy_knn":0.6075379,"score_regional_xgboost":0.5378153},"geometry":{"type":"Polygon","coordinates":[[[-67.8353513,-9.4319606],[-67.8272187,-9.4319336],[-67.827237,-9.4265245],[-67.8353694,-9.4265514],[-67.8353513,-9.4319606]]]}},{"type":"Feature","id":"AC-Y446-X807","properties":{"id":"AC-Y446-X807","grid_x":807,"grid_y":446,"region":"leste","centroid":[-67.8231616,-9.4292155],"aggregation":"none","score_unico_gradboost":0.5641423,"score_unico_random_forest":0.6013372,"score_unico_logistic_regression":0.8373609,"score_unico_fuzzy_knn":0.7035883,"score_unico_xgboost":0.4056123,"score_regional_gradboost":0.5280624,"score_regional_random_forest":0.4918015,"score_regional_logistic_regression":0.8182668,"score_regional_fuzzy_knn":0.5514384,"score_regional_xgboost":0.2357558},"geometry":{"type":"Polygon","coordinates":[[[-67.8272187,-9.4319336],[-67.8190862,-9.4319064],[-67.8191046,-9.4264973],[-67.827237,-9.4265245],[-67.8272187,-9.4319336]]]}},{"type":"Feature","id":"AC-Y446-X808","properties":{"id":"AC-Y446-X808","grid_x":808,"grid_y":446,"region":"leste","centroid":[-67.8150292,-9.4291882],"aggregation":"none","score_unico_gradboost":0.6049621,"score_unico_random_forest":0.7256576,"score_unico_logistic_regression":0.7738323,"score_unico_fuzzy_knn":0.7080861,"score_unico_xgboost":0.7300423,"score_regional_gradboost":0.7563792,"score_regional_random_forest":0.7038832,"score_regional_logistic_regression":0.7931425,"score_regional_fuzzy_knn":0.7265815,"score_regional_xgboost":0.5028342},"geometry":{"type":"Polygon","coordinates":[[[-67.8190862,-9.4319064],[-67.8109537,-9.431879],[-67.8109723,-9.4264699],[-67.8191046,-9.4264973],[-67.8190862,-9.4319064]]]}},{"type":"Feature","id":"AC-Y447-X806","properties":{"id":"AC-Y447-X806","grid_x":806,"grid_y":447,"region":"leste","centroid":[-67.8313123,-9.4238334],"aggregation":"none","score_unico_gradboost":0.8438975,"score_unico_random_forest":0.6691579,"score_unico_logistic_regression":0.9119105,"score_unico_fuzzy_knn":0.7796115,"score_unico_xgboost":0.7315407,"score_regional_gradboost":0.7056505,"score_regional_random_forest":0.6062746,"score_regional_logistic_regression":0.8564976,"score_regional_fuzzy_knn":0.7493844,"score_regional_xgboost":0.557454},"geometry":{"type":"Polygon","coordinates":[[[-67.8353694,-9.4265514],[-67.827237,-9.4265245],[-67.8272553,-9.4211153],[-67.8353875,-9.4211423],[-67.8353694,-9.4265514]]]}},{"type":"Feature","id":"AC-Y447-X807","properties":{"id":"AC-Y447-X807","grid_x":807,"grid_y":447,"region":"leste","centroid":[-67.82318,-9.4238063],"aggregation":"none","score_unico_gradboost":0.8782624,"score_unico_random_forest":0.7600472,"score_unico_logistic_regression":0.9225461,"score_unico_fuzzy_knn":0.7495404,"score_unico_xgboost":0.7425494,"score_regional_gradboost":0.7362521,"score_regional_random_forest":0.6610625,"score_regional_logistic_regression":0.7999109,"score_regional_fuzzy_knn":0.7264615,"score_regional_xgboost":0.6791509},"geometry":{"type":"Polygon","coordinates":[[[-67.827237,-9.4265245],[-67.8191046,-9.4264973],[-67.819123,-9.4210882],[-67.8272553,-9.4211153],[-67.827237,-9.4265245]]]}},{"type":"Feature","id":"AC-Y440-X806","properties":{"id":"AC-Y440-X806","grid_x":806,"grid_y":440,"region":"leste","centroid":[-67.8311847,-9.4616973],"aggregation":"none","score_unico_gradboost":0.4867772,"score_unico_random_forest":0.7415022,"score_unico_logistic_regression":0.7825828,"score_unico_fuzzy_knn":0.7074997,"score_unico_xgboost":0.7825814,"score_regional_gradboost":0.787288,"score_regional_random_forest":0.7424048,"score_regional_logistic_regression":0.8012517,"score_regional_fuzzy_knn":0.7289547,"score_regional_xgboost":0.5882452},"geometry":{"type":"Polygon","coordinates":[[[-67.8352422,-9.4644154],[-67.8271089,-9.4643883],[-67.8271272,-9.4589792],[-67.8352604,-9.4590063],[-67.8352422,-9.4644154]]]}},{"type":"Feature","id":"AC-Y440-X807","properties":{"id":"AC-Y440-X807","grid_x":807,"grid_y":440,"region":"leste","centroid":[-67.8230514,-9.4616702],"aggregation":"none","score_unico_gradboost":0.4204381,"score_unico_random_forest":0.6680727,"score_unico_logistic_regression":0.7431346,"score_unico_fuzzy_knn":0.7443315,"score_unico_xgboost":0.656152,"score_regional_gradboost":0.7136784,"score_regional_random_forest":0.6419818,"score_regional_logistic_regression":0.7833822,"score_regional_fuzzy_knn":0.7244489,"score_regional_xgboost":0.4843162},"geometry":{"type":"Polygon","coordinates":[[[-67.8271089,-9.4643883],[-67.8189756,-9.464361],[-67.8189941,-9.4589519],[-67.8271272,-9.4589792],[-67.8271089,-9.4643883]]]}},{"type":"Feature","id":"AC-Y440-X808","properties":{"id":"AC-Y440-X808","grid_x":808,"grid_y":440,"region":"leste","centroid":[-67.8149182,-9.4616428],"aggregation":"none","score_unico_gradboost":0.4661998,"score_unico_random_forest":0.7202151,"score_unico_logistic_regression":0.7658589,"score_unico_fuzzy_knn":0.7394537,"score_unico_xgboost":0.6726487,"score_regional_gradboost":0.7353308,"score_regional_random_forest":0.6784873,"score_regional_logistic_regression":0.7944714,"score_regional_fuzzy_knn":0.7264324,"score_regional_xgboost":0.5737955},"geometry":{"type":"Polygon","coordinates":[[[-67.8189756,-9.464361],[-67.8108424,-9.4643336],[-67.8108609,-9.4589245],[-67.8189941,-9.4589519],[-67.8189756,-9.464361]]]}},{"type":"Feature","id":"AC-Y440-X809","properties":{"id":"AC-Y440-X809","grid_x":809,"grid_y":440,"region":"leste","centroid":[-67.8067851,-9.4616152],"aggregation":"none","score_unico_gradboost":0.6133067,"score_unico_random_forest":0.7608073,"score_unico_logistic_regression":0.7495923,"score_unico_fuzzy_knn":0.7407005,"score_unico_xgboost":0.8292741,"score_regional_gradboost":0.6917654,"score_regional_random_forest":0.6849107,"score_regional_logistic_regression":0.7734174,"score_regional_fuzzy_knn":0.7125381,"score_regional_xgboost":0.4977329},"geometry":{"type":"Polygon","coordinates":[[[-67.8108424,-9.4643336],[-67.8027091,-9.4643059],[-67.8027279,-9.4588969],[-67.8108609,-9.4589245],[-67.8108424,-9.4643336]]]}},{"type":"Feature","id":"AC-Y440-X810","properties":{"id":"AC-Y440-X810","grid_x":810,"grid_y":440,"region":"leste","centroid":[-67.7986519,-9.4615875],"aggregation":"none","score_unico_gradboost":0.7793614,"score_unico_random_forest":0.8227206,"score_unico_logistic_regression":0.8017497,"score_unico_fuzzy_knn":0.7863895,"score_unico_xgboost":0.9105552,"score_regional_gradboost":0.8158857,"score_regional_random_forest":0.7553378,"score_regional_logistic_regression":0.8082764,"score_regional_fuzzy_knn":0.733969,"score_regional_xgboost":0.640673},"geometry":{"type":"Polygon","coordinates":[[[-67.8027091,-9.4643059],[-67.7945759,-9.4642781],[-67.7945948,-9.458869],[-67.8027279,-9.4588969],[-67.8027091,-9.4643059]]]}},{"type":"Feature","id":"AC-Y440-X811","properties":{"id":"AC-Y440-X811","grid_x":811,"grid_y":440,"region":"leste","centroid":[-67.7905188,-9.4615596],"aggregation":"none","score_unico_gradboost":0.6912007,"score_unico_random_forest":0.7605957,"score_unico_logistic_regression":0.905488,"score_unico_fuzzy_knn":0.8299317,"score_unico_xgboost":0.7187741,"score_regional_gradboost":0.7124993,"score_regional_random_forest":0.7151607,"score_regional_logistic_regression":0.8479085,"score_regional_fuzzy_knn":0.7518749,"score_regional_xgboost":0.5152659},"geometry":{"type":"Polygon","coordinates":[[[-67.7945759,-9.4642781],[-67.7864428,-9.46425],[-67.7864617,-9.458841],[-67.7945948,-9.458869],[-67.7945759,-9.4642781]]]}},{"type":"Feature","id":"AC-Y440-X812","properties":{"id":"AC-Y440-X812","grid_x":812,"grid_y":440,"region":"leste","centroid":[-67.7823857,-9.4615314],"aggregation":"none","score_unico_gradboost":0.6068757,"score_unico_random_forest":0.7930786,"score_unico_logistic_regression":0.7570171,"score_unico_fuzzy_knn":0.7700287,"score_unico_xgboost":0.8157544,"score_regional_gradboost":0.7010426,"score_regional_random_forest":0.733595,"score_regional_logistic_regression":0.7727604,"score_regional_fuzzy_knn":0.7147222,"score_regional_xgboost":0.5785427},"geometry":{"type":"Polygon","coordinates":[[[-67.7864428,-9.46425],[-67.7783096,-9.4642218],[-67.7783287,-9.4588128],[-67.7864617,-9.458841],[-67.7864428,-9.46425]]]}},{"type":"Feature","id":"AC-Y440-X813","properties":{"id":"AC-Y440-X813","grid_x":813,"grid_y":440,"region":"leste","centroid":[-67.7742526,-9.4615031],"aggregation":"none","score_unico_gradboost":0.509151,"score_unico_random_forest":0.7248531,"score_unico_logistic_regression":0.7337664,"score_unico_fuzzy_knn":0.7582873,"score_unico_xgboost":0.6494904,"score_regional_gradboost":0.6934003,"score_regional_random_forest":0.6202202,"score_regional_logistic_regression":0.759774,"score_regional_fuzzy_knn":0.6849467,"score_regional_xgboost":0.4246976},"geometry":{"type":"Polygon","coordinates":[[[-67.7783096,-9.4642218],[-67.7701765,-9.4641934],[-67.7701957,-9.4587844],[-67.7783287,-9.4588128],[-67.7783096,-9.4642218]]]}},{"type":"Feature","id":"AC-Y440-X814","properties":{"id":"AC-Y440-X814","grid_x":814,"grid_y":440,"region":"leste","centroid":[-67.7661196,-9.4614746],"aggregation":"none","score_unico_gradboost":0.5216812,"score_unico_random_forest":0.6867623,"score_unico_logistic_regression":0.8380537,"score_unico_fuzzy_knn":0.6918555,"score_unico_xgboost":0.5887105,"score_regional_gradboost":0.568866,"score_regional_random_forest":0.629858,"score_regional_logistic_regression":0.8069082,"score_regional_fuzzy_knn":0.6294807,"score_regional_xgboost":0.3243008},"geometry":{"type":"Polygon","coordinates":[[[-67.7701765,-9.4641934],[-67.7620434,-9.4641648],[-67.7620628,-9.4587558],[-67.7701957,-9.4587844],[-67.7701765,-9.4641934]]]}},{"type":"Feature","id":"AC-Y440-X815","properties":{"id":"AC-Y440-X815","grid_x":815,"grid_y":440,"region":"leste","centroid":[-67.7579866,-9.461446],"aggregation":"none","score_unico_gradboost":0.5295367,"score_unico_random_forest":0.6784723,"score_unico_logistic_regression":0.8509303,"score_unico_fuzzy_knn":0.664757,"score_unico_xgboost":0.6122974,"score_regional_gradboost":0.58005,"score_regional_random_forest":0.6347084,"score_regional_logistic_regression":0.8082102,"score_regional_fuzzy_knn":0.5855512,"score_regional_xgboost":0.2435375},"geometry":{"type":"Polygon","coordinates":[[[-67.7620434,-9.4641648],[-67.7539103,-9.464136],[-67.7539298,-9.4587271],[-67.7620628,-9.4587558],[-67.7620434,-9.4641648]]]}},{"type":"Feature","id":"AC-Y440-X816","properties":{"id":"AC-Y440-X816","grid_x":816,"grid_y":440,"region":"leste","centroid":[-67.7498536,-9.4614171],"aggregation":"none","score_unico_gradboost":0.5635332,"score_unico_random_forest":0.7593723,"score_unico_logistic_regression":0.8085575,"score_unico_fuzzy_knn":0.8093895,"score_unico_xgboost":0.6503553,"score_regional_gradboost":0.7514521,"score_regional_random_forest":0.8025751,"score_regional_logistic_regression":0.8064465,"score_regional_fuzzy_knn":0.8231588,"score_regional_xgboost":0.6255909},"geometry":{"type":"Polygon","coordinates":[[[-67.7539103,-9.464136],[-67.7457773,-9.4641071],[-67.7457969,-9.4586981],[-67.7539298,-9.4587271],[-67.7539103,-9.464136]]]}},{"type":"Feature","id":"AC-Y440-X817","properties":{"id":"AC-Y440-X817","grid_x":817,"grid_y":440,"region":"leste","centroid":[-67.7417206,-9.461388],"aggregation":"none","score_unico_gradboost":0.4339043,"score_unico_random_forest":0.6648106,"score_unico_logistic_regression":0.8005539,"score_unico_fuzzy_knn":0.7922808,"score_unico_xgboost":0.5301796,"score_regional_gradboost":0.7202784,"score_regional_random_forest":0.7361067,"score_regional_logistic_regression":0.8024809,"score_regional_fuzzy_knn":0.8084854,"score_regional_xgboost":0.4829395},"geometry":{"type":"Polygon","coordinates":[[[-67.7457773,-9.4641071],[-67.7376443,-9.4640779],[-67.737664,-9.4586689],[-67.7457969,-9.4586981],[-67.7457773,-9.4641071]]]}},{"type":"Feature","id":"AC-Y441-X806","properties":{"id":"AC-Y441-X806","grid_x":806,"grid_y":441,"region":"leste","centroid":[-67.8312029,-9.4562882],"aggregation":"none","score_unico_gradboost":0.374703,"score_unico_random_forest":0.7159155,"score_unico_logistic_regression":0.7599051,"score_unico_fuzzy_knn":0.6976851,"score_unico_xgboost":0.6757236,"score_regional_gradboost":0.778184,"score_regional_random_forest":0.7247919,"score_regional_logistic_regression":0.7933517,"score_regional_fuzzy_knn":0.720229,"score_regional_xgboost":0.4880189},"geometry":{"type":"Polygon","coordinates":[[[-67.8352604,-9.4590063],[-67.8271272,-9.4589792],[-67.8271455,-9.4535701],[-67.8352786,-9.4535971],[-67.8352604,-9.4590063]]]}},{"type":"Feature","id":"AC-Y441-X807","properties":{"id":"AC-Y441-X807","grid_x":807,"grid_y":441,"region":"leste","centroid":[-67.8230698,-9.456261],"aggregation":"none","score_unico_gradboost":0.5121385,"score_unico_random_forest":0.7379186,"score_unico_logistic_regression":0.7785472,"score_unico_fuzzy_knn":0.7174795,"score_unico_xgboost":0.8320575,"score_regional_gradboost":0.7592257,"score_regional_random_forest":0.7481177,"score_regional_logistic_regression":0.8040881,"score_regional_fuzzy_knn":0.7369378,"score_regional_xgboost":0.5663775},"geometry":{"type":"Polygon","coordinates":[[[-67.8271272,-9.4589792],[-67.8189941,-9.4589519],[-67.8190125,-9.4535428],[-67.8271455,-9.4535701],[-67.8271272,-9.4589792]]]}},{"type":"Feature","id":"AC-Y441-X808","properties":{"id":"AC-Y441-X808","grid_x":808,"grid_y":441,"region":"leste","centroid":[-67.8149368,-9.4562337],"aggregation":"none","score_unico_gradboost":0.6984234,"score_unico_random_forest":0.7598972,"score_unico_logistic_regression":0.7587773,"score_unico_fuzzy_knn":0.7068908,"score_unico_xgboost":0.8026359,"score_regional_gradboost":0.7702907,"score_regional_random_forest":0.693421,"score_regional_logistic_regression":0.7709177,"score_regional_fuzzy_knn":0.7053029,"score_regional_xgboost":0.5228218},"geometry":{"type":"Polygon","coordinates":[[[-67.8189941,-9.4589519],[-67.8108609,-9.4589245],[-67.8108795,-9.4535154],[-67.8190125,-9.4535428],[-67.8189941,-9.4589519]]]}},{"type":"Feature","id":"AC-Y441-X809","properties":{"id":"AC-Y441-X809","grid_x":809,"grid_y":441,"region":"leste","centroid":[-67.8068037,-9.4562062],"aggregation":"none","score_unico_gradboost":0.5022929,"score_unico_random_forest":0.6882847,"score_unico_logistic_regression":0.8463413,"score_unico_fuzzy_knn":0.7189154,"score_unico_xgboost":0.6702014,"score_regional_gradboost":0.6285243,"score_regional_random_forest":0.6307153,"score_regional_logistic_regression":0.820943,"score_regional_fuzzy_knn":0.6964368,"score_regional_xgboost":0.3393398},"geometry":{"type":"Polygon","coordinates":[[[-67.8108609,-9.4589245],[-67.8027279,-9.4588969],[-67.8027466,-9.4534878],[-67.8108795,-9.4535154],[-67.8108609,-9.4589245]]]}},{"type":"Feature","id":"AC-Y441-X810","properties":{"id":"AC-Y441-X810","grid_x":810,"grid_y":441,"region":"leste","centroid":[-67.7986707,-9.4561784],"aggregation":"none","score_unico_gradboost":0.6860751,"score_unico_random_forest":0.7550828,"score_unico_logistic_regression":0.8756083,"score_unico_fuzzy_knn":0.8160582,"score_unico_xgboost":0.7790875,"score_regional_gradboost":0.7535628,"score_regional_random_forest":0.6774473,"score_regional_logistic_regression":0.8446889,"score_regional_fuzzy_knn":0.7372029,"score_regional_xgboost":0.4903013},"geometry":{"type":"Polygon","coordinates":[[[-67.8027279,-9.4588969],[-67.7945948,-9.458869],[-67.7946136,-9.45346],[-67.8027466,-9.4534878],[-67.8027279,-9.4588969]]]}},{"type":"Feature","id":"AC-Y441-X811","properties":{"id":"AC-Y441-X811","grid_x":811,"grid_y":441,"region":"leste","centroid":[-67.7905377,-9.4561505],"aggregation":"none","score_unico_gradboost":0.682981,"score_unico_random_forest":0.7614347,"score_unico_logistic_regression":0.8802205,"score_unico_fuzzy_knn":0.8298175,"score_unico_xgboost":0.7325158,"score_regional_gradboost":0.756577,"score_regional_random_forest":0.6895687,"score_regional_logistic_regression":0.8464674,"score_regional_fuzzy_knn":0.7540384,"score_regional_xgboost":0.4719002},"geometry":{"type":"Polygon","coordinates":[[[-67.7945948,-9.458869],[-67.7864617,-9.458841],[-67.7864807,-9.453432],[-67.7946136,-9.45346],[-67.7945948,-9.458869]]]}},{"type":"Feature","id":"AC-Y441-X812","properties":{"id":"AC-Y441-X812","grid_x":812,"grid_y":441,"region":"leste","centroid":[-67.7824047,-9.4561224],"aggregation":"none","score_unico_gradboost":0.5324646,"score_unico_random_forest":0.7682307,"score_unico_logistic_regression":0.7520713,"score_unico_fuzzy_knn":0.7699543,"score_unico_xgboost":0.7440826,"score_regional_gradboost":0.6977056,"score_regional_random_forest":0.7112828,"score_regional_logistic_regression":0.7745048,"score_regional_fuzzy_knn":0.7307295,"score_regional_xgboost":0.5140721},"geometry":{"type":"Polygon","coordinates":[[[-67.7864617,-9.458841],[-67.7783287,-9.4588128],[-67.7783478,-9.4534038],[-67.7864807,-9.453432],[-67.7864617,-9.458841]]]}},{"type":"Feature","id":"AC-Y441-X813","properties":{"id":"AC-Y441-X813","grid_x":813,"grid_y":441,"region":"leste","centroid":[-67.7742718,-9.4560941],"aggregation":"none","score_unico_gradboost":0.5055104,"score_unico_random_forest":0.7625339,"score_unico_logistic_regression":0.741562,"score_unico_fuzzy_knn":0.7522033,"score_unico_xgboost":0.6948229,"score_regional_gradboost":0.7209786,"score_regional_random_forest":0.6773928,"score_regional_logistic_regression":0.764642,"score_regional_fuzzy_knn":0.6907887,"score_regional_xgboost":0.5149628},"geometry":{"type":"Polygon","coordinates":[[[-67.7783287,-9.4588128],[-67.7701957,-9.4587844],[-67.7702149,-9.4533754],[-67.7783478,-9.4534038],[-67.7783287,-9.4588128]]]}},{"type":"Feature","id":"AC-Y441-X814","properties":{"id":"AC-Y441-X814","grid_x":814,"grid_y":441,"region":"leste","centroid":[-67.7661389,-9.4560656],"aggregation":"none","score_unico_gradboost":0.7566567,"score_unico_random_forest":0.8261267,"score_unico_logistic_regression":0.8008434,"score_unico_fuzzy_knn":0.7855512,"score_unico_xgboost":0.8732641,"score_regional_gradboost":0.71382,"score_regional_random_forest":0.6927397,"score_regional_logistic_regression":0.7776152,"score_regional_fuzzy_knn":0.6939284,"score_regional_xgboost":0.415097},"geometry":{"type":"Polygon","coordinates":[[[-67.7701957,-9.4587844],[-67.7620628,-9.4587558],[-67.7620821,-9.4533468],[-67.7702149,-9.4533754],[-67.7701957,-9.4587844]]]}},{"type":"Feature","id":"AC-Y441-X815","properties":{"id":"AC-Y441-X815","grid_x":815,"grid_y":441,"region":"leste","centroid":[-67.758006,-9.456037],"aggregation":"none","score_unico_gradboost":0.6312727,"score_unico_random_forest":0.7344433,"score_unico_logistic_regression":0.8572894,"score_unico_fuzzy_knn":0.7177811,"score_unico_xgboost":0.6325561,"score_regional_gradboost":0.6624596,"score_regional_random_forest":0.7012201,"score_regional_logistic_regression":0.826979,"score_regional_fuzzy_knn":0.657075,"score_regional_xgboost":0.3754834},"geometry":{"type":"Polygon","coordinates":[[[-67.7620628,-9.4587558],[-67.7539298,-9.4587271],[-67.7539493,-9.4533181],[-67.7620821,-9.4533468],[-67.7620628,-9.4587558]]]}},{"type":"Feature","id":"AC-Y441-X816","properties":{"id":"AC-Y441-X816","grid_x":816,"grid_y":441,"region":"leste","centroid":[-67.7498731,-9.4560081],"aggregation":"none","score_unico_gradboost":0.7528509,"score_unico_random_forest":0.6757755,"score_unico_logistic_regression":0.7096701,"score_unico_fuzzy_knn":0.7062818,"score_unico_xgboost":0.9022903,"score_regional_gradboost":0.7563432,"score_regional_random_forest":0.6717715,"score_regional_logistic_regression":0.748295,"score_regional_fuzzy_knn":0.6770903,"score_regional_xgboost":0.7189961},"geometry":{"type":"Polygon","coordinates":[[[-67.7539298,-9.4587271],[-67.7457969,-9.4586981],[-67.7458165,-9.4532891],[-67.7539493,-9.4533181],[-67.7539298,-9.4587271]]]}},{"type":"Feature","id":"AC-Y442-X806","properties":{"id":"AC-Y442-X806","grid_x":806,"grid_y":442,"region":"leste","centroid":[-67.8312212,-9.4508791],"aggregation":"none","score_unico_gradboost":0.4138494,"score_unico_random_forest":0.6721236,"score_unico_logistic_regression":0.7632956,"score_unico_fuzzy_knn":0.6946561,"score_unico_xgboost":0.6444163,"score_regional_gradboost":0.7932425,"score_regional_random_forest":0.7187672,"score_regional_logistic_regression":0.8002823,"score_regional_fuzzy_knn":0.7221428,"score_regional_xgboost":0.5355993},"geometry":{"type":"Polygon","coordinates":[[[-67.8352786,-9.4535971],[-67.8271455,-9.4535701],[-67.8271638,-9.448161],[-67.8352968,-9.448188],[-67.8352786,-9.4535971]]]}},{"type":"Feature","id":"AC-Y442-X807","properties":{"id":"AC-Y442-X807","grid_x":807,"grid_y":442,"region":"leste","centroid":[-67.8230882,-9.4508519],"aggregation":"none","score_unico_gradboost":0.6549904,"score_unico_random_forest":0.7562554,"score_unico_logistic_regression":0.7991771,"score_unico_fuzzy_knn":0.7116875,"score_unico_xgboost":0.7624655,"score_regional_gradboost":0.8097107,"score_regional_random_forest":0.7350224,"score_regional_logistic_regression":0.8072339,"score_regional_fuzzy_knn":0.729919,"score_regional_xgboost":0.5534433},"geometry":{"type":"Polygon","coordinates":[[[-67.8271455,-9.4535701],[-67.8190125,-9.4535428],[-67.819031,-9.4481337],[-67.8271638,-9.448161],[-67.8271455,-9.4535701]]]}},{"type":"Feature","id":"AC-Y442-X808","properties":{"id":"AC-Y442-X808","grid_x":808,"grid_y":442,"region":"leste","centroid":[-67.8149553,-9.4508246],"aggregation":"none","score_unico_gradboost":0.5665856,"score_unico_random_forest":0.7269568,"score_unico_logistic_regression":0.9031156,"score_unico_fuzzy_knn":0.7645674,"score_unico_xgboost":0.6413594,"score_regional_gradboost":0.5904719,"score_regional_random_forest":0.7114883,"score_regional_logistic_regression":0.8405372,"score_regional_fuzzy_knn":0.6159005,"score_regional_xgboost":0.5177068},"geometry":{"type":"Polygon","coordinates":[[[-67.8190125,-9.4535428],[-67.8108795,-9.4535154],[-67.8108981,-9.4481063],[-67.819031,-9.4481337],[-67.8190125,-9.4535428]]]}},{"type":"Feature","id":"AC-Y442-X809","properties":{"id":"AC-Y442-X809","grid_x":809,"grid_y":442,"region":"leste","centroid":[-67.8068224,-9.4507971],"aggregation":"none","score_unico_gradboost":0.7656006,"score_unico_random_forest":0.7799059,"score_unico_logistic_regression":0.8974412,"score_unico_fuzzy_knn":0.7270595,"score_unico_xgboost":0.8186754,"score_regional_gradboost":0.712116,"score_regional_random_forest":0.6528323,"score_regional_logistic_regression":0.8546778,"score_regional_fuzzy_knn":0.7205084,"score_regional_xgboost":0.4430341},"geometry":{"type":"Polygon","coordinates":[[[-67.8108795,-9.4535154],[-67.8027466,-9.4534878],[-67.8027653,-9.4480787],[-67.8108981,-9.4481063],[-67.8108795,-9.4535154]]]}},{"type":"Feature","id":"AC-Y442-X810","properties":{"id":"AC-Y442-X810","grid_x":810,"grid_y":442,"region":"leste","centroid":[-67.7986895,-9.4507694],"aggregation":"none","score_unico_gradboost":0.6380492,"score_unico_random_forest":0.777639,"score_unico_logistic_regression":0.8814881,"score_unico_fuzzy_knn":0.8377679,"score_unico_xgboost":0.8216559,"score_regional_gradboost":0.7079239,"score_regional_random_forest":0.6891426,"score_regional_logistic_regression":0.8412156,"score_regional_fuzzy_knn":0.6806933,"score_regional_xgboost":0.4898501},"geometry":{"type":"Polygon","coordinates":[[[-67.8027466,-9.4534878],[-67.7946136,-9.45346],[-67.7946324,-9.4480509],[-67.8027653,-9.4480787],[-67.8027466,-9.4534878]]]}},{"type":"Feature","id":"AC-Y442-X811","properties":{"id":"AC-Y442-X811","grid_x":811,"grid_y":442,"region":"leste","centroid":[-67.7905566,-9.4507415],"aggregation":"none","score_unico_gradboost":0.8086434,"score_unico_random_forest":0.8175424,"score_unico_logistic_regression":0.8209721,"score_unico_fuzzy_knn":0.7565557,"score_unico_xgboost":0.8892743,"score_regional_gradboost":0.7537023,"score_regional_random_forest":0.7193054,"score_regional_logistic_regression":0.7971148,"score_regional_fuzzy_knn":0.7218861,"score_regional_xgboost":0.5254038},"geometry":{"type":"Polygon","coordinates":[[[-67.7946136,-9.45346],[-67.7864807,-9.453432],[-67.7864996,-9.4480229],[-67.7946324,-9.4480509],[-67.7946136,-9.45346]]]}},{"type":"Feature","id":"AC-Y442-X812","properties":{"id":"AC-Y442-X812","grid_x":812,"grid_y":442,"region":"leste","centroid":[-67.7824238,-9.4507134],"aggregation":"none","score_unico_gradboost":0.5237373,"score_unico_random_forest":0.7761108,"score_unico_logistic_regression":0.7649575,"score_unico_fuzzy_knn":0.7795747,"score_unico_xgboost":0.8151892,"score_regional_gradboost":0.7074765,"score_regional_random_forest":0.7280585,"score_regional_logistic_regression":0.7840524,"score_regional_fuzzy_knn":0.7492274,"score_regional_xgboost":0.5739272},"geometry":{"type":"Polygon","coordinates":[[[-67.7864807,-9.453432],[-67.7783478,-9.4534038],[-67.7783669,-9.4479948],[-67.7864996,-9.4480229],[-67.7864807,-9.453432]]]}},{"type":"Feature","id":"AC-Y442-X813","properties":{"id":"AC-Y442-X813","grid_x":813,"grid_y":442,"region":"leste","centroid":[-67.7742909,-9.4506851],"aggregation":"none","score_unico_gradboost":0.5836386,"score_unico_random_forest":0.7809058,"score_unico_logistic_regression":0.7605663,"score_unico_fuzzy_knn":0.7726511,"score_unico_xgboost":0.8165002,"score_regional_gradboost":0.7170769,"score_regional_random_forest":0.7323373,"score_regional_logistic_regression":0.7785668,"score_regional_fuzzy_knn":0.7311824,"score_regional_xgboost":0.5285891},"geometry":{"type":"Polygon","coordinates":[[[-67.7783478,-9.4534038],[-67.7702149,-9.4533754],[-67.7702341,-9.4479664],[-67.7783669,-9.4479948],[-67.7783478,-9.4534038]]]}},{"type":"Feature","id":"AC-Y442-X814","properties":{"id":"AC-Y442-X814","grid_x":814,"grid_y":442,"region":"leste","centroid":[-67.7661582,-9.4506566],"aggregation":"none","score_unico_gradboost":0.7061095,"score_unico_random_forest":0.7658465,"score_unico_logistic_regression":0.8937779,"score_unico_fuzzy_knn":0.7999908,"score_unico_xgboost":0.7329391,"score_regional_gradboost":0.6587844,"score_regional_random_forest":0.7040457,"score_regional_logistic_regression":0.8443903,"score_regional_fuzzy_knn":0.7222115,"score_regional_xgboost":0.4709894},"geometry":{"type":"Polygon","coordinates":[[[-67.7702149,-9.4533754],[-67.7620821,-9.4533468],[-67.7621014,-9.4479378],[-67.7702341,-9.4479664],[-67.7702149,-9.4533754]]]}},{"type":"Feature","id":"AC-Y443-X807","properties":{"id":"AC-Y443-X807","grid_x":807,"grid_y":443,"region":"leste","centroid":[-67.8231066,-9.4454428],"aggregation":"none","score_unico_gradboost":0.8689732,"score_unico_random_forest":0.7739765,"score_unico_logistic_regression":0.8357977,"score_unico_fuzzy_knn":0.6980565,"score_unico_xgboost":0.7397746,"score_regional_gradboost":0.7466615,"score_regional_random_forest":0.6968963,"score_regional_logistic_regression":0.8108455,"score_regional_fuzzy_knn":0.7217019,"score_regional_xgboost":0.449883},"geometry":{"type":"Polygon","coordinates":[[[-67.8271638,-9.448161],[-67.819031,-9.4481337],[-67.8190494,-9.4427246],[-67.8271821,-9.4427518],[-67.8271638,-9.448161]]]}},{"type":"Feature","id":"AC-Y443-X808","properties":{"id":"AC-Y443-X808","grid_x":808,"grid_y":443,"region":"leste","centroid":[-67.8149738,-9.4454155],"aggregation":"none","score_unico_gradboost":0.6169384,"score_unico_random_forest":0.6152676,"score_unico_logistic_regression":0.8657173,"score_unico_fuzzy_knn":0.6900851,"score_unico_xgboost":0.403336,"score_regional_gradboost":0.6852158,"score_regional_random_forest":0.5412192,"score_regional_logistic_regression":0.8468942,"score_regional_fuzzy_knn":0.5987162,"score_regional_xgboost":0.2765673},"geometry":{"type":"Polygon","coordinates":[[[-67.819031,-9.4481337],[-67.8108981,-9.4481063],[-67.8109166,-9.4426972],[-67.8190494,-9.4427246],[-67.819031,-9.4481337]]]}},{"type":"Feature","id":"AC-Y443-X809","properties":{"id":"AC-Y443-X809","grid_x":809,"grid_y":443,"region":"leste","centroid":[-67.806841,-9.445388],"aggregation":"none","score_unico_gradboost":0.7703122,"score_unico_random_forest":0.7384665,"score_unico_logistic_regression":0.7791179,"score_unico_fuzzy_knn":0.7238726,"score_unico_xgboost":0.7382696,"score_regional_gradboost":0.7415658,"score_regional_random_forest":0.7047401,"score_regional_logistic_regression":0.7952646,"score_regional_fuzzy_knn":0.726909,"score_regional_xgboost":0.5989994},"geometry":{"type":"Polygon","coordinates":[[[-67.8108981,-9.4481063],[-67.8027653,-9.4480787],[-67.8027839,-9.4426696],[-67.8109166,-9.4426972],[-67.8108981,-9.4481063]]]}},{"type":"Feature","id":"AC-Y443-X810","properties":{"id":"AC-Y443-X810","grid_x":810,"grid_y":443,"region":"leste","centroid":[-67.7987082,-9.4453603],"aggregation":"none","score_unico_gradboost":0.5313426,"score_unico_random_forest":0.6099359,"score_unico_logistic_regression":0.8408488,"score_unico_fuzzy_knn":0.8066816,"score_unico_xgboost":0.5639187,"score_regional_gradboost":0.6305546,"score_regional_random_forest":0.5724219,"score_regional_logistic_regression":0.8338498,"score_regional_fuzzy_knn":0.6198845,"score_regional_xgboost":0.3592784},"geometry":{"type":"Polygon","coordinates":[[[-67.8027653,-9.4480787],[-67.7946324,-9.4480509],[-67.7946512,-9.4426418],[-67.8027839,-9.4426696],[-67.8027653,-9.4480787]]]}},{"type":"Feature","id":"AC-Y443-X811","properties":{"id":"AC-Y443-X811","grid_x":811,"grid_y":443,"region":"leste","centroid":[-67.7905755,-9.4453324],"aggregation":"none","score_unico_gradboost":0.9341679,"score_unico_random_forest":0.78131,"score_unico_logistic_regression":0.8809688,"score_unico_fuzzy_knn":0.7634355,"score_unico_xgboost":0.8572719,"score_regional_gradboost":0.8041071,"score_regional_random_forest":0.7188725,"score_regional_logistic_regression":0.8201011,"score_regional_fuzzy_knn":0.7414246,"score_regional_xgboost":0.7112937},"geometry":{"type":"Polygon","coordinates":[[[-67.7946324,-9.4480509],[-67.7864996,-9.4480229],[-67.7865186,-9.4426139],[-67.7946512,-9.4426418],[-67.7946324,-9.4480509]]]}},{"type":"Feature","id":"AC-Y443-X812","properties":{"id":"AC-Y443-X812","grid_x":812,"grid_y":443,"region":"leste","centroid":[-67.7824428,-9.4453043],"aggregation":"none","score_unico_gradboost":0.8427111,"score_unico_random_forest":0.7886817,"score_unico_logistic_regression":0.7639199,"score_unico_fuzzy_knn":0.7538157,"score_unico_xgboost":0.8262412,"score_regional_gradboost":0.7147996,"score_regional_random_forest":0.6606187,"score_regional_logistic_regression":0.7717513,"score_regional_fuzzy_knn":0.7184122,"score_regional_xgboost":0.6234141},"geometry":{"type":"Polygon","coordinates":[[[-67.7864996,-9.4480229],[-67.7783669,-9.4479948],[-67.7783859,-9.4425857],[-67.7865186,-9.4426139],[-67.7864996,-9.4480229]]]}},{"type":"Feature","id":"AC-Y443-X813","properties":{"id":"AC-Y443-X813","grid_x":813,"grid_y":443,"region":"leste","centroid":[-67.7743101,-9.4452761],"aggregation":"none","score_unico_gradboost":0.843664,"score_unico_random_forest":0.7880862,"score_unico_logistic_regression":0.7925832,"score_unico_fuzzy_knn":0.7895524,"score_unico_xgboost":0.8506227,"score_regional_gradboost":0.7446978,"score_regional_random_forest":0.7270852,"score_regional_logistic_regression":0.7990227,"score_regional_fuzzy_knn":0.7379345,"score_regional_xgboost":0.6961277},"geometry":{"type":"Polygon","coordinates":[[[-67.7783669,-9.4479948],[-67.7702341,-9.4479664],[-67.7702533,-9.4425574],[-67.7783859,-9.4425857],[-67.7783669,-9.4479948]]]}},{"type":"Feature","id":"AC-Y444-X808","properties":{"id":"AC-Y444-X808","grid_x":808,"grid_y":444,"region":"leste","centroid":[-67.8149923,-9.4400064],"aggregation":"none","score_unico_gradboost":0.6972842,"score_unico_random_forest":0.7423457,"score_unico_logistic_regression":0.784048,"score_unico_fuzzy_knn":0.6996821,"score_unico_xgboost":0.7062049,"score_regional_gradboost":0.7920246,"score_regional_random_forest":0.7385254,"score_regional_logistic_regression":0.8070757,"score_regional_fuzzy_knn":0.7218086,"score_regional_xgboost":0.5028843},"geometry":{"type":"Polygon","coordinates":[[[-67.8190494,-9.4427246],[-67.8109166,-9.4426972],[-67.8109352,-9.4372881],[-67.8190678,-9.4373155],[-67.8190494,-9.4427246]]]}},{"type":"Feature","id":"AC-Y444-X809","properties":{"id":"AC-Y444-X809","grid_x":809,"grid_y":444,"region":"leste","centroid":[-67.8068596,-9.4399789],"aggregation":"none","score_unico_gradboost":0.5664809,"score_unico_random_forest":0.6879209,"score_unico_logistic_regression":0.7617979,"score_unico_fuzzy_knn":0.7119823,"score_unico_xgboost":0.5556408,"score_regional_gradboost":0.7495314,"score_regional_random_forest":0.6750083,"score_regional_logistic_regression":0.797315,"score_regional_fuzzy_knn":0.7284094,"score_regional_xgboost":0.44171},"geometry":{"type":"Polygon","coordinates":[[[-67.8109166,-9.4426972],[-67.8027839,-9.4426696],[-67.8028026,-9.4372606],[-67.8109352,-9.4372881],[-67.8109166,-9.4426972]]]}},{"type":"Feature","id":"AC-Y444-X810","properties":{"id":"AC-Y444-X810","grid_x":810,"grid_y":444,"region":"leste","centroid":[-67.798727,-9.4399512],"aggregation":"none","score_unico_gradboost":0.7088838,"score_unico_random_forest":0.7507645,"score_unico_logistic_regression":0.7835353,"score_unico_fuzzy_knn":0.7368718,"score_unico_xgboost":0.7460911,"score_regional_gradboost":0.7830699,"score_regional_random_forest":0.7223392,"score_regional_logistic_regression":0.8103027,"score_regional_fuzzy_knn":0.7298195,"score_regional_xgboost":0.5651639},"geometry":{"type":"Polygon","coordinates":[[[-67.8027839,-9.4426696],[-67.7946512,-9.4426418],[-67.79467,-9.4372328],[-67.8028026,-9.4372606],[-67.8027839,-9.4426696]]]}},{"type":"Feature","id":"AC-Y444-X811","properties":{"id":"AC-Y444-X811","grid_x":811,"grid_y":444,"region":"leste","centroid":[-67.7905943,-9.4399234],"aggregation":"none","score_unico_gradboost":0.8577472,"score_unico_random_forest":0.7605806,"score_unico_logistic_regression":0.7957761,"score_unico_fuzzy_knn":0.7533997,"score_unico_xgboost":0.7769346,"score_regional_gradboost":0.6607874,"score_regional_random_forest":0.649879,"score_regional_logistic_regression":0.7879168,"score_regional_fuzzy_knn":0.7231156,"score_regional_xgboost":0.5390055},"geometry":{"type":"Polygon","coordinates":[[[-67.7946512,-9.4426418],[-67.7865186,-9.4426139],[-67.7865375,-9.4372048],[-67.79467,-9.4372328],[-67.7946512,-9.4426418]]]}},{"type":"Feature","id":"AC-Y445-X809","properties":{"id":"AC-Y445-X809","grid_x":809,"grid_y":445,"region":"leste","centroid":[-67.8068782,-9.4345698],"aggregation":"none","score_unico_gradboost":0.6050873,"score_unico_random_forest":0.6556322,"score_unico_logistic_regression":0.749798,"score_unico_fuzzy_knn":0.6886932,"score_unico_xgboost":0.5630975,"score_regional_gradboost":0.7411189,"score_regional_random_forest":0.6435911,"score_regional_logistic_regression":0.7934351,"score_regional_fuzzy_knn":0.7205271,"score_regional_xgboost":0.3484189},"geometry":{"type":"Polygon","coordinates":[[[-67.8109352,-9.4372881],[-67.8028026,-9.4372606],[-67.8028213,-9.4318515],[-67.8109537,-9.431879],[-67.8109352,-9.4372881]]]}},{"type":"Feature","id":"AC-Y445-X810","properties":{"id":"AC-Y445-X810","grid_x":810,"grid_y":445,"region":"leste","centroid":[-67.7987457,-9.4345422],"aggregation":"none","score_unico_gradboost":0.5367896,"score_unico_random_forest":0.6053097,"score_unico_logistic_regression":0.82901,"score_unico_fuzzy_knn":0.72468,"score_unico_xgboost":0.4527113,"score_regional_gradboost":0.6519221,"score_regional_random_forest":0.5576842,"score_regional_logistic_regression":0.8358957,"score_regional_fuzzy_knn":0.5686339,"score_regional_xgboost":0.2098662},"geometry":{"type":"Polygon","coordinates":[[[-67.8028026,-9.4372606],[-67.79467,-9.4372328],[-67.7946888,-9.4318237],[-67.8028213,-9.4318515],[-67.8028026,-9.4372606]]]}}]}