{"type":"FeatureCollection","features":[{"type":"Feature","id":"AC-Y647-X600","properties":{"id":"AC-Y647-X600","grid_x":600,"grid_y":647,"region":"leste","centroid":[-69.5053603,-8.3433634],"aggregation":"none","score_unico_gradboost":0.151746,"score_unico_random_forest":0.1357195,"score_unico_logistic_regression":0.5070392,"score_unico_fuzzy_knn":0.5377091,"score_unico_xgboost":0.1342739,"score_regional_gradboost":0.0317621,"score_regional_random_forest":0.0923069,"score_regional_logistic_regression":0.2737213,"score_regional_fuzzy_knn":0.2675722,"score_regional_xgboost":0.0101344},"geometry":{"type":"Polygon","coordinates":[[[-69.5094187,-8.3460634],[-69.5013087,-8.3460737],[-69.5013018,-8.3406633],[-69.5094117,-8.340653],[-69.5094187,-8.3460634]]]}},{"type":"Feature","id":"AC-Y647-X601","properties":{"id":"AC-Y647-X601","grid_x":601,"grid_y":647,"region":"leste","centroid":[-69.4972503,-8.3433736],"aggregation":"none","score_unico_gradboost":0.1773885,"score_unico_random_forest":0.1495394,"score_unico_logistic_regression":0.5355508,"score_unico_fuzzy_knn":0.6311376,"score_unico_xgboost":0.1540374,"score_regional_gradboost":0.0450559,"score_regional_random_forest":0.1075786,"score_regional_logistic_regression":0.2873813,"score_regional_fuzzy_knn":0.2996663,"score_regional_xgboost":0.0185641},"geometry":{"type":"Polygon","coordinates":[[[-69.5013087,-8.3460737],[-69.4931987,-8.3460839],[-69.4931919,-8.3406735],[-69.5013018,-8.3406633],[-69.5013087,-8.3460737]]]}},{"type":"Feature","id":"AC-Y647-X602","properties":{"id":"AC-Y647-X602","grid_x":602,"grid_y":647,"region":"leste","centroid":[-69.4891403,-8.3433837],"aggregation":"none","score_unico_gradboost":0.2178135,"score_unico_random_forest":0.161563,"score_unico_logistic_regression":0.5448887,"score_unico_fuzzy_knn":0.6567019,"score_unico_xgboost":0.1665574,"score_regional_gradboost":0.1001043,"score_regional_random_forest":0.1699094,"score_regional_logistic_regression":0.2864865,"score_regional_fuzzy_knn":0.3903762,"score_regional_xgboost":0.048392},"geometry":{"type":"Polygon","coordinates":[[[-69.4931987,-8.3460839],[-69.4850887,-8.3460939],[-69.485082,-8.3406835],[-69.4931919,-8.3406735],[-69.4931987,-8.3460839]]]}},{"type":"Feature","id":"AC-Y647-X603","properties":{"id":"AC-Y647-X603","grid_x":603,"grid_y":647,"region":"leste","centroid":[-69.4810304,-8.3433937],"aggregation":"none","score_unico_gradboost":0.3136054,"score_unico_random_forest":0.1830549,"score_unico_logistic_regression":0.5436511,"score_unico_fuzzy_knn":0.6611973,"score_unico_xgboost":0.2073443,"score_regional_gradboost":0.1441115,"score_regional_random_forest":0.2042022,"score_regional_logistic_regression":0.2771158,"score_regional_fuzzy_knn":0.4859543,"score_regional_xgboost":0.0931872},"geometry":{"type":"Polygon","coordinates":[[[-69.4850887,-8.3460939],[-69.4769787,-8.3461038],[-69.4769721,-8.3406934],[-69.485082,-8.3406835],[-69.4850887,-8.3460939]]]}},{"type":"Feature","id":"AC-Y648-X600","properties":{"id":"AC-Y648-X600","grid_x":600,"grid_y":648,"region":"leste","centroid":[-69.5053533,-8.337953],"aggregation":"none","score_unico_gradboost":0.1425439,"score_unico_random_forest":0.1158562,"score_unico_logistic_regression":0.4787398,"score_unico_fuzzy_knn":0.4434363,"score_unico_xgboost":0.1187933,"score_regional_gradboost":0.0276294,"score_regional_random_forest":0.0678008,"score_regional_logistic_regression":0.2482812,"score_regional_fuzzy_knn":0.3020824,"score_regional_xgboost":0.0095017},"geometry":{"type":"Polygon","coordinates":[[[-69.5094117,-8.340653],[-69.5013018,-8.3406633],[-69.5012949,-8.335253],[-69.5094047,-8.3352426],[-69.5094117,-8.340653]]]}},{"type":"Feature","id":"AC-Y648-X601","properties":{"id":"AC-Y648-X601","grid_x":601,"grid_y":648,"region":"leste","centroid":[-69.4972435,-8.3379633],"aggregation":"none","score_unico_gradboost":0.182205,"score_unico_random_forest":0.1603741,"score_unico_logistic_regression":0.5487955,"score_unico_fuzzy_knn":0.6341672,"score_unico_xgboost":0.1553613,"score_regional_gradboost":0.0399913,"score_regional_random_forest":0.1185218,"score_regional_logistic_regression":0.2920303,"score_regional_fuzzy_knn":0.2812378,"score_regional_xgboost":0.0212983},"geometry":{"type":"Polygon","coordinates":[[[-69.5013018,-8.3406633],[-69.4931919,-8.3406735],[-69.4931852,-8.3352631],[-69.5012949,-8.335253],[-69.5013018,-8.3406633]]]}},{"type":"Feature","id":"AC-Y648-X602","properties":{"id":"AC-Y648-X602","grid_x":602,"grid_y":648,"region":"leste","centroid":[-69.4891336,-8.3379733],"aggregation":"none","score_unico_gradboost":0.250287,"score_unico_random_forest":0.1568865,"score_unico_logistic_regression":0.5224311,"score_unico_fuzzy_knn":0.6097163,"score_unico_xgboost":0.1939391,"score_regional_gradboost":0.1704666,"score_regional_random_forest":0.1744884,"score_regional_logistic_regression":0.2641088,"score_regional_fuzzy_knn":0.3941458,"score_regional_xgboost":0.0729303},"geometry":{"type":"Polygon","coordinates":[[[-69.4931919,-8.3406735],[-69.485082,-8.3406835],[-69.4850754,-8.3352731],[-69.4931852,-8.3352631],[-69.4931919,-8.3406735]]]}},{"type":"Feature","id":"AC-Y648-X603","properties":{"id":"AC-Y648-X603","grid_x":603,"grid_y":648,"region":"leste","centroid":[-69.4810238,-8.3379833],"aggregation":"none","score_unico_gradboost":0.3224051,"score_unico_random_forest":0.2074599,"score_unico_logistic_regression":0.5129406,"score_unico_fuzzy_knn":0.6426174,"score_unico_xgboost":0.3229421,"score_regional_gradboost":0.164607,"score_regional_random_forest":0.1985735,"score_regional_logistic_regression":0.249416,"score_regional_fuzzy_knn":0.5042311,"score_regional_xgboost":0.1082003},"geometry":{"type":"Polygon","coordinates":[[[-69.485082,-8.3406835],[-69.4769721,-8.3406934],[-69.4769656,-8.335283],[-69.4850754,-8.3352731],[-69.485082,-8.3406835]]]}},{"type":"Feature","id":"AC-Y649-X600","properties":{"id":"AC-Y649-X600","grid_x":600,"grid_y":649,"region":"leste","centroid":[-69.5053464,-8.3325426],"aggregation":"none","score_unico_gradboost":0.1661738,"score_unico_random_forest":0.1369939,"score_unico_logistic_regression":0.5196134,"score_unico_fuzzy_knn":0.5555258,"score_unico_xgboost":0.1320912,"score_regional_gradboost":0.0361605,"score_regional_random_forest":0.1032412,"score_regional_logistic_regression":0.27279,"score_regional_fuzzy_knn":0.2701708,"score_regional_xgboost":0.0118802},"geometry":{"type":"Polygon","coordinates":[[[-69.5094047,-8.3352426],[-69.5012949,-8.335253],[-69.5012881,-8.3298426],[-69.5093977,-8.3298323],[-69.5094047,-8.3352426]]]}},{"type":"Feature","id":"AC-Y649-X601","properties":{"id":"AC-Y649-X601","grid_x":601,"grid_y":649,"region":"leste","centroid":[-69.4972366,-8.3325529],"aggregation":"none","score_unico_gradboost":0.1614051,"score_unico_random_forest":0.1599751,"score_unico_logistic_regression":0.5122958,"score_unico_fuzzy_knn":0.5416936,"score_unico_xgboost":0.1705258,"score_regional_gradboost":0.040515,"score_regional_random_forest":0.1128614,"score_regional_logistic_regression":0.259664,"score_regional_fuzzy_knn":0.3169525,"score_regional_xgboost":0.0181599},"geometry":{"type":"Polygon","coordinates":[[[-69.5012949,-8.335253],[-69.4931852,-8.3352631],[-69.4931784,-8.3298527],[-69.5012881,-8.3298426],[-69.5012949,-8.335253]]]}},{"type":"Feature","id":"AC-Y649-X602","properties":{"id":"AC-Y649-X602","grid_x":602,"grid_y":649,"region":"leste","centroid":[-69.4891269,-8.332563],"aggregation":"none","score_unico_gradboost":0.2773032,"score_unico_random_forest":0.1639132,"score_unico_logistic_regression":0.5301805,"score_unico_fuzzy_knn":0.6146525,"score_unico_xgboost":0.2377597,"score_regional_gradboost":0.1704666,"score_regional_random_forest":0.1825345,"score_regional_logistic_regression":0.2646521,"score_regional_fuzzy_knn":0.4144065,"score_regional_xgboost":0.0749638},"geometry":{"type":"Polygon","coordinates":[[[-69.4931852,-8.3352631],[-69.4850754,-8.3352731],[-69.4850687,-8.3298627],[-69.4931784,-8.3298527],[-69.4931852,-8.3352631]]]}},{"type":"Feature","id":"AC-Y650-X600","properties":{"id":"AC-Y650-X600","grid_x":600,"grid_y":650,"region":"leste","centroid":[-69.5053394,-8.3271323],"aggregation":"none","score_unico_gradboost":0.1661738,"score_unico_random_forest":0.1358917,"score_unico_logistic_regression":0.5160851,"score_unico_fuzzy_knn":0.5094748,"score_unico_xgboost":0.137227,"score_regional_gradboost":0.0361605,"score_regional_random_forest":0.1112928,"score_regional_logistic_regression":0.2655169,"score_regional_fuzzy_knn":0.2622512,"score_regional_xgboost":0.0116923},"geometry":{"type":"Polygon","coordinates":[[[-69.5093977,-8.3298323],[-69.5012881,-8.3298426],[-69.5012812,-8.3244322],[-69.5093907,-8.3244219],[-69.5093977,-8.3298323]]]}},{"type":"Feature","id":"AC-Y650-X601","properties":{"id":"AC-Y650-X601","grid_x":601,"grid_y":650,"region":"leste","centroid":[-69.4972298,-8.3271425],"aggregation":"none","score_unico_gradboost":0.1605567,"score_unico_random_forest":0.1510233,"score_unico_logistic_regression":0.4921557,"score_unico_fuzzy_knn":0.4943308,"score_unico_xgboost":0.2068982,"score_regional_gradboost":0.0414269,"score_regional_random_forest":0.1199071,"score_regional_logistic_regression":0.2410963,"score_regional_fuzzy_knn":0.3295649,"score_regional_xgboost":0.028844},"geometry":{"type":"Polygon","coordinates":[[[-69.5012881,-8.3298426],[-69.4931784,-8.3298527],[-69.4931716,-8.3244424],[-69.5012812,-8.3244322],[-69.5012881,-8.3298426]]]}},{"type":"Feature","id":"AC-Y651-X600","properties":{"id":"AC-Y651-X600","grid_x":600,"grid_y":651,"region":"leste","centroid":[-69.5053325,-8.3217219],"aggregation":"none","score_unico_gradboost":0.1329367,"score_unico_random_forest":0.1201802,"score_unico_logistic_regression":0.4736927,"score_unico_fuzzy_knn":0.4296665,"score_unico_xgboost":0.1345052,"score_regional_gradboost":0.0243615,"score_regional_random_forest":0.0846317,"score_regional_logistic_regression":0.231812,"score_regional_fuzzy_knn":0.2879444,"score_regional_xgboost":0.0076568},"geometry":{"type":"Polygon","coordinates":[[[-69.5093907,-8.3244219],[-69.5012812,-8.3244322],[-69.5012743,-8.3190218],[-69.5093837,-8.3190115],[-69.5093907,-8.3244219]]]}},{"type":"Feature","id":"AC-Y652-X600","properties":{"id":"AC-Y652-X600","grid_x":600,"grid_y":652,"region":"leste","centroid":[-69.5053256,-8.3163115],"aggregation":"none","score_unico_gradboost":0.1329367,"score_unico_random_forest":0.1246657,"score_unico_logistic_regression":0.472761,"score_unico_fuzzy_knn":0.4033571,"score_unico_xgboost":0.1295937,"score_regional_gradboost":0.0243615,"score_regional_random_forest":0.0900553,"score_regional_logistic_regression":0.2274385,"score_regional_fuzzy_knn":0.276317,"score_regional_xgboost":0.0076568},"geometry":{"type":"Polygon","coordinates":[[[-69.5093837,-8.3190115],[-69.5012743,-8.3190218],[-69.5012674,-8.3136114],[-69.5093768,-8.3136011],[-69.5093837,-8.3190115]]]}}]}