{"type":"FeatureCollection","features":[{"type":"Feature","id":"AC-Y750-X461","properties":{"id":"AC-Y750-X461","grid_x":461,"grid_y":750,"region":"oeste","centroid":[-70.6302349,-7.7832541],"aggregation":"none","score_unico_gradboost":0.5818219,"score_unico_random_forest":0.7029969,"score_unico_logistic_regression":0.6128814,"score_unico_fuzzy_knn":0.7875547,"score_unico_xgboost":0.5306897,"score_regional_gradboost":0.7149909,"score_regional_random_forest":0.7711394,"score_regional_logistic_regression":0.7593607,"score_regional_fuzzy_knn":0.854161,"score_regional_xgboost":0.6351477},"geometry":{"type":"Polygon","coordinates":[[[-70.6342932,-7.7859428],[-70.6261974,-7.7859739],[-70.6261765,-7.7805654],[-70.6342723,-7.7805343],[-70.6342932,-7.7859428]]]}},{"type":"Feature","id":"AC-Y750-X462","properties":{"id":"AC-Y750-X462","grid_x":462,"grid_y":750,"region":"oeste","centroid":[-70.622139,-7.7832851],"aggregation":"none","score_unico_gradboost":0.5180152,"score_unico_random_forest":0.7149643,"score_unico_logistic_regression":0.6392628,"score_unico_fuzzy_knn":0.7918578,"score_unico_xgboost":0.5651689,"score_regional_gradboost":0.7929756,"score_regional_random_forest":0.7513303,"score_regional_logistic_regression":0.8032899,"score_regional_fuzzy_knn":0.8762314,"score_regional_xgboost":0.6632802},"geometry":{"type":"Polygon","coordinates":[[[-70.6261974,-7.7859739],[-70.6181015,-7.7860049],[-70.6180807,-7.7805963],[-70.6261765,-7.7805654],[-70.6261974,-7.7859739]]]}},{"type":"Feature","id":"AC-Y750-X463","properties":{"id":"AC-Y750-X463","grid_x":463,"grid_y":750,"region":"oeste","centroid":[-70.6140432,-7.783316],"aggregation":"none","score_unico_gradboost":0.7188243,"score_unico_random_forest":0.7527047,"score_unico_logistic_regression":0.685579,"score_unico_fuzzy_knn":0.8226675,"score_unico_xgboost":0.6750033,"score_regional_gradboost":0.7691131,"score_regional_random_forest":0.740551,"score_regional_logistic_regression":0.8445491,"score_regional_fuzzy_knn":0.8580553,"score_regional_xgboost":0.708957},"geometry":{"type":"Polygon","coordinates":[[[-70.6181015,-7.7860049],[-70.6100056,-7.7860357],[-70.6099849,-7.7806271],[-70.6180807,-7.7805963],[-70.6181015,-7.7860049]]]}},{"type":"Feature","id":"AC-Y750-X464","properties":{"id":"AC-Y750-X464","grid_x":464,"grid_y":750,"region":"oeste","centroid":[-70.6059473,-7.7833468],"aggregation":"none","score_unico_gradboost":0.5180152,"score_unico_random_forest":0.72049,"score_unico_logistic_regression":0.6358438,"score_unico_fuzzy_knn":0.7985242,"score_unico_xgboost":0.5764521,"score_regional_gradboost":0.7929756,"score_regional_random_forest":0.7570409,"score_regional_logistic_regression":0.800008,"score_regional_fuzzy_knn":0.8771179,"score_regional_xgboost":0.6638105},"geometry":{"type":"Polygon","coordinates":[[[-70.6100056,-7.7860357],[-70.6019096,-7.7860664],[-70.601889,-7.7806578],[-70.6099849,-7.7806271],[-70.6100056,-7.7860357]]]}},{"type":"Feature","id":"AC-Y750-X465","properties":{"id":"AC-Y750-X465","grid_x":465,"grid_y":750,"region":"oeste","centroid":[-70.5978513,-7.7833773],"aggregation":"none","score_unico_gradboost":0.0892447,"score_unico_random_forest":0.6888446,"score_unico_logistic_regression":0.5137824,"score_unico_fuzzy_knn":0.6984903,"score_unico_xgboost":0.1185063,"score_regional_gradboost":0.0420946,"score_regional_random_forest":0.6491612,"score_regional_logistic_regression":0.6157969,"score_regional_fuzzy_knn":0.4974829,"score_regional_xgboost":0.0716922},"geometry":{"type":"Polygon","coordinates":[[[-70.6019096,-7.7860664],[-70.5938136,-7.7860969],[-70.5937932,-7.7806883],[-70.601889,-7.7806578],[-70.6019096,-7.7860664]]]}}]}