{"type":"FeatureCollection","features":[{"type":"Feature","id":"AC-Y280-X886","properties":{"id":"AC-Y280-X886","grid_x":886,"grid_y":280,"region":"leste","centroid":[-67.175851,-10.3241077],"aggregation":"none","score_unico_gradboost":0.9579765,"score_unico_random_forest":0.7933364,"score_unico_logistic_regression":0.9096237,"score_unico_fuzzy_knn":0.7003696,"score_unico_xgboost":0.904705,"score_regional_gradboost":0.8235052,"score_regional_random_forest":0.7193975,"score_regional_logistic_regression":0.8648783,"score_regional_fuzzy_knn":0.6707069,"score_regional_xgboost":0.7779033},"geometry":{"type":"Polygon","coordinates":[[[-67.1799115,-10.3268343],[-67.1717594,-10.3267882],[-67.1717906,-10.321381],[-67.1799426,-10.3214271],[-67.1799115,-10.3268343]]]}},{"type":"Feature","id":"AC-Y280-X888","properties":{"id":"AC-Y280-X888","grid_x":888,"grid_y":280,"region":"leste","centroid":[-67.1595471,-10.3240151],"aggregation":"none","score_unico_gradboost":0.9314579,"score_unico_random_forest":0.657215,"score_unico_logistic_regression":0.8616949,"score_unico_fuzzy_knn":0.7993522,"score_unico_xgboost":0.6991181,"score_regional_gradboost":0.6598812,"score_regional_random_forest":0.6251818,"score_regional_logistic_regression":0.8295787,"score_regional_fuzzy_knn":0.7603811,"score_regional_xgboost":0.5015641},"geometry":{"type":"Polygon","coordinates":[[[-67.1636073,-10.3267419],[-67.1554553,-10.3266954],[-67.1554869,-10.3212883],[-67.1636387,-10.3213348],[-67.1636073,-10.3267419]]]}},{"type":"Feature","id":"AC-Y281-X885","properties":{"id":"AC-Y281-X885","grid_x":885,"grid_y":281,"region":"leste","centroid":[-67.1840341,-10.3187464],"aggregation":"none","score_unico_gradboost":0.9607345,"score_unico_random_forest":0.8202628,"score_unico_logistic_regression":0.9146996,"score_unico_fuzzy_knn":0.7107758,"score_unico_xgboost":0.9253051,"score_regional_gradboost":0.7873844,"score_regional_random_forest":0.6417225,"score_regional_logistic_regression":0.8577037,"score_regional_fuzzy_knn":0.6782788,"score_regional_xgboost":0.5924382},"geometry":{"type":"Polygon","coordinates":[[[-67.1880946,-10.3214729],[-67.1799426,-10.3214271],[-67.1799737,-10.3160198],[-67.1881255,-10.3160657],[-67.1880946,-10.3214729]]]}},{"type":"Feature","id":"AC-Y281-X886","properties":{"id":"AC-Y281-X886","grid_x":886,"grid_y":281,"region":"leste","centroid":[-67.1758822,-10.3187005],"aggregation":"none","score_unico_gradboost":0.7812511,"score_unico_random_forest":0.6213735,"score_unico_logistic_regression":0.9361619,"score_unico_fuzzy_knn":0.7099255,"score_unico_xgboost":0.4503439,"score_regional_gradboost":0.5710345,"score_regional_random_forest":0.5646311,"score_regional_logistic_regression":0.8676818,"score_regional_fuzzy_knn":0.6740523,"score_regional_xgboost":0.2593313},"geometry":{"type":"Polygon","coordinates":[[[-67.1799426,-10.3214271],[-67.1717906,-10.321381],[-67.1718219,-10.3159738],[-67.1799737,-10.3160198],[-67.1799426,-10.3214271]]]}},{"type":"Feature","id":"AC-Y281-X887","properties":{"id":"AC-Y281-X887","grid_x":887,"grid_y":281,"region":"leste","centroid":[-67.1677303,-10.3186543],"aggregation":"none","score_unico_gradboost":0.9438702,"score_unico_random_forest":0.7336337,"score_unico_logistic_regression":0.8878373,"score_unico_fuzzy_knn":0.7247116,"score_unico_xgboost":0.676024,"score_regional_gradboost":0.7462171,"score_regional_random_forest":0.7149551,"score_regional_logistic_regression":0.8399506,"score_regional_fuzzy_knn":0.6845002,"score_regional_xgboost":0.7327073},"geometry":{"type":"Polygon","coordinates":[[[-67.1717906,-10.321381],[-67.1636387,-10.3213348],[-67.1636701,-10.3159276],[-67.1718219,-10.3159738],[-67.1717906,-10.321381]]]}},{"type":"Feature","id":"AC-Y281-X888","properties":{"id":"AC-Y281-X888","grid_x":888,"grid_y":281,"region":"leste","centroid":[-67.1595785,-10.318608],"aggregation":"none","score_unico_gradboost":0.8927505,"score_unico_random_forest":0.6724902,"score_unico_logistic_regression":0.872982,"score_unico_fuzzy_knn":0.7899585,"score_unico_xgboost":0.6133569,"score_regional_gradboost":0.5995536,"score_regional_random_forest":0.5887502,"score_regional_logistic_regression":0.8374273,"score_regional_fuzzy_knn":0.7601509,"score_regional_xgboost":0.3154847},"geometry":{"type":"Polygon","coordinates":[[[-67.1636387,-10.3213348],[-67.1554869,-10.3212883],[-67.1555183,-10.3158811],[-67.1636701,-10.3159276],[-67.1636387,-10.3213348]]]}},{"type":"Feature","id":"AC-Y281-X889","properties":{"id":"AC-Y281-X889","grid_x":889,"grid_y":281,"region":"leste","centroid":[-67.1514267,-10.3185614],"aggregation":"none","score_unico_gradboost":0.9615786,"score_unico_random_forest":0.7817861,"score_unico_logistic_regression":0.8460441,"score_unico_fuzzy_knn":0.8079719,"score_unico_xgboost":0.8753507,"score_regional_gradboost":0.7720129,"score_regional_random_forest":0.6829851,"score_regional_logistic_regression":0.8222458,"score_regional_fuzzy_knn":0.7596108,"score_regional_xgboost":0.6976327},"geometry":{"type":"Polygon","coordinates":[[[-67.1554869,-10.3212883],[-67.147335,-10.3212416],[-67.1473667,-10.3158345],[-67.1555183,-10.3158811],[-67.1554869,-10.3212883]]]}},{"type":"Feature","id":"AC-Y282-X884","properties":{"id":"AC-Y282-X884","grid_x":884,"grid_y":282,"region":"leste","centroid":[-67.1922169,-10.3133849],"aggregation":"none","score_unico_gradboost":0.9706339,"score_unico_random_forest":0.8211283,"score_unico_logistic_regression":0.8981886,"score_unico_fuzzy_knn":0.8158975,"score_unico_xgboost":0.9324329,"score_regional_gradboost":0.8192795,"score_regional_random_forest":0.7176136,"score_regional_logistic_regression":0.8413713,"score_regional_fuzzy_knn":0.7501377,"score_regional_xgboost":0.6076322},"geometry":{"type":"Polygon","coordinates":[[[-67.1962774,-10.3161113],[-67.1881255,-10.3160657],[-67.1881564,-10.3106584],[-67.1963082,-10.310704],[-67.1962774,-10.3161113]]]}},{"type":"Feature","id":"AC-Y282-X885","properties":{"id":"AC-Y282-X885","grid_x":885,"grid_y":282,"region":"leste","centroid":[-67.1840651,-10.3133392],"aggregation":"none","score_unico_gradboost":0.8922924,"score_unico_random_forest":0.7001328,"score_unico_logistic_regression":0.9251582,"score_unico_fuzzy_knn":0.7982383,"score_unico_xgboost":0.7408973,"score_regional_gradboost":0.7036351,"score_regional_random_forest":0.6600945,"score_regional_logistic_regression":0.8479499,"score_regional_fuzzy_knn":0.7597903,"score_regional_xgboost":0.3931344},"geometry":{"type":"Polygon","coordinates":[[[-67.1881255,-10.3160657],[-67.1799737,-10.3160198],[-67.1800047,-10.3106126],[-67.1881564,-10.3106584],[-67.1881255,-10.3160657]]]}},{"type":"Feature","id":"AC-Y282-X886","properties":{"id":"AC-Y282-X886","grid_x":886,"grid_y":282,"region":"leste","centroid":[-67.1759133,-10.3132932],"aggregation":"none","score_unico_gradboost":0.8771792,"score_unico_random_forest":0.5502373,"score_unico_logistic_regression":0.923939,"score_unico_fuzzy_knn":0.7090477,"score_unico_xgboost":0.5240877,"score_regional_gradboost":0.6341049,"score_regional_random_forest":0.5843207,"score_regional_logistic_regression":0.8659014,"score_regional_fuzzy_knn":0.6805295,"score_regional_xgboost":0.4545538},"geometry":{"type":"Polygon","coordinates":[[[-67.1799737,-10.3160198],[-67.1718219,-10.3159738],[-67.1718531,-10.3105666],[-67.1800047,-10.3106126],[-67.1799737,-10.3160198]]]}},{"type":"Feature","id":"AC-Y282-X887","properties":{"id":"AC-Y282-X887","grid_x":887,"grid_y":282,"region":"leste","centroid":[-67.1677616,-10.3132471],"aggregation":"none","score_unico_gradboost":0.9229563,"score_unico_random_forest":0.7385103,"score_unico_logistic_regression":0.882331,"score_unico_fuzzy_knn":0.7914136,"score_unico_xgboost":0.7880115,"score_regional_gradboost":0.7008469,"score_regional_random_forest":0.7086147,"score_regional_logistic_regression":0.8328037,"score_regional_fuzzy_knn":0.7521749,"score_regional_xgboost":0.7204354},"geometry":{"type":"Polygon","coordinates":[[[-67.1718219,-10.3159738],[-67.1636701,-10.3159276],[-67.1637014,-10.3105204],[-67.1718531,-10.3105666],[-67.1718219,-10.3159738]]]}},{"type":"Feature","id":"AC-Y282-X888","properties":{"id":"AC-Y282-X888","grid_x":888,"grid_y":282,"region":"leste","centroid":[-67.1596099,-10.3132008],"aggregation":"none","score_unico_gradboost":0.8814542,"score_unico_random_forest":0.6675149,"score_unico_logistic_regression":0.8836377,"score_unico_fuzzy_knn":0.7960273,"score_unico_xgboost":0.6441242,"score_regional_gradboost":0.588582,"score_regional_random_forest":0.5654668,"score_regional_logistic_regression":0.8465938,"score_regional_fuzzy_knn":0.7837314,"score_regional_xgboost":0.2598486},"geometry":{"type":"Polygon","coordinates":[[[-67.1636701,-10.3159276],[-67.1555183,-10.3158811],[-67.1555498,-10.310474],[-67.1637014,-10.3105204],[-67.1636701,-10.3159276]]]}},{"type":"Feature","id":"AC-Y282-X889","properties":{"id":"AC-Y282-X889","grid_x":889,"grid_y":282,"region":"leste","centroid":[-67.1514583,-10.3131542],"aggregation":"none","score_unico_gradboost":0.9744708,"score_unico_random_forest":0.8096823,"score_unico_logistic_regression":0.8303647,"score_unico_fuzzy_knn":0.8006106,"score_unico_xgboost":0.890348,"score_regional_gradboost":0.7740519,"score_regional_random_forest":0.7320858,"score_regional_logistic_regression":0.8088108,"score_regional_fuzzy_knn":0.7457829,"score_regional_xgboost":0.7903718},"geometry":{"type":"Polygon","coordinates":[[[-67.1555183,-10.3158811],[-67.1473667,-10.3158345],[-67.1473983,-10.3104273],[-67.1555498,-10.310474],[-67.1555183,-10.3158811]]]}},{"type":"Feature","id":"AC-Y283-X884","properties":{"id":"AC-Y283-X884","grid_x":884,"grid_y":283,"region":"leste","centroid":[-67.1922477,-10.3079776],"aggregation":"none","score_unico_gradboost":0.969492,"score_unico_random_forest":0.8659143,"score_unico_logistic_regression":0.9121688,"score_unico_fuzzy_knn":0.7132665,"score_unico_xgboost":0.9590039,"score_regional_gradboost":0.8165935,"score_regional_random_forest":0.6722418,"score_regional_logistic_regression":0.8554975,"score_regional_fuzzy_knn":0.6810119,"score_regional_xgboost":0.5605377},"geometry":{"type":"Polygon","coordinates":[[[-67.1963082,-10.310704],[-67.1881564,-10.3106584],[-67.1881873,-10.3052511],[-67.196339,-10.3052967],[-67.1963082,-10.310704]]]}},{"type":"Feature","id":"AC-Y283-X885","properties":{"id":"AC-Y283-X885","grid_x":885,"grid_y":283,"region":"leste","centroid":[-67.1840961,-10.3079319],"aggregation":"none","score_unico_gradboost":0.8950862,"score_unico_random_forest":0.5739978,"score_unico_logistic_regression":0.9186425,"score_unico_fuzzy_knn":0.718614,"score_unico_xgboost":0.5434799,"score_regional_gradboost":0.6398472,"score_regional_random_forest":0.5917606,"score_regional_logistic_regression":0.8591794,"score_regional_fuzzy_knn":0.6876357,"score_regional_xgboost":0.5102435},"geometry":{"type":"Polygon","coordinates":[[[-67.1881564,-10.3106584],[-67.1800047,-10.3106126],[-67.1800358,-10.3052054],[-67.1881873,-10.3052511],[-67.1881564,-10.3106584]]]}},{"type":"Feature","id":"AC-Y283-X886","properties":{"id":"AC-Y283-X886","grid_x":886,"grid_y":283,"region":"leste","centroid":[-67.1759444,-10.307886],"aggregation":"none","score_unico_gradboost":0.8876982,"score_unico_random_forest":0.6592102,"score_unico_logistic_regression":0.9044766,"score_unico_fuzzy_knn":0.7036568,"score_unico_xgboost":0.5768497,"score_regional_gradboost":0.6267213,"score_regional_random_forest":0.6237859,"score_regional_logistic_regression":0.8616238,"score_regional_fuzzy_knn":0.6741126,"score_regional_xgboost":0.4258864},"geometry":{"type":"Polygon","coordinates":[[[-67.1800047,-10.3106126],[-67.1718531,-10.3105666],[-67.1718842,-10.3051594],[-67.1800358,-10.3052054],[-67.1800047,-10.3106126]]]}},{"type":"Feature","id":"AC-Y283-X887","properties":{"id":"AC-Y283-X887","grid_x":887,"grid_y":283,"region":"leste","centroid":[-67.1677929,-10.3078399],"aggregation":"none","score_unico_gradboost":0.9280967,"score_unico_random_forest":0.7070528,"score_unico_logistic_regression":0.8881158,"score_unico_fuzzy_knn":0.7170513,"score_unico_xgboost":0.648342,"score_regional_gradboost":0.7081756,"score_regional_random_forest":0.6290553,"score_regional_logistic_regression":0.8480081,"score_regional_fuzzy_knn":0.6840698,"score_regional_xgboost":0.5127151},"geometry":{"type":"Polygon","coordinates":[[[-67.1718531,-10.3105666],[-67.1637014,-10.3105204],[-67.1637327,-10.3051132],[-67.1718842,-10.3051594],[-67.1718531,-10.3105666]]]}},{"type":"Feature","id":"AC-Y283-X888","properties":{"id":"AC-Y283-X888","grid_x":888,"grid_y":283,"region":"leste","centroid":[-67.1596413,-10.3077936],"aggregation":"none","score_unico_gradboost":0.9543985,"score_unico_random_forest":0.7274017,"score_unico_logistic_regression":0.8438347,"score_unico_fuzzy_knn":0.8173852,"score_unico_xgboost":0.8203522,"score_regional_gradboost":0.7340835,"score_regional_random_forest":0.6671604,"score_regional_logistic_regression":0.812372,"score_regional_fuzzy_knn":0.7466891,"score_regional_xgboost":0.5757285},"geometry":{"type":"Polygon","coordinates":[[[-67.1637014,-10.3105204],[-67.1555498,-10.310474],[-67.1555813,-10.3050668],[-67.1637327,-10.3051132],[-67.1637014,-10.3105204]]]}},{"type":"Feature","id":"AC-Y283-X889","properties":{"id":"AC-Y283-X889","grid_x":889,"grid_y":283,"region":"leste","centroid":[-67.1514898,-10.3077471],"aggregation":"none","score_unico_gradboost":0.9707798,"score_unico_random_forest":0.8209166,"score_unico_logistic_regression":0.8351959,"score_unico_fuzzy_knn":0.8005517,"score_unico_xgboost":0.9123977,"score_regional_gradboost":0.8088776,"score_regional_random_forest":0.739125,"score_regional_logistic_regression":0.8128258,"score_regional_fuzzy_knn":0.7370212,"score_regional_xgboost":0.8200617},"geometry":{"type":"Polygon","coordinates":[[[-67.1555498,-10.310474],[-67.1473983,-10.3104273],[-67.1474299,-10.3050202],[-67.1555813,-10.3050668],[-67.1555498,-10.310474]]]}},{"type":"Feature","id":"AC-Y278-X885","properties":{"id":"AC-Y278-X885","grid_x":885,"grid_y":278,"region":"leste","centroid":[-67.183941,-10.3349682],"aggregation":"none","score_unico_gradboost":0.9063276,"score_unico_random_forest":0.6103516,"score_unico_logistic_regression":0.8832275,"score_unico_fuzzy_knn":0.7224878,"score_unico_xgboost":0.5368828,"score_regional_gradboost":0.5662995,"score_regional_random_forest":0.5407902,"score_regional_logistic_regression":0.8456767,"score_regional_fuzzy_knn":0.6897515,"score_regional_xgboost":0.3319034},"geometry":{"type":"Polygon","coordinates":[[[-67.1880016,-10.3376947],[-67.1798492,-10.3376488],[-67.1798804,-10.3322416],[-67.1880326,-10.3322875],[-67.1880016,-10.3376947]]]}},{"type":"Feature","id":"AC-Y278-X886","properties":{"id":"AC-Y278-X886","grid_x":886,"grid_y":278,"region":"leste","centroid":[-67.1757887,-10.3349221],"aggregation":"none","score_unico_gradboost":0.9132795,"score_unico_random_forest":0.6448664,"score_unico_logistic_regression":0.873331,"score_unico_fuzzy_knn":0.8054728,"score_unico_xgboost":0.6323519,"score_regional_gradboost":0.599636,"score_regional_random_forest":0.5556159,"score_regional_logistic_regression":0.8420173,"score_regional_fuzzy_knn":0.7842052,"score_regional_xgboost":0.2647168},"geometry":{"type":"Polygon","coordinates":[[[-67.1798492,-10.3376488],[-67.1716969,-10.3376027],[-67.1717281,-10.3321954],[-67.1798804,-10.3322416],[-67.1798492,-10.3376488]]]}},{"type":"Feature","id":"AC-Y278-X887","properties":{"id":"AC-Y278-X887","grid_x":887,"grid_y":278,"region":"leste","centroid":[-67.1676364,-10.3348759],"aggregation":"none","score_unico_gradboost":0.8428026,"score_unico_random_forest":0.6868485,"score_unico_logistic_regression":0.8735162,"score_unico_fuzzy_knn":0.7979553,"score_unico_xgboost":0.5992172,"score_regional_gradboost":0.5605689,"score_regional_random_forest":0.5642178,"score_regional_logistic_regression":0.8364868,"score_regional_fuzzy_knn":0.768559,"score_regional_xgboost":0.2926596},"geometry":{"type":"Polygon","coordinates":[[[-67.1716969,-10.3376027],[-67.1635445,-10.3375563],[-67.163576,-10.3321491],[-67.1717281,-10.3321954],[-67.1716969,-10.3376027]]]}},{"type":"Feature","id":"AC-Y279-X885","properties":{"id":"AC-Y279-X885","grid_x":885,"grid_y":279,"region":"leste","centroid":[-67.183972,-10.3295609],"aggregation":"none","score_unico_gradboost":0.9451322,"score_unico_random_forest":0.7919002,"score_unico_logistic_regression":0.8867689,"score_unico_fuzzy_knn":0.7119766,"score_unico_xgboost":0.8370409,"score_regional_gradboost":0.7745064,"score_regional_random_forest":0.6770393,"score_regional_logistic_regression":0.849199,"score_regional_fuzzy_knn":0.6792102,"score_regional_xgboost":0.7116261},"geometry":{"type":"Polygon","coordinates":[[[-67.1880326,-10.3322875],[-67.1798804,-10.3322416],[-67.1799115,-10.3268343],[-67.1880636,-10.3268802],[-67.1880326,-10.3322875]]]}},{"type":"Feature","id":"AC-Y279-X886","properties":{"id":"AC-Y279-X886","grid_x":886,"grid_y":279,"region":"leste","centroid":[-67.1758198,-10.3295149],"aggregation":"none","score_unico_gradboost":0.9506137,"score_unico_random_forest":0.7888439,"score_unico_logistic_regression":0.8895422,"score_unico_fuzzy_knn":0.711269,"score_unico_xgboost":0.8950906,"score_regional_gradboost":0.7634048,"score_regional_random_forest":0.6878516,"score_regional_logistic_regression":0.8525764,"score_regional_fuzzy_knn":0.6791027,"score_regional_xgboost":0.7576171},"geometry":{"type":"Polygon","coordinates":[[[-67.1798804,-10.3322416],[-67.1717281,-10.3321954],[-67.1717594,-10.3267882],[-67.1799115,-10.3268343],[-67.1798804,-10.3322416]]]}},{"type":"Feature","id":"AC-Y279-X887","properties":{"id":"AC-Y279-X887","grid_x":887,"grid_y":279,"region":"leste","centroid":[-67.1676677,-10.3294687],"aggregation":"none","score_unico_gradboost":0.8516851,"score_unico_random_forest":0.6262071,"score_unico_logistic_regression":0.8950343,"score_unico_fuzzy_knn":0.7099482,"score_unico_xgboost":0.5914568,"score_regional_gradboost":0.59765,"score_regional_random_forest":0.5886766,"score_regional_logistic_regression":0.8590117,"score_regional_fuzzy_knn":0.6741927,"score_regional_xgboost":0.3008325},"geometry":{"type":"Polygon","coordinates":[[[-67.1717281,-10.3321954],[-67.163576,-10.3321491],[-67.1636073,-10.3267419],[-67.1717594,-10.3267882],[-67.1717281,-10.3321954]]]}},{"type":"Feature","id":"AC-Y280-X875","properties":{"id":"AC-Y280-X875","grid_x":875,"grid_y":280,"region":"leste","centroid":[-67.2655255,-10.3246021],"aggregation":"none","score_unico_gradboost":0.932336,"score_unico_random_forest":0.7036557,"score_unico_logistic_regression":0.8582335,"score_unico_fuzzy_knn":0.8238292,"score_unico_xgboost":0.699853,"score_regional_gradboost":0.7264872,"score_regional_random_forest":0.6899765,"score_regional_logistic_regression":0.8202349,"score_regional_fuzzy_knn":0.769399,"score_regional_xgboost":0.5646366},"geometry":{"type":"Polygon","coordinates":[[[-67.269587,-10.3273277],[-67.2614345,-10.3272839],[-67.2614642,-10.3218764],[-67.2696165,-10.3219202],[-67.269587,-10.3273277]]]}},{"type":"Feature","id":"AC-Y280-X876","properties":{"id":"AC-Y280-X876","grid_x":876,"grid_y":280,"region":"leste","centroid":[-67.2573731,-10.3245582],"aggregation":"none","score_unico_gradboost":0.8656459,"score_unico_random_forest":0.6508255,"score_unico_logistic_regression":0.8486367,"score_unico_fuzzy_knn":0.829985,"score_unico_xgboost":0.5219329,"score_regional_gradboost":0.669447,"score_regional_random_forest":0.6083149,"score_regional_logistic_regression":0.8091133,"score_regional_fuzzy_knn":0.7455496,"score_regional_xgboost":0.4100847},"geometry":{"type":"Polygon","coordinates":[[[-67.2614345,-10.3272839],[-67.253282,-10.3272399],[-67.2533118,-10.3218324],[-67.2614642,-10.3218764],[-67.2614345,-10.3272839]]]}},{"type":"Feature","id":"AC-Y280-X877","properties":{"id":"AC-Y280-X877","grid_x":877,"grid_y":280,"region":"leste","centroid":[-67.2492207,-10.324514],"aggregation":"none","score_unico_gradboost":0.929803,"score_unico_random_forest":0.7282539,"score_unico_logistic_regression":0.8638081,"score_unico_fuzzy_knn":0.8000779,"score_unico_xgboost":0.7841886,"score_regional_gradboost":0.6801692,"score_regional_random_forest":0.648635,"score_regional_logistic_regression":0.8247449,"score_regional_fuzzy_knn":0.742844,"score_regional_xgboost":0.6292784},"geometry":{"type":"Polygon","coordinates":[[[-67.253282,-10.3272399],[-67.2451296,-10.3271956],[-67.2451595,-10.3217882],[-67.2533118,-10.3218324],[-67.253282,-10.3272399]]]}},{"type":"Feature","id":"AC-Y280-X884","properties":{"id":"AC-Y280-X884","grid_x":884,"grid_y":280,"region":"leste","centroid":[-67.1921551,-10.3241994],"aggregation":"none","score_unico_gradboost":0.9496103,"score_unico_random_forest":0.6271152,"score_unico_logistic_regression":0.8913419,"score_unico_fuzzy_knn":0.7990859,"score_unico_xgboost":0.6030954,"score_regional_gradboost":0.7563524,"score_regional_random_forest":0.6952579,"score_regional_logistic_regression":0.8400815,"score_regional_fuzzy_knn":0.7603191,"score_regional_xgboost":0.6534281},"geometry":{"type":"Polygon","coordinates":[[[-67.1962158,-10.3269259],[-67.1880636,-10.3268802],[-67.1880946,-10.3214729],[-67.1962466,-10.3215186],[-67.1962158,-10.3269259]]]}},{"type":"Feature","id":"AC-Y280-X885","properties":{"id":"AC-Y280-X885","grid_x":885,"grid_y":280,"region":"leste","centroid":[-67.1840031,-10.3241537],"aggregation":"none","score_unico_gradboost":0.9616307,"score_unico_random_forest":0.7957243,"score_unico_logistic_regression":0.90477,"score_unico_fuzzy_knn":0.7020714,"score_unico_xgboost":0.925909,"score_regional_gradboost":0.8041547,"score_regional_random_forest":0.7133056,"score_regional_logistic_regression":0.8620308,"score_regional_fuzzy_knn":0.671668,"score_regional_xgboost":0.7463585},"geometry":{"type":"Polygon","coordinates":[[[-67.1880636,-10.3268802],[-67.1799115,-10.3268343],[-67.1799426,-10.3214271],[-67.1880946,-10.3214729],[-67.1880636,-10.3268802]]]}},{"type":"Feature","id":"AC-Y280-X887","properties":{"id":"AC-Y280-X887","grid_x":887,"grid_y":280,"region":"leste","centroid":[-67.167699,-10.3240615],"aggregation":"none","score_unico_gradboost":0.9013652,"score_unico_random_forest":0.7099432,"score_unico_logistic_regression":0.8983219,"score_unico_fuzzy_knn":0.7056154,"score_unico_xgboost":0.6676095,"score_regional_gradboost":0.7618591,"score_regional_random_forest":0.6607387,"score_regional_logistic_regression":0.861209,"score_regional_fuzzy_knn":0.6755728,"score_regional_xgboost":0.6714007},"geometry":{"type":"Polygon","coordinates":[[[-67.1717594,-10.3267882],[-67.1636073,-10.3267419],[-67.1636387,-10.3213348],[-67.1717906,-10.321381],[-67.1717594,-10.3267882]]]}},{"type":"Feature","id":"AC-Y281-X875","properties":{"id":"AC-Y281-X875","grid_x":875,"grid_y":281,"region":"leste","centroid":[-67.2655551,-10.3191946],"aggregation":"none","score_unico_gradboost":0.9371831,"score_unico_random_forest":0.8026351,"score_unico_logistic_regression":0.8896925,"score_unico_fuzzy_knn":0.7204796,"score_unico_xgboost":0.8545426,"score_regional_gradboost":0.8309906,"score_regional_random_forest":0.7313306,"score_regional_logistic_regression":0.841428,"score_regional_fuzzy_knn":0.6918949,"score_regional_xgboost":0.9042408},"geometry":{"type":"Polygon","coordinates":[[[-67.2696165,-10.3219202],[-67.2614642,-10.3218764],[-67.2614938,-10.3164689],[-67.2696461,-10.3165127],[-67.2696165,-10.3219202]]]}},{"type":"Feature","id":"AC-Y281-X876","properties":{"id":"AC-Y281-X876","grid_x":876,"grid_y":281,"region":"leste","centroid":[-67.2574029,-10.3191507],"aggregation":"none","score_unico_gradboost":0.9339512,"score_unico_random_forest":0.8305813,"score_unico_logistic_regression":0.8979001,"score_unico_fuzzy_knn":0.7071681,"score_unico_xgboost":0.9166897,"score_regional_gradboost":0.8432198,"score_regional_random_forest":0.7425377,"score_regional_logistic_regression":0.8535156,"score_regional_fuzzy_knn":0.6789117,"score_regional_xgboost":0.8817151},"geometry":{"type":"Polygon","coordinates":[[[-67.2614642,-10.3218764],[-67.2533118,-10.3218324],[-67.2533417,-10.3164249],[-67.2614938,-10.3164689],[-67.2614642,-10.3218764]]]}},{"type":"Feature","id":"AC-Y281-X877","properties":{"id":"AC-Y281-X877","grid_x":877,"grid_y":281,"region":"leste","centroid":[-67.2492506,-10.3191066],"aggregation":"none","score_unico_gradboost":0.9078606,"score_unico_random_forest":0.7155521,"score_unico_logistic_regression":0.8575185,"score_unico_fuzzy_knn":0.757484,"score_unico_xgboost":0.7041568,"score_regional_gradboost":0.7016159,"score_regional_random_forest":0.5342778,"score_regional_logistic_regression":0.8135046,"score_regional_fuzzy_knn":0.6913342,"score_regional_xgboost":0.5876873},"geometry":{"type":"Polygon","coordinates":[[[-67.2533118,-10.3218324],[-67.2451595,-10.3217882],[-67.2451895,-10.3163808],[-67.2533417,-10.3164249],[-67.2533118,-10.3218324]]]}},{"type":"Feature","id":"AC-Y281-X881","properties":{"id":"AC-Y281-X881","grid_x":881,"grid_y":281,"region":"leste","centroid":[-67.2166421,-10.3189282],"aggregation":"none","score_unico_gradboost":0.9149295,"score_unico_random_forest":0.7032533,"score_unico_logistic_regression":0.8613759,"score_unico_fuzzy_knn":0.816964,"score_unico_xgboost":0.6964155,"score_regional_gradboost":0.7039581,"score_regional_random_forest":0.6948837,"score_regional_logistic_regression":0.8207056,"score_regional_fuzzy_knn":0.7407743,"score_regional_xgboost":0.6964479},"geometry":{"type":"Polygon","coordinates":[[[-67.2207029,-10.3216543],[-67.2125508,-10.3216093],[-67.2125813,-10.3162019],[-67.2207333,-10.316247],[-67.2207029,-10.3216543]]]}},{"type":"Feature","id":"AC-Y281-X882","properties":{"id":"AC-Y281-X882","grid_x":882,"grid_y":281,"region":"leste","centroid":[-67.20849,-10.318883],"aggregation":"none","score_unico_gradboost":0.8918289,"score_unico_random_forest":0.6192334,"score_unico_logistic_regression":0.8835995,"score_unico_fuzzy_knn":0.7142235,"score_unico_xgboost":0.5135999,"score_regional_gradboost":0.6867517,"score_regional_random_forest":0.6448385,"score_regional_logistic_regression":0.8408108,"score_regional_fuzzy_knn":0.6808721,"score_regional_xgboost":0.6585564},"geometry":{"type":"Polygon","coordinates":[[[-67.2125508,-10.3216093],[-67.2043987,-10.321564],[-67.2044293,-10.3161567],[-67.2125813,-10.3162019],[-67.2125508,-10.3216093]]]}},{"type":"Feature","id":"AC-Y281-X883","properties":{"id":"AC-Y281-X883","grid_x":883,"grid_y":281,"region":"leste","centroid":[-67.200338,-10.3188377],"aggregation":"none","score_unico_gradboost":0.9121532,"score_unico_random_forest":0.6718,"score_unico_logistic_regression":0.9019105,"score_unico_fuzzy_knn":0.7244035,"score_unico_xgboost":0.5961988,"score_regional_gradboost":0.7140656,"score_regional_random_forest":0.6484388,"score_regional_logistic_regression":0.8505561,"score_regional_fuzzy_knn":0.6843433,"score_regional_xgboost":0.6008551},"geometry":{"type":"Polygon","coordinates":[[[-67.2043987,-10.321564],[-67.1962466,-10.3215186],[-67.1962774,-10.3161113],[-67.2044293,-10.3161567],[-67.2043987,-10.321564]]]}},{"type":"Feature","id":"AC-Y281-X884","properties":{"id":"AC-Y281-X884","grid_x":884,"grid_y":281,"region":"leste","centroid":[-67.192186,-10.3187922],"aggregation":"none","score_unico_gradboost":0.9349187,"score_unico_random_forest":0.7905066,"score_unico_logistic_regression":0.9339755,"score_unico_fuzzy_knn":0.7990823,"score_unico_xgboost":0.9219162,"score_regional_gradboost":0.8346565,"score_regional_random_forest":0.7143104,"score_regional_logistic_regression":0.8434505,"score_regional_fuzzy_knn":0.7683481,"score_regional_xgboost":0.6629302},"geometry":{"type":"Polygon","coordinates":[[[-67.1962466,-10.3215186],[-67.1880946,-10.3214729],[-67.1881255,-10.3160657],[-67.1962774,-10.3161113],[-67.1962466,-10.3215186]]]}},{"type":"Feature","id":"AC-Y282-X875","properties":{"id":"AC-Y282-X875","grid_x":875,"grid_y":282,"region":"leste","centroid":[-67.2655848,-10.3137871],"aggregation":"none","score_unico_gradboost":0.8532303,"score_unico_random_forest":0.7699215,"score_unico_logistic_regression":0.9106631,"score_unico_fuzzy_knn":0.7289959,"score_unico_xgboost":0.8515294,"score_regional_gradboost":0.7290905,"score_regional_random_forest":0.6371562,"score_regional_logistic_regression":0.8445431,"score_regional_fuzzy_knn":0.69501,"score_regional_xgboost":0.7171542},"geometry":{"type":"Polygon","coordinates":[[[-67.2696461,-10.3165127],[-67.2614938,-10.3164689],[-67.2615235,-10.3110614],[-67.2696756,-10.3111052],[-67.2696461,-10.3165127]]]}},{"type":"Feature","id":"AC-Y282-X876","properties":{"id":"AC-Y282-X876","grid_x":876,"grid_y":282,"region":"leste","centroid":[-67.2574326,-10.3137432],"aggregation":"none","score_unico_gradboost":0.8830387,"score_unico_random_forest":0.8313308,"score_unico_logistic_regression":0.9142444,"score_unico_fuzzy_knn":0.6947865,"score_unico_xgboost":0.9271297,"score_regional_gradboost":0.8360139,"score_regional_random_forest":0.69907,"score_regional_logistic_regression":0.8576101,"score_regional_fuzzy_knn":0.681679,"score_regional_xgboost":0.7370856},"geometry":{"type":"Polygon","coordinates":[[[-67.2614938,-10.3164689],[-67.2533417,-10.3164249],[-67.2533715,-10.3110175],[-67.2615235,-10.3110614],[-67.2614938,-10.3164689]]]}},{"type":"Feature","id":"AC-Y282-X877","properties":{"id":"AC-Y282-X877","grid_x":877,"grid_y":282,"region":"leste","centroid":[-67.2492805,-10.3136992],"aggregation":"none","score_unico_gradboost":0.9567033,"score_unico_random_forest":0.8151439,"score_unico_logistic_regression":0.8860215,"score_unico_fuzzy_knn":0.7279569,"score_unico_xgboost":0.9228522,"score_regional_gradboost":0.8195613,"score_regional_random_forest":0.726003,"score_regional_logistic_regression":0.8477765,"score_regional_fuzzy_knn":0.6823897,"score_regional_xgboost":0.8514974},"geometry":{"type":"Polygon","coordinates":[[[-67.2533417,-10.3164249],[-67.2451895,-10.3163808],[-67.2452195,-10.3109733],[-67.2533715,-10.3110175],[-67.2533417,-10.3164249]]]}},{"type":"Feature","id":"AC-Y282-X878","properties":{"id":"AC-Y282-X878","grid_x":878,"grid_y":282,"region":"leste","centroid":[-67.2411285,-10.3136549],"aggregation":"none","score_unico_gradboost":0.9580244,"score_unico_random_forest":0.7624761,"score_unico_logistic_regression":0.8692601,"score_unico_fuzzy_knn":0.7411602,"score_unico_xgboost":0.7410621,"score_regional_gradboost":0.7482406,"score_regional_random_forest":0.6427532,"score_regional_logistic_regression":0.8259978,"score_regional_fuzzy_knn":0.6803072,"score_regional_xgboost":0.7206798},"geometry":{"type":"Polygon","coordinates":[[[-67.2451895,-10.3163808],[-67.2370374,-10.3163364],[-67.2370675,-10.310929],[-67.2452195,-10.3109733],[-67.2451895,-10.3163808]]]}},{"type":"Feature","id":"AC-Y282-X879","properties":{"id":"AC-Y282-X879","grid_x":879,"grid_y":282,"region":"leste","centroid":[-67.2329764,-10.3136104],"aggregation":"none","score_unico_gradboost":0.8207537,"score_unico_random_forest":0.6453554,"score_unico_logistic_regression":0.8260742,"score_unico_fuzzy_knn":0.7886088,"score_unico_xgboost":0.6453243,"score_regional_gradboost":0.5784657,"score_regional_random_forest":0.5295419,"score_regional_logistic_regression":0.7767192,"score_regional_fuzzy_knn":0.6579984,"score_regional_xgboost":0.4817678},"geometry":{"type":"Polygon","coordinates":[[[-67.2370374,-10.3163364],[-67.2288853,-10.3162918],[-67.2289156,-10.3108844],[-67.2370675,-10.310929],[-67.2370374,-10.3163364]]]}},{"type":"Feature","id":"AC-Y282-X880","properties":{"id":"AC-Y282-X880","grid_x":880,"grid_y":282,"region":"leste","centroid":[-67.2248245,-10.3135657],"aggregation":"none","score_unico_gradboost":0.8706182,"score_unico_random_forest":0.6430234,"score_unico_logistic_regression":0.889619,"score_unico_fuzzy_knn":0.7377216,"score_unico_xgboost":0.5442502,"score_regional_gradboost":0.6673196,"score_regional_random_forest":0.5718697,"score_regional_logistic_regression":0.831468,"score_regional_fuzzy_knn":0.6812445,"score_regional_xgboost":0.5992237},"geometry":{"type":"Polygon","coordinates":[[[-67.2288853,-10.3162918],[-67.2207333,-10.316247],[-67.2207637,-10.3108396],[-67.2289156,-10.3108844],[-67.2288853,-10.3162918]]]}},{"type":"Feature","id":"AC-Y282-X881","properties":{"id":"AC-Y282-X881","grid_x":881,"grid_y":282,"region":"leste","centroid":[-67.2166725,-10.3135208],"aggregation":"none","score_unico_gradboost":0.9539981,"score_unico_random_forest":0.7896144,"score_unico_logistic_regression":0.8847826,"score_unico_fuzzy_knn":0.7278514,"score_unico_xgboost":0.8034456,"score_regional_gradboost":0.8270947,"score_regional_random_forest":0.7239962,"score_regional_logistic_regression":0.8379397,"score_regional_fuzzy_knn":0.6813777,"score_regional_xgboost":0.859485},"geometry":{"type":"Polygon","coordinates":[[[-67.2207333,-10.316247],[-67.2125813,-10.3162019],[-67.2126118,-10.3107946],[-67.2207637,-10.3108396],[-67.2207333,-10.316247]]]}},{"type":"Feature","id":"AC-Y282-X882","properties":{"id":"AC-Y282-X882","grid_x":882,"grid_y":282,"region":"leste","centroid":[-67.2085206,-10.3134757],"aggregation":"none","score_unico_gradboost":0.9411215,"score_unico_random_forest":0.8027444,"score_unico_logistic_regression":0.8768597,"score_unico_fuzzy_knn":0.7437861,"score_unico_xgboost":0.7658899,"score_regional_gradboost":0.832205,"score_regional_random_forest":0.719546,"score_regional_logistic_regression":0.8275983,"score_regional_fuzzy_knn":0.6937791,"score_regional_xgboost":0.8936316},"geometry":{"type":"Polygon","coordinates":[[[-67.2125813,-10.3162019],[-67.2044293,-10.3161567],[-67.20446,-10.3107494],[-67.2126118,-10.3107946],[-67.2125813,-10.3162019]]]}},{"type":"Feature","id":"AC-Y282-X883","properties":{"id":"AC-Y282-X883","grid_x":883,"grid_y":282,"region":"leste","centroid":[-67.2003687,-10.3134304],"aggregation":"none","score_unico_gradboost":0.9388418,"score_unico_random_forest":0.8123091,"score_unico_logistic_regression":0.9166114,"score_unico_fuzzy_knn":0.7105609,"score_unico_xgboost":0.8875462,"score_regional_gradboost":0.7934998,"score_regional_random_forest":0.6514395,"score_regional_logistic_regression":0.8593049,"score_regional_fuzzy_knn":0.6719872,"score_regional_xgboost":0.6134257},"geometry":{"type":"Polygon","coordinates":[[[-67.2044293,-10.3161567],[-67.1962774,-10.3161113],[-67.1963082,-10.310704],[-67.20446,-10.3107494],[-67.2044293,-10.3161567]]]}},{"type":"Feature","id":"AC-Y283-X875","properties":{"id":"AC-Y283-X875","grid_x":875,"grid_y":283,"region":"leste","centroid":[-67.2656144,-10.3083796],"aggregation":"none","score_unico_gradboost":0.8381214,"score_unico_random_forest":0.7610874,"score_unico_logistic_regression":0.8768464,"score_unico_fuzzy_knn":0.7444245,"score_unico_xgboost":0.8758241,"score_regional_gradboost":0.7642728,"score_regional_random_forest":0.6274691,"score_regional_logistic_regression":0.8238366,"score_regional_fuzzy_knn":0.680985,"score_regional_xgboost":0.815082},"geometry":{"type":"Polygon","coordinates":[[[-67.2696756,-10.3111052],[-67.2615235,-10.3110614],[-67.2615532,-10.305654],[-67.2697051,-10.3056977],[-67.2696756,-10.3111052]]]}},{"type":"Feature","id":"AC-Y283-X876","properties":{"id":"AC-Y283-X876","grid_x":876,"grid_y":283,"region":"leste","centroid":[-67.2574624,-10.3083358],"aggregation":"none","score_unico_gradboost":0.7319196,"score_unico_random_forest":0.7356772,"score_unico_logistic_regression":0.8882249,"score_unico_fuzzy_knn":0.7460725,"score_unico_xgboost":0.7983262,"score_regional_gradboost":0.6222635,"score_regional_random_forest":0.5668632,"score_regional_logistic_regression":0.8216246,"score_regional_fuzzy_knn":0.7058918,"score_regional_xgboost":0.6693914},"geometry":{"type":"Polygon","coordinates":[[[-67.2615235,-10.3110614],[-67.2533715,-10.3110175],[-67.2534013,-10.30561],[-67.2615532,-10.305654],[-67.2615235,-10.3110614]]]}},{"type":"Feature","id":"AC-Y283-X877","properties":{"id":"AC-Y283-X877","grid_x":877,"grid_y":283,"region":"leste","centroid":[-67.2493104,-10.3082917],"aggregation":"none","score_unico_gradboost":0.9671349,"score_unico_random_forest":0.8114333,"score_unico_logistic_regression":0.8645398,"score_unico_fuzzy_knn":0.8335244,"score_unico_xgboost":0.8812221,"score_regional_gradboost":0.8402038,"score_regional_random_forest":0.7790516,"score_regional_logistic_regression":0.8206291,"score_regional_fuzzy_knn":0.7414338,"score_regional_xgboost":0.8694325},"geometry":{"type":"Polygon","coordinates":[[[-67.2533715,-10.3110175],[-67.2452195,-10.3109733],[-67.2452494,-10.3055659],[-67.2534013,-10.30561],[-67.2533715,-10.3110175]]]}},{"type":"Feature","id":"AC-Y283-X878","properties":{"id":"AC-Y283-X878","grid_x":878,"grid_y":283,"region":"leste","centroid":[-67.2411585,-10.3082474],"aggregation":"none","score_unico_gradboost":0.9414335,"score_unico_random_forest":0.8033874,"score_unico_logistic_regression":0.8758207,"score_unico_fuzzy_knn":0.7537041,"score_unico_xgboost":0.8275289,"score_regional_gradboost":0.8153071,"score_regional_random_forest":0.7211618,"score_regional_logistic_regression":0.8240854,"score_regional_fuzzy_knn":0.6985758,"score_regional_xgboost":0.8947387},"geometry":{"type":"Polygon","coordinates":[[[-67.2452195,-10.3109733],[-67.2370675,-10.310929],[-67.2370976,-10.3055215],[-67.2452494,-10.3055659],[-67.2452195,-10.3109733]]]}},{"type":"Feature","id":"AC-Y283-X879","properties":{"id":"AC-Y283-X879","grid_x":879,"grid_y":283,"region":"leste","centroid":[-67.2330066,-10.308203],"aggregation":"none","score_unico_gradboost":0.9615285,"score_unico_random_forest":0.8117702,"score_unico_logistic_regression":0.8856858,"score_unico_fuzzy_knn":0.7315169,"score_unico_xgboost":0.8603103,"score_regional_gradboost":0.8250118,"score_regional_random_forest":0.7150172,"score_regional_logistic_regression":0.8351544,"score_regional_fuzzy_knn":0.679119,"score_regional_xgboost":0.8962374},"geometry":{"type":"Polygon","coordinates":[[[-67.2370675,-10.310929],[-67.2289156,-10.3108844],[-67.2289458,-10.305477],[-67.2370976,-10.3055215],[-67.2370675,-10.310929]]]}},{"type":"Feature","id":"AC-Y283-X880","properties":{"id":"AC-Y283-X880","grid_x":880,"grid_y":283,"region":"leste","centroid":[-67.2248547,-10.3081583],"aggregation":"none","score_unico_gradboost":0.9212879,"score_unico_random_forest":0.8041831,"score_unico_logistic_regression":0.9156467,"score_unico_fuzzy_knn":0.7178697,"score_unico_xgboost":0.8881144,"score_regional_gradboost":0.7479548,"score_regional_random_forest":0.6798884,"score_regional_logistic_regression":0.8465682,"score_regional_fuzzy_knn":0.6784566,"score_regional_xgboost":0.6438053},"geometry":{"type":"Polygon","coordinates":[[[-67.2289156,-10.3108844],[-67.2207637,-10.3108396],[-67.220794,-10.3054322],[-67.2289458,-10.305477],[-67.2289156,-10.3108844]]]}},{"type":"Feature","id":"AC-Y283-X881","properties":{"id":"AC-Y283-X881","grid_x":881,"grid_y":283,"region":"leste","centroid":[-67.2167029,-10.3081135],"aggregation":"none","score_unico_gradboost":0.9299682,"score_unico_random_forest":0.8116203,"score_unico_logistic_regression":0.894959,"score_unico_fuzzy_knn":0.8079698,"score_unico_xgboost":0.9227784,"score_regional_gradboost":0.8334418,"score_regional_random_forest":0.74504,"score_regional_logistic_regression":0.8356139,"score_regional_fuzzy_knn":0.7492572,"score_regional_xgboost":0.6919057},"geometry":{"type":"Polygon","coordinates":[[[-67.2207637,-10.3108396],[-67.2126118,-10.3107946],[-67.2126423,-10.3053873],[-67.220794,-10.3054322],[-67.2207637,-10.3108396]]]}},{"type":"Feature","id":"AC-Y283-X882","properties":{"id":"AC-Y283-X882","grid_x":882,"grid_y":283,"region":"leste","centroid":[-67.2085512,-10.3080684],"aggregation":"none","score_unico_gradboost":0.9144638,"score_unico_random_forest":0.8286423,"score_unico_logistic_regression":0.9155018,"score_unico_fuzzy_knn":0.7386915,"score_unico_xgboost":0.9295737,"score_regional_gradboost":0.7720621,"score_regional_random_forest":0.6977319,"score_regional_logistic_regression":0.8535154,"score_regional_fuzzy_knn":0.6837159,"score_regional_xgboost":0.6759545},"geometry":{"type":"Polygon","coordinates":[[[-67.2126118,-10.3107946],[-67.20446,-10.3107494],[-67.2044906,-10.3053421],[-67.2126423,-10.3053873],[-67.2126118,-10.3107946]]]}},{"type":"Feature","id":"AC-Y283-X883","properties":{"id":"AC-Y283-X883","grid_x":883,"grid_y":283,"region":"leste","centroid":[-67.2003994,-10.3080231],"aggregation":"none","score_unico_gradboost":0.9270159,"score_unico_random_forest":0.8552916,"score_unico_logistic_regression":0.9371435,"score_unico_fuzzy_knn":0.7231027,"score_unico_xgboost":0.9450966,"score_regional_gradboost":0.795765,"score_regional_random_forest":0.6866534,"score_regional_logistic_regression":0.8597134,"score_regional_fuzzy_knn":0.6743212,"score_regional_xgboost":0.6490844},"geometry":{"type":"Polygon","coordinates":[[[-67.20446,-10.3107494],[-67.1963082,-10.310704],[-67.196339,-10.3052967],[-67.2044906,-10.3053421],[-67.20446,-10.3107494]]]}},{"type":"Feature","id":"AC-Y280-X889","properties":{"id":"AC-Y280-X889","grid_x":889,"grid_y":280,"region":"leste","centroid":[-67.1513951,-10.3239685],"aggregation":"none","score_unico_gradboost":0.8139439,"score_unico_random_forest":0.5342381,"score_unico_logistic_regression":0.8762595,"score_unico_fuzzy_knn":0.7206964,"score_unico_xgboost":0.3793858,"score_regional_gradboost":0.4689106,"score_regional_random_forest":0.4824625,"score_regional_logistic_regression":0.8422261,"score_regional_fuzzy_knn":0.6822794,"score_regional_xgboost":0.196383},"geometry":{"type":"Polygon","coordinates":[[[-67.1554553,-10.3266954],[-67.1473034,-10.3266487],[-67.147335,-10.3212416],[-67.1554869,-10.3212883],[-67.1554553,-10.3266954]]]}},{"type":"Feature","id":"AC-Y280-X890","properties":{"id":"AC-Y280-X890","grid_x":890,"grid_y":280,"region":"leste","centroid":[-67.1432433,-10.3239217],"aggregation":"none","score_unico_gradboost":0.89839,"score_unico_random_forest":0.6588708,"score_unico_logistic_regression":0.7105987,"score_unico_fuzzy_knn":0.6881293,"score_unico_xgboost":0.703121,"score_regional_gradboost":0.6077284,"score_regional_random_forest":0.4777779,"score_regional_logistic_regression":0.693952,"score_regional_fuzzy_knn":0.5844976,"score_regional_xgboost":0.4827479},"geometry":{"type":"Polygon","coordinates":[[[-67.1473034,-10.3266487],[-67.1391514,-10.3266018],[-67.1391832,-10.3211947],[-67.147335,-10.3212416],[-67.1473034,-10.3266487]]]}},{"type":"Feature","id":"AC-Y281-X890","properties":{"id":"AC-Y281-X890","grid_x":890,"grid_y":281,"region":"leste","centroid":[-67.143275,-10.3185146],"aggregation":"none","score_unico_gradboost":0.8879699,"score_unico_random_forest":0.6523555,"score_unico_logistic_regression":0.8674841,"score_unico_fuzzy_knn":0.7933894,"score_unico_xgboost":0.5615014,"score_regional_gradboost":0.5026512,"score_regional_random_forest":0.5202855,"score_regional_logistic_regression":0.841434,"score_regional_fuzzy_knn":0.7799957,"score_regional_xgboost":0.1499202},"geometry":{"type":"Polygon","coordinates":[[[-67.147335,-10.3212416],[-67.1391832,-10.3211947],[-67.139215,-10.3157876],[-67.1473667,-10.3158345],[-67.147335,-10.3212416]]]}},{"type":"Feature","id":"AC-Y282-X890","properties":{"id":"AC-Y282-X890","grid_x":890,"grid_y":282,"region":"leste","centroid":[-67.1433067,-10.3131075],"aggregation":"none","score_unico_gradboost":0.9453672,"score_unico_random_forest":0.7202334,"score_unico_logistic_regression":0.8590362,"score_unico_fuzzy_knn":0.7885291,"score_unico_xgboost":0.8046059,"score_regional_gradboost":0.6356143,"score_regional_random_forest":0.5754931,"score_regional_logistic_regression":0.8313912,"score_regional_fuzzy_knn":0.7736176,"score_regional_xgboost":0.2197207},"geometry":{"type":"Polygon","coordinates":[[[-67.1473667,-10.3158345],[-67.139215,-10.3157876],[-67.1392468,-10.3103805],[-67.1473983,-10.3104273],[-67.1473667,-10.3158345]]]}},{"type":"Feature","id":"AC-Y282-X891","properties":{"id":"AC-Y282-X891","grid_x":891,"grid_y":282,"region":"leste","centroid":[-67.1351551,-10.3130605],"aggregation":"none","score_unico_gradboost":0.9091245,"score_unico_random_forest":0.6745663,"score_unico_logistic_regression":0.8627376,"score_unico_fuzzy_knn":0.7886058,"score_unico_xgboost":0.6869264,"score_regional_gradboost":0.5718281,"score_regional_random_forest":0.5774016,"score_regional_logistic_regression":0.8322573,"score_regional_fuzzy_knn":0.7739886,"score_regional_xgboost":0.2453931},"geometry":{"type":"Polygon","coordinates":[[[-67.139215,-10.3157876],[-67.1310634,-10.3157405],[-67.1310953,-10.3103334],[-67.1392468,-10.3103805],[-67.139215,-10.3157876]]]}},{"type":"Feature","id":"AC-Y283-X890","properties":{"id":"AC-Y283-X890","grid_x":890,"grid_y":283,"region":"leste","centroid":[-67.1433383,-10.3077004],"aggregation":"none","score_unico_gradboost":0.8420959,"score_unico_random_forest":0.6515698,"score_unico_logistic_regression":0.8708266,"score_unico_fuzzy_knn":0.7311779,"score_unico_xgboost":0.5861733,"score_regional_gradboost":0.6773588,"score_regional_random_forest":0.6005286,"score_regional_logistic_regression":0.8305245,"score_regional_fuzzy_knn":0.6802493,"score_regional_xgboost":0.6822696},"geometry":{"type":"Polygon","coordinates":[[[-67.1473983,-10.3104273],[-67.1392468,-10.3103805],[-67.1392785,-10.3049734],[-67.1474299,-10.3050202],[-67.1473983,-10.3104273]]]}}]}