{"type":"FeatureCollection","features":[{"type":"Feature","id":"AC-Y583-X134","properties":{"id":"AC-Y583-X134","grid_x":134,"grid_y":583,"centroid":[-73.2844908,-8.6658862],"aggregation":"none","score_gradboost":0.022464,"score_random_forest":0.0353656,"score_logistic_regression":0.0336731,"score_fuzzy_knn_k29":0.0208075},"geometry":{"type":"Polygon","coordinates":[[[-73.2885685,-8.6685384],[-73.2804742,-8.6686293],[-73.2804131,-8.663234],[-73.2885072,-8.6631431],[-73.2885685,-8.6685384]]]}},{"type":"Feature","id":"AC-Y583-X135","properties":{"id":"AC-Y583-X135","grid_x":135,"grid_y":583,"centroid":[-73.2763965,-8.6659771],"aggregation":"none","score_gradboost":0.0189708,"score_random_forest":0.0167389,"score_logistic_regression":0.029524,"score_fuzzy_knn_k29":0.0},"geometry":{"type":"Polygon","coordinates":[[[-73.2804742,-8.6686293],[-73.2723799,-8.6687201],[-73.2723188,-8.6633248],[-73.2804131,-8.663234],[-73.2804742,-8.6686293]]]}},{"type":"Feature","id":"AC-Y583-X136","properties":{"id":"AC-Y583-X136","grid_x":136,"grid_y":583,"centroid":[-73.2683022,-8.6660677],"aggregation":"none","score_gradboost":0.0308045,"score_random_forest":0.0443615,"score_logistic_regression":0.0376542,"score_fuzzy_knn_k29":0.0217463},"geometry":{"type":"Polygon","coordinates":[[[-73.2723799,-8.6687201],[-73.2642854,-8.6688107],[-73.2642245,-8.6634153],[-73.2723188,-8.6633248],[-73.2723799,-8.6687201]]]}},{"type":"Feature","id":"AC-Y584-X134","properties":{"id":"AC-Y584-X134","grid_x":134,"grid_y":584,"centroid":[-73.2844296,-8.660491],"aggregation":"none","score_gradboost":0.0227456,"score_random_forest":0.0228373,"score_logistic_regression":0.027158,"score_fuzzy_knn_k29":0.0},"geometry":{"type":"Polygon","coordinates":[[[-73.2885072,-8.6631431],[-73.2804131,-8.663234],[-73.280352,-8.6578387],[-73.288446,-8.6577479],[-73.2885072,-8.6631431]]]}},{"type":"Feature","id":"AC-Y584-X135","properties":{"id":"AC-Y584-X135","grid_x":135,"grid_y":584,"centroid":[-73.2763354,-8.6605817],"aggregation":"none","score_gradboost":0.023033,"score_random_forest":0.0199231,"score_logistic_regression":0.03789,"score_fuzzy_knn_k29":0.0700256},"geometry":{"type":"Polygon","coordinates":[[[-73.2804131,-8.663234],[-73.2723188,-8.6633248],[-73.2722578,-8.6579294],[-73.280352,-8.6578387],[-73.2804131,-8.663234]]]}},{"type":"Feature","id":"AC-Y584-X136","properties":{"id":"AC-Y584-X136","grid_x":136,"grid_y":584,"centroid":[-73.2682412,-8.6606724],"aggregation":"none","score_gradboost":0.0218219,"score_random_forest":0.0269866,"score_logistic_regression":0.0314353,"score_fuzzy_knn_k29":0.0},"geometry":{"type":"Polygon","coordinates":[[[-73.2723188,-8.6633248],[-73.2642245,-8.6634153],[-73.2641636,-8.6580199],[-73.2722578,-8.6579294],[-73.2723188,-8.6633248]]]}},{"type":"Feature","id":"AC-Y584-X137","properties":{"id":"AC-Y584-X137","grid_x":137,"grid_y":584,"centroid":[-73.2601469,-8.6607628],"aggregation":"none","score_gradboost":0.0316995,"score_random_forest":0.0337612,"score_logistic_regression":0.0413991,"score_fuzzy_knn_k29":0.0227018},"geometry":{"type":"Polygon","coordinates":[[[-73.2642245,-8.6634153],[-73.2561301,-8.6635057],[-73.2560693,-8.6581102],[-73.2641636,-8.6580199],[-73.2642245,-8.6634153]]]}},{"type":"Feature","id":"AC-Y585-X133","properties":{"id":"AC-Y585-X133","grid_x":133,"grid_y":585,"centroid":[-73.2924624,-8.6550048],"aggregation":"none","score_gradboost":0.0153718,"score_random_forest":0.0225285,"score_logistic_regression":0.0276488,"score_fuzzy_knn_k29":0.0},"geometry":{"type":"Polygon","coordinates":[[[-73.29654,-8.6576569],[-73.288446,-8.6577479],[-73.2883848,-8.6523526],[-73.2964787,-8.6522617],[-73.29654,-8.6576569]]]}},{"type":"Feature","id":"AC-Y585-X134","properties":{"id":"AC-Y585-X134","grid_x":134,"grid_y":585,"centroid":[-73.2843684,-8.6550957],"aggregation":"none","score_gradboost":0.023033,"score_random_forest":0.0219217,"score_logistic_regression":0.033977,"score_fuzzy_knn_k29":0.0464442},"geometry":{"type":"Polygon","coordinates":[[[-73.288446,-8.6577479],[-73.280352,-8.6578387],[-73.2802909,-8.6524434],[-73.2883848,-8.6523526],[-73.288446,-8.6577479]]]}},{"type":"Feature","id":"AC-Y585-X135","properties":{"id":"AC-Y585-X135","grid_x":135,"grid_y":585,"centroid":[-73.2762744,-8.6551864],"aggregation":"none","score_gradboost":0.0217359,"score_random_forest":0.0204884,"score_logistic_regression":0.0368331,"score_fuzzy_knn_k29":0.0246893},"geometry":{"type":"Polygon","coordinates":[[[-73.280352,-8.6578387],[-73.2722578,-8.6579294],[-73.2721969,-8.652534],[-73.2802909,-8.6524434],[-73.280352,-8.6578387]]]}},{"type":"Feature","id":"AC-Y585-X136","properties":{"id":"AC-Y585-X136","grid_x":136,"grid_y":585,"centroid":[-73.2681803,-8.655277],"aggregation":"none","score_gradboost":0.023033,"score_random_forest":0.0227622,"score_logistic_regression":0.0369872,"score_fuzzy_knn_k29":0.0687334},"geometry":{"type":"Polygon","coordinates":[[[-73.2722578,-8.6579294],[-73.2641636,-8.6580199],[-73.2641028,-8.6526245],[-73.2721969,-8.652534],[-73.2722578,-8.6579294]]]}},{"type":"Feature","id":"AC-Y585-X137","properties":{"id":"AC-Y585-X137","grid_x":137,"grid_y":585,"centroid":[-73.2600861,-8.6553673],"aggregation":"none","score_gradboost":0.022464,"score_random_forest":0.0269816,"score_logistic_regression":0.0388602,"score_fuzzy_knn_k29":0.0236698},"geometry":{"type":"Polygon","coordinates":[[[-73.2641636,-8.6580199],[-73.2560693,-8.6581102],[-73.2560086,-8.6527147],[-73.2641028,-8.6526245],[-73.2641636,-8.6580199]]]}},{"type":"Feature","id":"AC-Y585-X138","properties":{"id":"AC-Y585-X138","grid_x":138,"grid_y":585,"centroid":[-73.2519918,-8.6554576],"aggregation":"none","score_gradboost":0.0186224,"score_random_forest":0.043121,"score_logistic_regression":0.0352178,"score_fuzzy_knn_k29":0.0},"geometry":{"type":"Polygon","coordinates":[[[-73.2560693,-8.6581102],[-73.2479749,-8.6582004],[-73.2479143,-8.6528048],[-73.2560086,-8.6527147],[-73.2560693,-8.6581102]]]}},{"type":"Feature","id":"AC-Y585-X139","properties":{"id":"AC-Y585-X139","grid_x":139,"grid_y":585,"centroid":[-73.2438974,-8.6555476],"aggregation":"none","score_gradboost":0.0186224,"score_random_forest":0.0413854,"score_logistic_regression":0.036114,"score_fuzzy_knn_k29":0.0},"geometry":{"type":"Polygon","coordinates":[[[-73.2479749,-8.6582004],[-73.2398804,-8.6582904],[-73.2398199,-8.6528948],[-73.2479143,-8.6528048],[-73.2479749,-8.6582004]]]}},{"type":"Feature","id":"AC-Y586-X133","properties":{"id":"AC-Y586-X133","grid_x":133,"grid_y":586,"centroid":[-73.2924012,-8.6496096],"aggregation":"none","score_gradboost":0.0208468,"score_random_forest":0.0266933,"score_logistic_regression":0.0239463,"score_fuzzy_knn_k29":0.0},"geometry":{"type":"Polygon","coordinates":[[[-73.2964787,-8.6522617],[-73.2883848,-8.6523526],[-73.2883237,-8.6469574],[-73.2964174,-8.6468665],[-73.2964787,-8.6522617]]]}},{"type":"Feature","id":"AC-Y586-X134","properties":{"id":"AC-Y586-X134","grid_x":134,"grid_y":586,"centroid":[-73.2843073,-8.6497004],"aggregation":"none","score_gradboost":0.0363862,"score_random_forest":0.0346554,"score_logistic_regression":0.0320441,"score_fuzzy_knn_k29":0.0225286},"geometry":{"type":"Polygon","coordinates":[[[-73.2883848,-8.6523526],[-73.2802909,-8.6524434],[-73.2802299,-8.6470481],[-73.2883237,-8.6469574],[-73.2883848,-8.6523526]]]}},{"type":"Feature","id":"AC-Y586-X135","properties":{"id":"AC-Y586-X135","grid_x":135,"grid_y":586,"centroid":[-73.2762134,-8.6497911],"aggregation":"none","score_gradboost":0.0193969,"score_random_forest":0.035231,"score_logistic_regression":0.0323943,"score_fuzzy_knn_k29":0.0},"geometry":{"type":"Polygon","coordinates":[[[-73.2802909,-8.6524434],[-73.2721969,-8.652534],[-73.272136,-8.6471387],[-73.2802299,-8.6470481],[-73.2802909,-8.6524434]]]}},{"type":"Feature","id":"AC-Y586-X136","properties":{"id":"AC-Y586-X136","grid_x":136,"grid_y":586,"centroid":[-73.2681194,-8.6498816],"aggregation":"none","score_gradboost":0.0351642,"score_random_forest":0.0552538,"score_logistic_regression":0.0329648,"score_fuzzy_knn_k29":0.0219401},"geometry":{"type":"Polygon","coordinates":[[[-73.2721969,-8.652534],[-73.2641028,-8.6526245],[-73.264042,-8.647229],[-73.272136,-8.6471387],[-73.2721969,-8.652534]]]}},{"type":"Feature","id":"AC-Y586-X137","properties":{"id":"AC-Y586-X137","grid_x":137,"grid_y":586,"centroid":[-73.2600253,-8.6499719],"aggregation":"none","score_gradboost":0.0299143,"score_random_forest":0.0289563,"score_logistic_regression":0.0349865,"score_fuzzy_knn_k29":0.0232345},"geometry":{"type":"Polygon","coordinates":[[[-73.2641028,-8.6526245],[-73.2560086,-8.6527147],[-73.2559479,-8.6473192],[-73.264042,-8.647229],[-73.2641028,-8.6526245]]]}},{"type":"Feature","id":"AC-Y586-X138","properties":{"id":"AC-Y586-X138","grid_x":138,"grid_y":586,"centroid":[-73.2519311,-8.650062],"aggregation":"none","score_gradboost":0.0363862,"score_random_forest":0.0236703,"score_logistic_regression":0.0410234,"score_fuzzy_knn_k29":0.0656358},"geometry":{"type":"Polygon","coordinates":[[[-73.2560086,-8.6527147],[-73.2479143,-8.6528048],[-73.2478537,-8.6474093],[-73.2559479,-8.6473192],[-73.2560086,-8.6527147]]]}},{"type":"Feature","id":"AC-Y587-X133","properties":{"id":"AC-Y587-X133","grid_x":133,"grid_y":587,"centroid":[-73.29234,-8.6442143],"aggregation":"none","score_gradboost":0.0219701,"score_random_forest":0.0667462,"score_logistic_regression":0.0268776,"score_fuzzy_knn_k29":0.0},"geometry":{"type":"Polygon","coordinates":[[[-73.2964174,-8.6468665],[-73.2883237,-8.6469574],[-73.2882626,-8.6415621],[-73.2963562,-8.6414713],[-73.2964174,-8.6468665]]]}},{"type":"Feature","id":"AC-Y587-X134","properties":{"id":"AC-Y587-X134","grid_x":134,"grid_y":587,"centroid":[-73.2842463,-8.6443051],"aggregation":"none","score_gradboost":0.0208468,"score_random_forest":0.0353155,"score_logistic_regression":0.0267986,"score_fuzzy_knn_k29":0.0},"geometry":{"type":"Polygon","coordinates":[[[-73.2883237,-8.6469574],[-73.2802299,-8.6470481],[-73.2801689,-8.6416528],[-73.2882626,-8.6415621],[-73.2883237,-8.6469574]]]}},{"type":"Feature","id":"AC-Y587-X135","properties":{"id":"AC-Y587-X135","grid_x":135,"grid_y":587,"centroid":[-73.2761525,-8.6443957],"aggregation":"none","score_gradboost":0.0374196,"score_random_forest":0.0706971,"score_logistic_regression":0.0362694,"score_fuzzy_knn_k29":0.0209588},"geometry":{"type":"Polygon","coordinates":[[[-73.2802299,-8.6470481],[-73.272136,-8.6471387],[-73.2720751,-8.6417433],[-73.2801689,-8.6416528],[-73.2802299,-8.6470481]]]}},{"type":"Feature","id":"AC-Y587-X136","properties":{"id":"AC-Y587-X136","grid_x":136,"grid_y":587,"centroid":[-73.2680586,-8.6444862],"aggregation":"none","score_gradboost":0.0226988,"score_random_forest":0.0304211,"score_logistic_regression":0.0378226,"score_fuzzy_knn_k29":0.024652},"geometry":{"type":"Polygon","coordinates":[[[-73.272136,-8.6471387],[-73.264042,-8.647229],[-73.2639812,-8.6418336],[-73.2720751,-8.6417433],[-73.272136,-8.6471387]]]}},{"type":"Feature","id":"AC-Y587-X137","properties":{"id":"AC-Y587-X137","grid_x":137,"grid_y":587,"centroid":[-73.2599646,-8.6445764],"aggregation":"none","score_gradboost":0.0363862,"score_random_forest":0.025433,"score_logistic_regression":0.0347205,"score_fuzzy_knn_k29":0.0228392},"geometry":{"type":"Polygon","coordinates":[[[-73.264042,-8.647229],[-73.2559479,-8.6473192],[-73.2558873,-8.6419238],[-73.2639812,-8.6418336],[-73.264042,-8.647229]]]}},{"type":"Feature","id":"AC-Y587-X138","properties":{"id":"AC-Y587-X138","grid_x":138,"grid_y":587,"centroid":[-73.2518705,-8.6446665],"aggregation":"none","score_gradboost":0.0299143,"score_random_forest":0.0370477,"score_logistic_regression":0.0347658,"score_fuzzy_knn_k29":0.0225199},"geometry":{"type":"Polygon","coordinates":[[[-73.2559479,-8.6473192],[-73.2478537,-8.6474093],[-73.2477932,-8.6420137],[-73.2558873,-8.6419238],[-73.2559479,-8.6473192]]]}},{"type":"Feature","id":"AC-Y588-X132","properties":{"id":"AC-Y588-X132","grid_x":132,"grid_y":588,"centroid":[-73.3003724,-8.6387282],"aggregation":"none","score_gradboost":0.0232017,"score_random_forest":0.0486511,"score_logistic_regression":0.0319177,"score_fuzzy_knn_k29":0.0},"geometry":{"type":"Polygon","coordinates":[[[-73.3044497,-8.6413803],[-73.2963562,-8.6414713],[-73.296295,-8.6360761],[-73.3043884,-8.6359851],[-73.3044497,-8.6413803]]]}},{"type":"Feature","id":"AC-Y588-X133","properties":{"id":"AC-Y588-X133","grid_x":133,"grid_y":588,"centroid":[-73.2922788,-8.6388191],"aggregation":"none","score_gradboost":0.0309386,"score_random_forest":0.0568529,"score_logistic_regression":0.0352135,"score_fuzzy_knn_k29":0.0203747},"geometry":{"type":"Polygon","coordinates":[[[-73.2963562,-8.6414713],[-73.2882626,-8.6415621],[-73.2882015,-8.6361669],[-73.296295,-8.6360761],[-73.2963562,-8.6414713]]]}},{"type":"Feature","id":"AC-Y588-X134","properties":{"id":"AC-Y588-X134","grid_x":134,"grid_y":588,"centroid":[-73.2841852,-8.6389098],"aggregation":"none","score_gradboost":0.0159937,"score_random_forest":0.0404849,"score_logistic_regression":0.0314694,"score_fuzzy_knn_k29":0.0},"geometry":{"type":"Polygon","coordinates":[[[-73.2882626,-8.6415621],[-73.2801689,-8.6416528],[-73.2801079,-8.6362575],[-73.2882015,-8.6361669],[-73.2882626,-8.6415621]]]}},{"type":"Feature","id":"AC-Y588-X135","properties":{"id":"AC-Y588-X135","grid_x":135,"grid_y":588,"centroid":[-73.2760916,-8.6390004],"aggregation":"none","score_gradboost":0.0104481,"score_random_forest":0.0092535,"score_logistic_regression":0.0307863,"score_fuzzy_knn_k29":0.0},"geometry":{"type":"Polygon","coordinates":[[[-73.2801689,-8.6416528],[-73.2720751,-8.6417433],[-73.2720143,-8.6363479],[-73.2801079,-8.6362575],[-73.2801689,-8.6416528]]]}},{"type":"Feature","id":"AC-Y588-X136","properties":{"id":"AC-Y588-X136","grid_x":136,"grid_y":588,"centroid":[-73.2679978,-8.6390908],"aggregation":"none","score_gradboost":0.0351143,"score_random_forest":0.0698549,"score_logistic_regression":0.0394202,"score_fuzzy_knn_k29":0.024214},"geometry":{"type":"Polygon","coordinates":[[[-73.2720751,-8.6417433],[-73.2639812,-8.6418336],[-73.2639205,-8.6364382],[-73.2720143,-8.6363479],[-73.2720751,-8.6417433]]]}},{"type":"Feature","id":"AC-Y588-X137","properties":{"id":"AC-Y588-X137","grid_x":137,"grid_y":588,"centroid":[-73.2599039,-8.639181],"aggregation":"none","score_gradboost":0.0308045,"score_random_forest":0.0401418,"score_logistic_regression":0.0363725,"score_fuzzy_knn_k29":0.0218335},"geometry":{"type":"Polygon","coordinates":[[[-73.2639812,-8.6418336],[-73.2558873,-8.6419238],[-73.2558267,-8.6365283],[-73.2639205,-8.6364382],[-73.2639812,-8.6418336]]]}},{"type":"Feature","id":"AC-Y588-X138","properties":{"id":"AC-Y588-X138","grid_x":138,"grid_y":588,"centroid":[-73.25181,-8.639271],"aggregation":"none","score_gradboost":0.0186224,"score_random_forest":0.0349301,"score_logistic_regression":0.0331707,"score_fuzzy_knn_k29":0.0},"geometry":{"type":"Polygon","coordinates":[[[-73.2558873,-8.6419238],[-73.2477932,-8.6420137],[-73.2477327,-8.6366182],[-73.2558267,-8.6365283],[-73.2558873,-8.6419238]]]}},{"type":"Feature","id":"AC-Y589-X133","properties":{"id":"AC-Y589-X133","grid_x":133,"grid_y":589,"centroid":[-73.2922177,-8.6334239],"aggregation":"none","score_gradboost":0.0148003,"score_random_forest":0.0161456,"score_logistic_regression":0.0288917,"score_fuzzy_knn_k29":0.0},"geometry":{"type":"Polygon","coordinates":[[[-73.296295,-8.6360761],[-73.2882015,-8.6361669],[-73.2881405,-8.6307716],[-73.2962339,-8.6306809],[-73.296295,-8.6360761]]]}},{"type":"Feature","id":"AC-Y589-X134","properties":{"id":"AC-Y589-X134","grid_x":134,"grid_y":589,"centroid":[-73.2841243,-8.6335145],"aggregation":"none","score_gradboost":0.0204857,"score_random_forest":0.0352814,"score_logistic_regression":0.0349093,"score_fuzzy_knn_k29":0.0171059},"geometry":{"type":"Polygon","coordinates":[[[-73.2882015,-8.6361669],[-73.2801079,-8.6362575],[-73.280047,-8.6308622],[-73.2881405,-8.6307716],[-73.2882015,-8.6361669]]]}},{"type":"Feature","id":"AC-Y589-X135","properties":{"id":"AC-Y589-X135","grid_x":135,"grid_y":589,"centroid":[-73.2760307,-8.633605],"aggregation":"none","score_gradboost":0.0087724,"score_random_forest":0.0033236,"score_logistic_regression":0.0287347,"score_fuzzy_knn_k29":0.0},"geometry":{"type":"Polygon","coordinates":[[[-73.2801079,-8.6362575],[-73.2720143,-8.6363479],[-73.2719535,-8.6309525],[-73.280047,-8.6308622],[-73.2801079,-8.6362575]]]}},{"type":"Feature","id":"AC-Y589-X136","properties":{"id":"AC-Y589-X136","grid_x":136,"grid_y":589,"centroid":[-73.267937,-8.6336954],"aggregation":"none","score_gradboost":0.018885,"score_random_forest":0.0395281,"score_logistic_regression":0.0443581,"score_fuzzy_knn_k29":0.0438509},"geometry":{"type":"Polygon","coordinates":[[[-73.2720143,-8.6363479],[-73.2639205,-8.6364382],[-73.2638598,-8.6310427],[-73.2719535,-8.6309525],[-73.2720143,-8.6363479]]]}},{"type":"Feature","id":"AC-Y589-X137","properties":{"id":"AC-Y589-X137","grid_x":137,"grid_y":589,"centroid":[-73.2598433,-8.6337855],"aggregation":"none","score_gradboost":0.0292421,"score_random_forest":0.0437888,"score_logistic_regression":0.0388175,"score_fuzzy_knn_k29":0.0207448},"geometry":{"type":"Polygon","coordinates":[[[-73.2639205,-8.6364382],[-73.2558267,-8.6365283],[-73.2557661,-8.6311328],[-73.2638598,-8.6310427],[-73.2639205,-8.6364382]]]}},{"type":"Feature","id":"AC-Y589-X138","properties":{"id":"AC-Y589-X138","grid_x":138,"grid_y":589,"centroid":[-73.2517494,-8.6338755],"aggregation":"none","score_gradboost":0.044534,"score_random_forest":0.1162569,"score_logistic_regression":0.0411108,"score_fuzzy_knn_k29":0.0217842},"geometry":{"type":"Polygon","coordinates":[[[-73.2558267,-8.6365283],[-73.2477327,-8.6366182],[-73.2476723,-8.6312227],[-73.2557661,-8.6311328],[-73.2558267,-8.6365283]]]}},{"type":"Feature","id":"AC-Y590-X131","properties":{"id":"AC-Y590-X131","grid_x":131,"grid_y":590,"centroid":[-73.3083432,-8.6278469],"aggregation":"none","score_gradboost":0.0061063,"score_random_forest":0.0,"score_logistic_regression":0.0246781,"score_fuzzy_knn_k29":0.0},"geometry":{"type":"Polygon","coordinates":[[[-73.3124204,-8.6304989],[-73.3043272,-8.63059],[-73.304266,-8.6251948],[-73.3123591,-8.6251038],[-73.3124204,-8.6304989]]]}},{"type":"Feature","id":"AC-Y590-X132","properties":{"id":"AC-Y590-X132","grid_x":132,"grid_y":590,"centroid":[-73.30025,-8.6279379],"aggregation":"none","score_gradboost":0.0091086,"score_random_forest":0.0020808,"score_logistic_regression":0.0288283,"score_fuzzy_knn_k29":0.0},"geometry":{"type":"Polygon","coordinates":[[[-73.3043272,-8.63059],[-73.2962339,-8.6306809],[-73.2961728,-8.6252857],[-73.304266,-8.6251948],[-73.3043272,-8.63059]]]}},{"type":"Feature","id":"AC-Y590-X133","properties":{"id":"AC-Y590-X133","grid_x":133,"grid_y":590,"centroid":[-73.2921567,-8.6280286],"aggregation":"none","score_gradboost":0.0145921,"score_random_forest":0.014119,"score_logistic_regression":0.0345253,"score_fuzzy_knn_k29":0.0},"geometry":{"type":"Polygon","coordinates":[[[-73.2962339,-8.6306809],[-73.2881405,-8.6307716],[-73.2880795,-8.6253763],[-73.2961728,-8.6252857],[-73.2962339,-8.6306809]]]}},{"type":"Feature","id":"AC-Y590-X134","properties":{"id":"AC-Y590-X134","grid_x":134,"grid_y":590,"centroid":[-73.2840633,-8.6281193],"aggregation":"none","score_gradboost":0.0137378,"score_random_forest":0.0428251,"score_logistic_regression":0.0359217,"score_fuzzy_knn_k29":0.0},"geometry":{"type":"Polygon","coordinates":[[[-73.2881405,-8.6307716],[-73.280047,-8.6308622],[-73.2799862,-8.6254668],[-73.2880795,-8.6253763],[-73.2881405,-8.6307716]]]}},{"type":"Feature","id":"AC-Y590-X135","properties":{"id":"AC-Y590-X135","grid_x":135,"grid_y":590,"centroid":[-73.2759699,-8.6282097],"aggregation":"none","score_gradboost":0.0094113,"score_random_forest":0.0256736,"score_logistic_regression":0.0361438,"score_fuzzy_knn_k29":0.0},"geometry":{"type":"Polygon","coordinates":[[[-73.280047,-8.6308622],[-73.2719535,-8.6309525],[-73.2718927,-8.6255572],[-73.2799862,-8.6254668],[-73.280047,-8.6308622]]]}},{"type":"Feature","id":"AC-Y590-X136","properties":{"id":"AC-Y590-X136","grid_x":136,"grid_y":590,"centroid":[-73.2678763,-8.6283],"aggregation":"none","score_gradboost":0.010546,"score_random_forest":0.0112442,"score_logistic_regression":0.0331813,"score_fuzzy_knn_k29":0.0},"geometry":{"type":"Polygon","coordinates":[[[-73.2719535,-8.6309525],[-73.2638598,-8.6310427],[-73.2637992,-8.6256473],[-73.2718927,-8.6255572],[-73.2719535,-8.6309525]]]}},{"type":"Feature","id":"AC-Y590-X137","properties":{"id":"AC-Y590-X137","grid_x":137,"grid_y":590,"centroid":[-73.2597827,-8.6283901],"aggregation":"none","score_gradboost":0.0126392,"score_random_forest":0.0111916,"score_logistic_regression":0.0356761,"score_fuzzy_knn_k29":0.0},"geometry":{"type":"Polygon","coordinates":[[[-73.2638598,-8.6310427],[-73.2557661,-8.6311328],[-73.2557056,-8.6257373],[-73.2637992,-8.6256473],[-73.2638598,-8.6310427]]]}},{"type":"Feature","id":"AC-Y579-X146","properties":{"id":"AC-Y579-X146","grid_x":146,"grid_y":579,"centroid":[-73.1875935,-8.6885489],"aggregation":"none","score_gradboost":0.0074561,"score_random_forest":0.0008635,"score_logistic_regression":0.0251737,"score_fuzzy_knn_k29":0.0},"geometry":{"type":"Polygon","coordinates":[[[-73.1916714,-8.6912023],[-73.1835756,-8.6912914],[-73.1835157,-8.6858954],[-73.1916113,-8.6858063],[-73.1916714,-8.6912023]]]}},{"type":"Feature","id":"AC-Y580-X138","properties":{"id":"AC-Y580-X138","grid_x":138,"grid_y":580,"centroid":[-73.2522956,-8.6824351],"aggregation":"none","score_gradboost":0.0261837,"score_random_forest":0.0564725,"score_logistic_regression":0.0379451,"score_fuzzy_knn_k29":0.0},"geometry":{"type":"Polygon","coordinates":[[[-73.2563735,-8.6850876],[-73.2482786,-8.685178],[-73.2482178,-8.6797825],[-73.2563126,-8.6796921],[-73.2563735,-8.6850876]]]}},{"type":"Feature","id":"AC-Y580-X139","properties":{"id":"AC-Y580-X139","grid_x":139,"grid_y":580,"centroid":[-73.2442007,-8.6825254],"aggregation":"none","score_gradboost":0.0351143,"score_random_forest":0.0785293,"score_logistic_regression":0.0404014,"score_fuzzy_knn_k29":0.0},"geometry":{"type":"Polygon","coordinates":[[[-73.2482786,-8.685178],[-73.2401835,-8.6852683],[-73.2401228,-8.6798727],[-73.2482178,-8.6797825],[-73.2482786,-8.685178]]]}},{"type":"Feature","id":"AC-Y580-X140","properties":{"id":"AC-Y580-X140","grid_x":140,"grid_y":580,"centroid":[-73.2361056,-8.6826156],"aggregation":"none","score_gradboost":0.0679056,"score_random_forest":0.1306078,"score_logistic_regression":0.0449202,"score_fuzzy_knn_k29":0.0158344},"geometry":{"type":"Polygon","coordinates":[[[-73.2401835,-8.6852683],[-73.2320884,-8.6853584],[-73.2320278,-8.6799628],[-73.2401228,-8.6798727],[-73.2401835,-8.6852683]]]}},{"type":"Feature","id":"AC-Y580-X141","properties":{"id":"AC-Y580-X141","grid_x":141,"grid_y":580,"centroid":[-73.2280105,-8.6827055],"aggregation":"none","score_gradboost":0.0538209,"score_random_forest":0.0757249,"score_logistic_regression":0.0448673,"score_fuzzy_knn_k29":0.0},"geometry":{"type":"Polygon","coordinates":[[[-73.2320884,-8.6853584],[-73.2239931,-8.6854483],[-73.2239327,-8.6800526],[-73.2320278,-8.6799628],[-73.2320884,-8.6853584]]]}},{"type":"Feature","id":"AC-Y580-X144","properties":{"id":"AC-Y580-X144","grid_x":144,"grid_y":580,"centroid":[-73.2037246,-8.6829745],"aggregation":"none","score_gradboost":0.022754,"score_random_forest":0.0133832,"score_logistic_regression":0.0482463,"score_fuzzy_knn_k29":0.0},"geometry":{"type":"Polygon","coordinates":[[[-73.2078024,-8.6856277],[-73.1997069,-8.6857171],[-73.1996468,-8.6803212],[-73.2077422,-8.6802319],[-73.2078024,-8.6856277]]]}},{"type":"Feature","id":"AC-Y580-X145","properties":{"id":"AC-Y580-X145","grid_x":145,"grid_y":580,"centroid":[-73.1956291,-8.6830638],"aggregation":"none","score_gradboost":0.0153588,"score_random_forest":0.0134692,"score_logistic_regression":0.028128,"score_fuzzy_knn_k29":0.0247297},"geometry":{"type":"Polygon","coordinates":[[[-73.1997069,-8.6857171],[-73.1916113,-8.6858063],[-73.1915513,-8.6804104],[-73.1996468,-8.6803212],[-73.1997069,-8.6857171]]]}},{"type":"Feature","id":"AC-Y580-X146","properties":{"id":"AC-Y580-X146","grid_x":146,"grid_y":580,"centroid":[-73.1875335,-8.6831529],"aggregation":"none","score_gradboost":0.0124993,"score_random_forest":0.0008635,"score_logistic_regression":0.0279535,"score_fuzzy_knn_k29":0.0},"geometry":{"type":"Polygon","coordinates":[[[-73.1916113,-8.6858063],[-73.1835157,-8.6858954],[-73.1834558,-8.6804994],[-73.1915513,-8.6804104],[-73.1916113,-8.6858063]]]}},{"type":"Feature","id":"AC-Y581-X137","properties":{"id":"AC-Y581-X137","grid_x":137,"grid_y":581,"centroid":[-73.2603295,-8.6769491],"aggregation":"none","score_gradboost":0.023033,"score_random_forest":0.031919,"score_logistic_regression":0.0362071,"score_fuzzy_knn_k29":0.0229644},"geometry":{"type":"Polygon","coordinates":[[[-73.2644074,-8.6796016],[-73.2563126,-8.6796921],[-73.2562517,-8.6742966],[-73.2643464,-8.6742061],[-73.2644074,-8.6796016]]]}},{"type":"Feature","id":"AC-Y581-X138","properties":{"id":"AC-Y581-X138","grid_x":138,"grid_y":581,"centroid":[-73.2522348,-8.6770396],"aggregation":"none","score_gradboost":0.0200262,"score_random_forest":0.0238785,"score_logistic_regression":0.0316721,"score_fuzzy_knn_k29":0.0},"geometry":{"type":"Polygon","coordinates":[[[-73.2563126,-8.6796921],[-73.2482178,-8.6797825],[-73.248157,-8.674387],[-73.2562517,-8.6742966],[-73.2563126,-8.6796921]]]}},{"type":"Feature","id":"AC-Y581-X139","properties":{"id":"AC-Y581-X139","grid_x":139,"grid_y":581,"centroid":[-73.2441399,-8.6771298],"aggregation":"none","score_gradboost":0.0150081,"score_random_forest":0.0289271,"score_logistic_regression":0.0376287,"score_fuzzy_knn_k29":0.0},"geometry":{"type":"Polygon","coordinates":[[[-73.2482178,-8.6797825],[-73.2401228,-8.6798727],[-73.2400622,-8.6744771],[-73.248157,-8.674387],[-73.2482178,-8.6797825]]]}},{"type":"Feature","id":"AC-Y581-X140","properties":{"id":"AC-Y581-X140","grid_x":140,"grid_y":581,"centroid":[-73.236045,-8.6772199],"aggregation":"none","score_gradboost":0.0308045,"score_random_forest":0.0494597,"score_logistic_regression":0.0512732,"score_fuzzy_knn_k29":0.0402079},"geometry":{"type":"Polygon","coordinates":[[[-73.2401228,-8.6798727],[-73.2320278,-8.6799628],[-73.2319672,-8.6745671],[-73.2400622,-8.6744771],[-73.2401228,-8.6798727]]]}},{"type":"Feature","id":"AC-Y581-X141","properties":{"id":"AC-Y581-X141","grid_x":141,"grid_y":581,"centroid":[-73.22795,-8.6773099],"aggregation":"none","score_gradboost":0.0340353,"score_random_forest":0.0258673,"score_logistic_regression":0.0484353,"score_fuzzy_knn_k29":0.0227932},"geometry":{"type":"Polygon","coordinates":[[[-73.2320278,-8.6799628],[-73.2239327,-8.6800526],[-73.2238722,-8.6746569],[-73.2319672,-8.6745671],[-73.2320278,-8.6799628]]]}},{"type":"Feature","id":"AC-Y581-X142","properties":{"id":"AC-Y581-X142","grid_x":142,"grid_y":581,"centroid":[-73.2198549,-8.6773996],"aggregation":"none","score_gradboost":0.0258847,"score_random_forest":0.0385463,"score_logistic_regression":0.0399455,"score_fuzzy_knn_k29":0.0},"geometry":{"type":"Polygon","coordinates":[[[-73.2239327,-8.6800526],[-73.2158375,-8.6801423],[-73.2157772,-8.6747466],[-73.2238722,-8.6746569],[-73.2239327,-8.6800526]]]}},{"type":"Feature","id":"AC-Y581-X143","properties":{"id":"AC-Y581-X143","grid_x":143,"grid_y":581,"centroid":[-73.2117597,-8.6774892],"aggregation":"none","score_gradboost":0.0538209,"score_random_forest":0.0776016,"score_logistic_regression":0.0509426,"score_fuzzy_knn_k29":0.0158307},"geometry":{"type":"Polygon","coordinates":[[[-73.2158375,-8.6801423],[-73.2077422,-8.6802319],[-73.207682,-8.674836],[-73.2157772,-8.6747466],[-73.2158375,-8.6801423]]]}},{"type":"Feature","id":"AC-Y581-X144","properties":{"id":"AC-Y581-X144","grid_x":144,"grid_y":581,"centroid":[-73.2036644,-8.6775786],"aggregation":"none","score_gradboost":0.02133,"score_random_forest":0.0114106,"score_logistic_regression":0.0477662,"score_fuzzy_knn_k29":0.0},"geometry":{"type":"Polygon","coordinates":[[[-73.2077422,-8.6802319],[-73.1996468,-8.6803212],[-73.1995867,-8.6749253],[-73.207682,-8.674836],[-73.2077422,-8.6802319]]]}},{"type":"Feature","id":"AC-Y581-X145","properties":{"id":"AC-Y581-X145","grid_x":145,"grid_y":581,"centroid":[-73.1955691,-8.6776679],"aggregation":"none","score_gradboost":0.0150204,"score_random_forest":0.0034275,"score_logistic_regression":0.0253751,"score_fuzzy_knn_k29":0.0317303},"geometry":{"type":"Polygon","coordinates":[[[-73.1996468,-8.6803212],[-73.1915513,-8.6804104],[-73.1914914,-8.6750145],[-73.1995867,-8.6749253],[-73.1996468,-8.6803212]]]}},{"type":"Feature","id":"AC-Y581-X146","properties":{"id":"AC-Y581-X146","grid_x":146,"grid_y":581,"centroid":[-73.1874736,-8.677757],"aggregation":"none","score_gradboost":0.0153588,"score_random_forest":0.0065442,"score_logistic_regression":0.0322609,"score_fuzzy_knn_k29":0.0},"geometry":{"type":"Polygon","coordinates":[[[-73.1915513,-8.6804104],[-73.1834558,-8.6804994],[-73.1833959,-8.6751034],[-73.1914914,-8.6750145],[-73.1915513,-8.6804104]]]}},{"type":"Feature","id":"AC-Y581-X147","properties":{"id":"AC-Y581-X147","grid_x":147,"grid_y":581,"centroid":[-73.1793781,-8.6778459],"aggregation":"none","score_gradboost":0.0111847,"score_random_forest":0.0297344,"score_logistic_regression":0.0522976,"score_fuzzy_knn_k29":0.0},"geometry":{"type":"Polygon","coordinates":[[[-73.1834558,-8.6804994],[-73.1753601,-8.6805883],[-73.1753004,-8.6751922],[-73.1833959,-8.6751034],[-73.1834558,-8.6804994]]]}},{"type":"Feature","id":"AC-Y582-X136","properties":{"id":"AC-Y582-X136","grid_x":136,"grid_y":582,"centroid":[-73.2683632,-8.6714631],"aggregation":"none","score_gradboost":0.020829,"score_random_forest":0.0348101,"score_logistic_regression":0.0305047,"score_fuzzy_knn_k29":0.0},"geometry":{"type":"Polygon","coordinates":[[[-73.2724409,-8.6741155],[-73.2643464,-8.6742061],[-73.2642854,-8.6688107],[-73.2723799,-8.6687201],[-73.2724409,-8.6741155]]]}},{"type":"Feature","id":"AC-Y582-X137","properties":{"id":"AC-Y582-X137","grid_x":137,"grid_y":582,"centroid":[-73.2602686,-8.6715537],"aggregation":"none","score_gradboost":0.0150081,"score_random_forest":0.0168172,"score_logistic_regression":0.0327056,"score_fuzzy_knn_k29":0.0},"geometry":{"type":"Polygon","coordinates":[[[-73.2643464,-8.6742061],[-73.2562517,-8.6742966],[-73.2561909,-8.6689012],[-73.2642854,-8.6688107],[-73.2643464,-8.6742061]]]}},{"type":"Feature","id":"AC-Y582-X138","properties":{"id":"AC-Y582-X138","grid_x":138,"grid_y":582,"centroid":[-73.252174,-8.6716441],"aggregation":"none","score_gradboost":0.0255675,"score_random_forest":0.053654,"score_logistic_regression":0.0362421,"score_fuzzy_knn_k29":0.0},"geometry":{"type":"Polygon","coordinates":[[[-73.2562517,-8.6742966],[-73.248157,-8.674387],[-73.2480963,-8.6689914],[-73.2561909,-8.6689012],[-73.2562517,-8.6742966]]]}},{"type":"Feature","id":"AC-Y582-X139","properties":{"id":"AC-Y582-X139","grid_x":139,"grid_y":582,"centroid":[-73.2440792,-8.6717343],"aggregation":"none","score_gradboost":0.023033,"score_random_forest":0.0194348,"score_logistic_regression":0.0446276,"score_fuzzy_knn_k29":0.0469584},"geometry":{"type":"Polygon","coordinates":[[[-73.248157,-8.674387],[-73.2400622,-8.6744771],[-73.2400015,-8.6690815],[-73.2480963,-8.6689914],[-73.248157,-8.674387]]]}},{"type":"Feature","id":"AC-Y582-X140","properties":{"id":"AC-Y582-X140","grid_x":140,"grid_y":582,"centroid":[-73.2359844,-8.6718243],"aggregation":"none","score_gradboost":0.0351642,"score_random_forest":0.0557112,"score_logistic_regression":0.038219,"score_fuzzy_knn_k29":0.0},"geometry":{"type":"Polygon","coordinates":[[[-73.2400622,-8.6744771],[-73.2319672,-8.6745671],[-73.2319067,-8.6691715],[-73.2400015,-8.6690815],[-73.2400622,-8.6744771]]]}},{"type":"Feature","id":"AC-Y582-X141","properties":{"id":"AC-Y582-X141","grid_x":141,"grid_y":582,"centroid":[-73.2278895,-8.6719142],"aggregation":"none","score_gradboost":0.0327188,"score_random_forest":0.0292844,"score_logistic_regression":0.0494562,"score_fuzzy_knn_k29":0.047142},"geometry":{"type":"Polygon","coordinates":[[[-73.2319672,-8.6745671],[-73.2238722,-8.6746569],[-73.2238119,-8.6692612],[-73.2319067,-8.6691715],[-73.2319672,-8.6745671]]]}},{"type":"Feature","id":"AC-Y582-X142","properties":{"id":"AC-Y582-X142","grid_x":142,"grid_y":582,"centroid":[-73.2197945,-8.6720039],"aggregation":"none","score_gradboost":0.0448761,"score_random_forest":0.0253952,"score_logistic_regression":0.0482684,"score_fuzzy_knn_k29":0.0443046},"geometry":{"type":"Polygon","coordinates":[[[-73.2238722,-8.6746569],[-73.2157772,-8.6747466],[-73.2157169,-8.6693508],[-73.2238119,-8.6692612],[-73.2238722,-8.6746569]]]}},{"type":"Feature","id":"AC-Y582-X143","properties":{"id":"AC-Y582-X143","grid_x":143,"grid_y":582,"centroid":[-73.2116995,-8.6720934],"aggregation":"none","score_gradboost":0.0464678,"score_random_forest":0.0328257,"score_logistic_regression":0.049477,"score_fuzzy_knn_k29":0.0209592},"geometry":{"type":"Polygon","coordinates":[[[-73.2157772,-8.6747466],[-73.207682,-8.674836],[-73.2076218,-8.6694402],[-73.2157169,-8.6693508],[-73.2157772,-8.6747466]]]}},{"type":"Feature","id":"AC-Y582-X144","properties":{"id":"AC-Y582-X144","grid_x":144,"grid_y":582,"centroid":[-73.2036043,-8.6721828],"aggregation":"none","score_gradboost":0.0679056,"score_random_forest":0.1277518,"score_logistic_regression":0.0464823,"score_fuzzy_knn_k29":0.0},"geometry":{"type":"Polygon","coordinates":[[[-73.207682,-8.674836],[-73.1995867,-8.6749253],[-73.1995267,-8.6695295],[-73.2076218,-8.6694402],[-73.207682,-8.674836]]]}},{"type":"Feature","id":"AC-Y582-X145","properties":{"id":"AC-Y582-X145","grid_x":145,"grid_y":582,"centroid":[-73.1955091,-8.672272],"aggregation":"none","score_gradboost":0.022754,"score_random_forest":0.007552,"score_logistic_regression":0.0566517,"score_fuzzy_knn_k29":0.0065684},"geometry":{"type":"Polygon","coordinates":[[[-73.1995867,-8.6749253],[-73.1914914,-8.6750145],[-73.1914314,-8.6696185],[-73.1995267,-8.6695295],[-73.1995867,-8.6749253]]]}},{"type":"Feature","id":"AC-Y582-X146","properties":{"id":"AC-Y582-X146","grid_x":146,"grid_y":582,"centroid":[-73.1874137,-8.672361],"aggregation":"none","score_gradboost":0.0106616,"score_random_forest":0.0005215,"score_logistic_regression":0.0512583,"score_fuzzy_knn_k29":0.0},"geometry":{"type":"Polygon","coordinates":[[[-73.1914914,-8.6750145],[-73.1833959,-8.6751034],[-73.1833361,-8.6697075],[-73.1914314,-8.6696185],[-73.1914914,-8.6750145]]]}},{"type":"Feature","id":"AC-Y582-X147","properties":{"id":"AC-Y582-X147","grid_x":147,"grid_y":582,"centroid":[-73.1793183,-8.6724498],"aggregation":"none","score_gradboost":0.0093524,"score_random_forest":0.0099855,"score_logistic_regression":0.0517818,"score_fuzzy_knn_k29":0.0},"geometry":{"type":"Polygon","coordinates":[[[-73.1833959,-8.6751034],[-73.1753004,-8.6751922],[-73.1752407,-8.6697962],[-73.1833361,-8.6697075],[-73.1833959,-8.6751034]]]}},{"type":"Feature","id":"AC-Y582-X148","properties":{"id":"AC-Y582-X148","grid_x":148,"grid_y":582,"centroid":[-73.1712228,-8.6725385],"aggregation":"none","score_gradboost":0.0074561,"score_random_forest":0.0008635,"score_logistic_regression":0.0254205,"score_fuzzy_knn_k29":0.0},"geometry":{"type":"Polygon","coordinates":[[[-73.1753004,-8.6751922],[-73.1672048,-8.6752808],[-73.1671452,-8.6698848],[-73.1752407,-8.6697962],[-73.1753004,-8.6751922]]]}},{"type":"Feature","id":"AC-Y583-X137","properties":{"id":"AC-Y583-X137","grid_x":137,"grid_y":583,"centroid":[-73.2602077,-8.6661582],"aggregation":"none","score_gradboost":0.0351143,"score_random_forest":0.0753955,"score_logistic_regression":0.0405888,"score_fuzzy_knn_k29":0.0204644},"geometry":{"type":"Polygon","coordinates":[[[-73.2642854,-8.6688107],[-73.2561909,-8.6689012],[-73.2561301,-8.6635057],[-73.2642245,-8.6634153],[-73.2642854,-8.6688107]]]}},{"type":"Feature","id":"AC-Y583-X138","properties":{"id":"AC-Y583-X138","grid_x":138,"grid_y":583,"centroid":[-73.2521132,-8.6662486],"aggregation":"none","score_gradboost":0.0150081,"score_random_forest":0.022715,"score_logistic_regression":0.0326232,"score_fuzzy_knn_k29":0.0},"geometry":{"type":"Polygon","coordinates":[[[-73.2561909,-8.6689012],[-73.2480963,-8.6689914],[-73.2480356,-8.6635959],[-73.2561301,-8.6635057],[-73.2561909,-8.6689012]]]}},{"type":"Feature","id":"AC-Y583-X139","properties":{"id":"AC-Y583-X139","grid_x":139,"grid_y":583,"centroid":[-73.2440186,-8.6663387],"aggregation":"none","score_gradboost":0.0218219,"score_random_forest":0.0232732,"score_logistic_regression":0.0344046,"score_fuzzy_knn_k29":0.0},"geometry":{"type":"Polygon","coordinates":[[[-73.2480963,-8.6689914],[-73.2400015,-8.6690815],[-73.239941,-8.6636859],[-73.2480356,-8.6635959],[-73.2480963,-8.6689914]]]}},{"type":"Feature","id":"AC-Y583-X140","properties":{"id":"AC-Y583-X140","grid_x":140,"grid_y":583,"centroid":[-73.2359239,-8.6664287],"aggregation":"none","score_gradboost":0.0364251,"score_random_forest":0.023948,"score_logistic_regression":0.047193,"score_fuzzy_knn_k29":0.0457735},"geometry":{"type":"Polygon","coordinates":[[[-73.2400015,-8.6690815],[-73.2319067,-8.6691715],[-73.2318463,-8.6637758],[-73.239941,-8.6636859],[-73.2400015,-8.6690815]]]}},{"type":"Feature","id":"AC-Y583-X141","properties":{"id":"AC-Y583-X141","grid_x":141,"grid_y":583,"centroid":[-73.2278291,-8.6665185],"aggregation":"none","score_gradboost":0.0316939,"score_random_forest":0.021463,"score_logistic_regression":0.0435748,"score_fuzzy_knn_k29":0.0227709},"geometry":{"type":"Polygon","coordinates":[[[-73.2319067,-8.6691715],[-73.2238119,-8.6692612],[-73.2237515,-8.6638655],[-73.2318463,-8.6637758],[-73.2319067,-8.6691715]]]}},{"type":"Feature","id":"AC-Y583-X142","properties":{"id":"AC-Y583-X142","grid_x":142,"grid_y":583,"centroid":[-73.2197342,-8.6666082],"aggregation":"none","score_gradboost":0.0423684,"score_random_forest":0.0352024,"score_logistic_regression":0.0502756,"score_fuzzy_knn_k29":0.0459404},"geometry":{"type":"Polygon","coordinates":[[[-73.2238119,-8.6692612],[-73.2157169,-8.6693508],[-73.2156567,-8.663955],[-73.2237515,-8.6638655],[-73.2238119,-8.6692612]]]}},{"type":"Feature","id":"AC-Y583-X143","properties":{"id":"AC-Y583-X143","grid_x":143,"grid_y":583,"centroid":[-73.2116393,-8.6666976],"aggregation":"none","score_gradboost":0.0547274,"score_random_forest":0.0384829,"score_logistic_regression":0.0518035,"score_fuzzy_knn_k29":0.0440399},"geometry":{"type":"Polygon","coordinates":[[[-73.2157169,-8.6693508],[-73.2076218,-8.6694402],[-73.2075617,-8.6640444],[-73.2156567,-8.663955],[-73.2157169,-8.6693508]]]}},{"type":"Feature","id":"AC-Y583-X144","properties":{"id":"AC-Y583-X144","grid_x":144,"grid_y":583,"centroid":[-73.2035442,-8.6667869],"aggregation":"none","score_gradboost":0.055924,"score_random_forest":0.1087695,"score_logistic_regression":0.0428679,"score_fuzzy_knn_k29":0.0},"geometry":{"type":"Polygon","coordinates":[[[-73.2076218,-8.6694402],[-73.1995267,-8.6695295],[-73.1994667,-8.6641336],[-73.2075617,-8.6640444],[-73.2076218,-8.6694402]]]}},{"type":"Feature","id":"AC-Y583-X145","properties":{"id":"AC-Y583-X145","grid_x":145,"grid_y":583,"centroid":[-73.1954491,-8.6668761],"aggregation":"none","score_gradboost":0.0304801,"score_random_forest":0.0093252,"score_logistic_regression":0.0550783,"score_fuzzy_knn_k29":0.0033943},"geometry":{"type":"Polygon","coordinates":[[[-73.1995267,-8.6695295],[-73.1914314,-8.6696185],[-73.1913716,-8.6642226],[-73.1994667,-8.6641336],[-73.1995267,-8.6695295]]]}},{"type":"Feature","id":"AC-Y583-X146","properties":{"id":"AC-Y583-X146","grid_x":146,"grid_y":583,"centroid":[-73.1873539,-8.666965],"aggregation":"none","score_gradboost":0.0245911,"score_random_forest":0.0357831,"score_logistic_regression":0.0655345,"score_fuzzy_knn_k29":0.0099693},"geometry":{"type":"Polygon","coordinates":[[[-73.1914314,-8.6696185],[-73.1833361,-8.6697075],[-73.1832764,-8.6643115],[-73.1913716,-8.6642226],[-73.1914314,-8.6696185]]]}},{"type":"Feature","id":"AC-Y583-X147","properties":{"id":"AC-Y583-X147","grid_x":147,"grid_y":583,"centroid":[-73.1792586,-8.6670538],"aggregation":"none","score_gradboost":0.0106616,"score_random_forest":0.0012718,"score_logistic_regression":0.0522699,"score_fuzzy_knn_k29":0.0},"geometry":{"type":"Polygon","coordinates":[[[-73.1833361,-8.6697075],[-73.1752407,-8.6697962],[-73.1751811,-8.6644001],[-73.1832764,-8.6643115],[-73.1833361,-8.6697075]]]}},{"type":"Feature","id":"AC-Y583-X148","properties":{"id":"AC-Y583-X148","grid_x":148,"grid_y":583,"centroid":[-73.1711632,-8.6671425],"aggregation":"none","score_gradboost":0.0074561,"score_random_forest":0.0008635,"score_logistic_regression":0.021148,"score_fuzzy_knn_k29":0.0175712},"geometry":{"type":"Polygon","coordinates":[[[-73.1752407,-8.6697962],[-73.1671452,-8.6698848],[-73.1670857,-8.6644887],[-73.1751811,-8.6644001],[-73.1752407,-8.6697962]]]}},{"type":"Feature","id":"AC-Y583-X149","properties":{"id":"AC-Y583-X149","grid_x":149,"grid_y":583,"centroid":[-73.1630677,-8.6672309],"aggregation":"none","score_gradboost":0.0074561,"score_random_forest":0.0017064,"score_logistic_regression":0.0252507,"score_fuzzy_knn_k29":0.0},"geometry":{"type":"Polygon","coordinates":[[[-73.1671452,-8.6698848],[-73.1590496,-8.6699731],[-73.1589902,-8.664577],[-73.1670857,-8.6644887],[-73.1671452,-8.6698848]]]}},{"type":"Feature","id":"AC-Y584-X138","properties":{"id":"AC-Y584-X138","grid_x":138,"grid_y":584,"centroid":[-73.2520525,-8.6608531],"aggregation":"none","score_gradboost":0.0351143,"score_random_forest":0.06838,"score_logistic_regression":0.0404276,"score_fuzzy_knn_k29":0.0193742},"geometry":{"type":"Polygon","coordinates":[[[-73.2561301,-8.6635057],[-73.2480356,-8.6635959],[-73.2479749,-8.6582004],[-73.2560693,-8.6581102],[-73.2561301,-8.6635057]]]}},{"type":"Feature","id":"AC-Y584-X139","properties":{"id":"AC-Y584-X139","grid_x":139,"grid_y":584,"centroid":[-73.243958,-8.6609432],"aggregation":"none","score_gradboost":0.0193969,"score_random_forest":0.0283341,"score_logistic_regression":0.0328317,"score_fuzzy_knn_k29":0.0},"geometry":{"type":"Polygon","coordinates":[[[-73.2480356,-8.6635959],[-73.239941,-8.6636859],[-73.2398804,-8.6582904],[-73.2479749,-8.6582004],[-73.2480356,-8.6635959]]]}},{"type":"Feature","id":"AC-Y584-X140","properties":{"id":"AC-Y584-X140","grid_x":140,"grid_y":584,"centroid":[-73.2358634,-8.6610331],"aggregation":"none","score_gradboost":0.0207902,"score_random_forest":0.0373904,"score_logistic_regression":0.0293366,"score_fuzzy_knn_k29":0.0},"geometry":{"type":"Polygon","coordinates":[[[-73.239941,-8.6636859],[-73.2318463,-8.6637758],[-73.2317859,-8.6583802],[-73.2398804,-8.6582904],[-73.239941,-8.6636859]]]}},{"type":"Feature","id":"AC-Y584-X141","properties":{"id":"AC-Y584-X141","grid_x":141,"grid_y":584,"centroid":[-73.2277687,-8.6611228],"aggregation":"none","score_gradboost":0.0193969,"score_random_forest":0.0300067,"score_logistic_regression":0.0378638,"score_fuzzy_knn_k29":0.0},"geometry":{"type":"Polygon","coordinates":[[[-73.2318463,-8.6637758],[-73.2237515,-8.6638655],[-73.2236912,-8.6584698],[-73.2317859,-8.6583802],[-73.2318463,-8.6637758]]]}},{"type":"Feature","id":"AC-Y584-X142","properties":{"id":"AC-Y584-X142","grid_x":142,"grid_y":584,"centroid":[-73.219674,-8.6612124],"aggregation":"none","score_gradboost":0.0329448,"score_random_forest":0.0224843,"score_logistic_regression":0.043491,"score_fuzzy_knn_k29":0.0214968},"geometry":{"type":"Polygon","coordinates":[[[-73.2237515,-8.6638655],[-73.2156567,-8.663955],[-73.2155965,-8.6585593],[-73.2236912,-8.6584698],[-73.2237515,-8.6638655]]]}},{"type":"Feature","id":"AC-Y584-X143","properties":{"id":"AC-Y584-X143","grid_x":143,"grid_y":584,"centroid":[-73.2115791,-8.6613019],"aggregation":"none","score_gradboost":0.0342049,"score_random_forest":0.0273235,"score_logistic_regression":0.052401,"score_fuzzy_knn_k29":0.0658475},"geometry":{"type":"Polygon","coordinates":[[[-73.2156567,-8.663955],[-73.2075617,-8.6640444],[-73.2075016,-8.6586486],[-73.2155965,-8.6585593],[-73.2156567,-8.663955]]]}},{"type":"Feature","id":"AC-Y584-X144","properties":{"id":"AC-Y584-X144","grid_x":144,"grid_y":584,"centroid":[-73.2034842,-8.6613911],"aggregation":"none","score_gradboost":0.0367946,"score_random_forest":0.0479033,"score_logistic_regression":0.0602531,"score_fuzzy_knn_k29":0.0774662},"geometry":{"type":"Polygon","coordinates":[[[-73.2075617,-8.6640444],[-73.1994667,-8.6641336],[-73.1994067,-8.6587377],[-73.2075016,-8.6586486],[-73.2075617,-8.6640444]]]}},{"type":"Feature","id":"AC-Y584-X145","properties":{"id":"AC-Y584-X145","grid_x":145,"grid_y":584,"centroid":[-73.1953892,-8.6614802],"aggregation":"none","score_gradboost":0.0679056,"score_random_forest":0.1270819,"score_logistic_regression":0.0506526,"score_fuzzy_knn_k29":0.0139693},"geometry":{"type":"Polygon","coordinates":[[[-73.1994667,-8.6641336],[-73.1913716,-8.6642226],[-73.1913117,-8.6588267],[-73.1994067,-8.6587377],[-73.1994667,-8.6641336]]]}},{"type":"Feature","id":"AC-Y584-X146","properties":{"id":"AC-Y584-X146","grid_x":146,"grid_y":584,"centroid":[-73.1872941,-8.6615691],"aggregation":"none","score_gradboost":0.02461,"score_random_forest":0.0426925,"score_logistic_regression":0.0458339,"score_fuzzy_knn_k29":0.0},"geometry":{"type":"Polygon","coordinates":[[[-73.1913716,-8.6642226],[-73.1832764,-8.6643115],[-73.1832166,-8.6589155],[-73.1913117,-8.6588267],[-73.1913716,-8.6642226]]]}},{"type":"Feature","id":"AC-Y584-X147","properties":{"id":"AC-Y584-X147","grid_x":147,"grid_y":584,"centroid":[-73.1791989,-8.6616578],"aggregation":"none","score_gradboost":0.0144817,"score_random_forest":0.0012409,"score_logistic_regression":0.05059,"score_fuzzy_knn_k29":0.0},"geometry":{"type":"Polygon","coordinates":[[[-73.1832764,-8.6643115],[-73.1751811,-8.6644001],[-73.1751214,-8.6590041],[-73.1832166,-8.6589155],[-73.1832764,-8.6643115]]]}},{"type":"Feature","id":"AC-Y584-X148","properties":{"id":"AC-Y584-X148","grid_x":148,"grid_y":584,"centroid":[-73.1711036,-8.6617464],"aggregation":"none","score_gradboost":0.0124993,"score_random_forest":0.0029889,"score_logistic_regression":0.02571,"score_fuzzy_knn_k29":0.0244334},"geometry":{"type":"Polygon","coordinates":[[[-73.1751811,-8.6644001],[-73.1670857,-8.6644887],[-73.1670262,-8.6590926],[-73.1751214,-8.6590041],[-73.1751811,-8.6644001]]]}},{"type":"Feature","id":"AC-Y584-X149","properties":{"id":"AC-Y584-X149","grid_x":149,"grid_y":584,"centroid":[-73.1630082,-8.6618348],"aggregation":"none","score_gradboost":0.0134806,"score_random_forest":0.0127666,"score_logistic_regression":0.0301758,"score_fuzzy_knn_k29":0.0},"geometry":{"type":"Polygon","coordinates":[[[-73.1670857,-8.6644887],[-73.1589902,-8.664577],[-73.1589308,-8.6591808],[-73.1670262,-8.6590926],[-73.1670857,-8.6644887]]]}},{"type":"Feature","id":"AC-Y584-X150","properties":{"id":"AC-Y584-X150","grid_x":150,"grid_y":584,"centroid":[-73.1549128,-8.661923],"aggregation":"none","score_gradboost":0.0088671,"score_random_forest":0.0016739,"score_logistic_regression":0.0658062,"score_fuzzy_knn_k29":0.0},"geometry":{"type":"Polygon","coordinates":[[[-73.1589902,-8.664577],[-73.1508947,-8.6646652],[-73.1508354,-8.6592689],[-73.1589308,-8.6591808],[-73.1589902,-8.664577]]]}},{"type":"Feature","id":"AC-Y585-X140","properties":{"id":"AC-Y585-X140","grid_x":140,"grid_y":585,"centroid":[-73.2358029,-8.6556375],"aggregation":"none","score_gradboost":0.044534,"score_random_forest":0.1068032,"score_logistic_regression":0.0422596,"score_fuzzy_knn_k29":0.0170276},"geometry":{"type":"Polygon","coordinates":[[[-73.2398804,-8.6582904],[-73.2317859,-8.6583802],[-73.2317255,-8.6529845],[-73.2398199,-8.6528948],[-73.2398804,-8.6582904]]]}},{"type":"Feature","id":"AC-Y585-X141","properties":{"id":"AC-Y585-X141","grid_x":141,"grid_y":585,"centroid":[-73.2277084,-8.6557272],"aggregation":"none","score_gradboost":0.0248677,"score_random_forest":0.0139001,"score_logistic_regression":0.0426633,"score_fuzzy_knn_k29":0.0},"geometry":{"type":"Polygon","coordinates":[[[-73.2317859,-8.6583802],[-73.2236912,-8.6584698],[-73.2236309,-8.6530741],[-73.2317255,-8.6529845],[-73.2317859,-8.6583802]]]}},{"type":"Feature","id":"AC-Y585-X142","properties":{"id":"AC-Y585-X142","grid_x":142,"grid_y":585,"centroid":[-73.2196137,-8.6558167],"aggregation":"none","score_gradboost":0.0316995,"score_random_forest":0.0375112,"score_logistic_regression":0.0411126,"score_fuzzy_knn_k29":0.0},"geometry":{"type":"Polygon","coordinates":[[[-73.2236912,-8.6584698],[-73.2155965,-8.6585593],[-73.2155363,-8.6531635],[-73.2236309,-8.6530741],[-73.2236912,-8.6584698]]]}},{"type":"Feature","id":"AC-Y585-X143","properties":{"id":"AC-Y585-X143","grid_x":143,"grid_y":585,"centroid":[-73.211519,-8.6559061],"aggregation":"none","score_gradboost":0.0448761,"score_random_forest":0.0253952,"score_logistic_regression":0.0458084,"score_fuzzy_knn_k29":0.0239429},"geometry":{"type":"Polygon","coordinates":[[[-73.2155965,-8.6585593],[-73.2075016,-8.6586486],[-73.2074416,-8.6532528],[-73.2155363,-8.6531635],[-73.2155965,-8.6585593]]]}},{"type":"Feature","id":"AC-Y585-X144","properties":{"id":"AC-Y585-X144","grid_x":144,"grid_y":585,"centroid":[-73.2034242,-8.6559953],"aggregation":"none","score_gradboost":0.0571541,"score_random_forest":0.0280025,"score_logistic_regression":0.0554236,"score_fuzzy_knn_k29":0.0807671},"geometry":{"type":"Polygon","coordinates":[[[-73.2075016,-8.6586486],[-73.1994067,-8.6587377],[-73.1993468,-8.6533418],[-73.2074416,-8.6532528],[-73.2075016,-8.6586486]]]}},{"type":"Feature","id":"AC-Y585-X145","properties":{"id":"AC-Y585-X145","grid_x":145,"grid_y":585,"centroid":[-73.1953293,-8.6560843],"aggregation":"none","score_gradboost":0.0477955,"score_random_forest":0.0354324,"score_logistic_regression":0.0501565,"score_fuzzy_knn_k29":0.0190377},"geometry":{"type":"Polygon","coordinates":[[[-73.1994067,-8.6587377],[-73.1913117,-8.6588267],[-73.1912519,-8.6534308],[-73.1993468,-8.6533418],[-73.1994067,-8.6587377]]]}},{"type":"Feature","id":"AC-Y585-X146","properties":{"id":"AC-Y585-X146","grid_x":146,"grid_y":585,"centroid":[-73.1872343,-8.6561731],"aggregation":"none","score_gradboost":0.0321996,"score_random_forest":0.0245907,"score_logistic_regression":0.0557587,"score_fuzzy_knn_k29":0.0029831},"geometry":{"type":"Polygon","coordinates":[[[-73.1913117,-8.6588267],[-73.1832166,-8.6589155],[-73.1831569,-8.6535195],[-73.1912519,-8.6534308],[-73.1913117,-8.6588267]]]}},{"type":"Feature","id":"AC-Y585-X147","properties":{"id":"AC-Y585-X147","grid_x":147,"grid_y":585,"centroid":[-73.1791392,-8.6562618],"aggregation":"none","score_gradboost":0.02133,"score_random_forest":0.0092219,"score_logistic_regression":0.0489988,"score_fuzzy_knn_k29":0.0},"geometry":{"type":"Polygon","coordinates":[[[-73.1832166,-8.6589155],[-73.1751214,-8.6590041],[-73.1750619,-8.6536081],[-73.1831569,-8.6535195],[-73.1832166,-8.6589155]]]}},{"type":"Feature","id":"AC-Y585-X148","properties":{"id":"AC-Y585-X148","grid_x":148,"grid_y":585,"centroid":[-73.1710441,-8.6563503],"aggregation":"none","score_gradboost":0.0211961,"score_random_forest":0.006083,"score_logistic_regression":0.0290054,"score_fuzzy_knn_k29":0.0286247},"geometry":{"type":"Polygon","coordinates":[[[-73.1751214,-8.6590041],[-73.1670262,-8.6590926],[-73.1669667,-8.6536964],[-73.1750619,-8.6536081],[-73.1751214,-8.6590041]]]}},{"type":"Feature","id":"AC-Y585-X149","properties":{"id":"AC-Y585-X149","grid_x":149,"grid_y":585,"centroid":[-73.1629488,-8.6564386],"aggregation":"none","score_gradboost":0.0183461,"score_random_forest":0.0327723,"score_logistic_regression":0.028813,"score_fuzzy_knn_k29":0.0202128},"geometry":{"type":"Polygon","coordinates":[[[-73.1670262,-8.6590926],[-73.1589308,-8.6591808],[-73.1588715,-8.6537847],[-73.1669667,-8.6536964],[-73.1670262,-8.6590926]]]}},{"type":"Feature","id":"AC-Y585-X150","properties":{"id":"AC-Y585-X150","grid_x":150,"grid_y":585,"centroid":[-73.1548535,-8.6565268],"aggregation":"none","score_gradboost":0.0093524,"score_random_forest":0.0002648,"score_logistic_regression":0.0575301,"score_fuzzy_knn_k29":0.0},"geometry":{"type":"Polygon","coordinates":[[[-73.1589308,-8.6591808],[-73.1508354,-8.6592689],[-73.1507762,-8.6538727],[-73.1588715,-8.6537847],[-73.1589308,-8.6591808]]]}},{"type":"Feature","id":"AC-Y586-X142","properties":{"id":"AC-Y586-X142","grid_x":142,"grid_y":586,"centroid":[-73.2195536,-8.650421],"aggregation":"none","score_gradboost":0.0374196,"score_random_forest":0.0849763,"score_logistic_regression":0.0503835,"score_fuzzy_knn_k29":0.0175498},"geometry":{"type":"Polygon","coordinates":[[[-73.2236309,-8.6530741],[-73.2155363,-8.6531635],[-73.2154762,-8.6477678],[-73.2235707,-8.6476784],[-73.2236309,-8.6530741]]]}},{"type":"Feature","id":"AC-Y586-X143","properties":{"id":"AC-Y586-X143","grid_x":143,"grid_y":586,"centroid":[-73.2114589,-8.6505103],"aggregation":"none","score_gradboost":0.0340353,"score_random_forest":0.0264448,"score_logistic_regression":0.0494349,"score_fuzzy_knn_k29":0.0413374},"geometry":{"type":"Polygon","coordinates":[[[-73.2155363,-8.6531635],[-73.2074416,-8.6532528],[-73.2073816,-8.6478569],[-73.2154762,-8.6477678],[-73.2155363,-8.6531635]]]}},{"type":"Feature","id":"AC-Y586-X144","properties":{"id":"AC-Y586-X144","grid_x":144,"grid_y":586,"centroid":[-73.2033642,-8.6505994],"aggregation":"none","score_gradboost":0.1084707,"score_random_forest":0.1362118,"score_logistic_regression":0.0750176,"score_fuzzy_knn_k29":0.1719802},"geometry":{"type":"Polygon","coordinates":[[[-73.2074416,-8.6532528],[-73.1993468,-8.6533418],[-73.1992869,-8.647946],[-73.2073816,-8.6478569],[-73.2074416,-8.6532528]]]}},{"type":"Feature","id":"AC-Y586-X145","properties":{"id":"AC-Y586-X145","grid_x":145,"grid_y":586,"centroid":[-73.1952694,-8.6506884],"aggregation":"none","score_gradboost":0.0340353,"score_random_forest":0.0258673,"score_logistic_regression":0.0480613,"score_fuzzy_knn_k29":0.0215933},"geometry":{"type":"Polygon","coordinates":[[[-73.1993468,-8.6533418],[-73.1912519,-8.6534308],[-73.1911921,-8.6480348],[-73.1992869,-8.647946],[-73.1993468,-8.6533418]]]}},{"type":"Feature","id":"AC-Y586-X146","properties":{"id":"AC-Y586-X146","grid_x":146,"grid_y":586,"centroid":[-73.1871746,-8.6507772],"aggregation":"none","score_gradboost":0.0486787,"score_random_forest":0.0863727,"score_logistic_regression":0.0538867,"score_fuzzy_knn_k29":0.0169496},"geometry":{"type":"Polygon","coordinates":[[[-73.1912519,-8.6534308],[-73.1831569,-8.6535195],[-73.1830973,-8.6481235],[-73.1911921,-8.6480348],[-73.1912519,-8.6534308]]]}},{"type":"Feature","id":"AC-Y586-X147","properties":{"id":"AC-Y586-X147","grid_x":147,"grid_y":586,"centroid":[-73.1790796,-8.6508658],"aggregation":"none","score_gradboost":0.0416125,"score_random_forest":0.0194688,"score_logistic_regression":0.0483642,"score_fuzzy_knn_k29":0.0},"geometry":{"type":"Polygon","coordinates":[[[-73.1831569,-8.6535195],[-73.1750619,-8.6536081],[-73.1750023,-8.648212],[-73.1830973,-8.6481235],[-73.1831569,-8.6535195]]]}},{"type":"Feature","id":"AC-Y586-X148","properties":{"id":"AC-Y586-X148","grid_x":148,"grid_y":586,"centroid":[-73.1709846,-8.6509542],"aggregation":"none","score_gradboost":0.0601966,"score_random_forest":0.046057,"score_logistic_regression":0.0353374,"score_fuzzy_knn_k29":0.0740879},"geometry":{"type":"Polygon","coordinates":[[[-73.1750619,-8.6536081],[-73.1669667,-8.6536964],[-73.1669073,-8.6483003],[-73.1750023,-8.648212],[-73.1750619,-8.6536081]]]}},{"type":"Feature","id":"AC-Y586-X149","properties":{"id":"AC-Y586-X149","grid_x":149,"grid_y":586,"centroid":[-73.1628894,-8.6510425],"aggregation":"none","score_gradboost":0.0106616,"score_random_forest":0.0026654,"score_logistic_regression":0.057405,"score_fuzzy_knn_k29":0.0},"geometry":{"type":"Polygon","coordinates":[[[-73.1669667,-8.6536964],[-73.1588715,-8.6537847],[-73.1588122,-8.6483885],[-73.1669073,-8.6483003],[-73.1669667,-8.6536964]]]}},{"type":"Feature","id":"AC-Y586-X150","properties":{"id":"AC-Y586-X150","grid_x":150,"grid_y":586,"centroid":[-73.1547942,-8.6511306],"aggregation":"none","score_gradboost":0.0093524,"score_random_forest":0.0049155,"score_logistic_regression":0.0592258,"score_fuzzy_knn_k29":0.0},"geometry":{"type":"Polygon","coordinates":[[[-73.1588715,-8.6537847],[-73.1507762,-8.6538727],[-73.150717,-8.6484765],[-73.1588122,-8.6483885],[-73.1588715,-8.6537847]]]}},{"type":"Feature","id":"AC-Y587-X143","properties":{"id":"AC-Y587-X143","grid_x":143,"grid_y":587,"centroid":[-73.2113989,-8.6451145],"aggregation":"none","score_gradboost":0.0305751,"score_random_forest":0.0686686,"score_logistic_regression":0.0584137,"score_fuzzy_knn_k29":0.0759969},"geometry":{"type":"Polygon","coordinates":[[[-73.2154762,-8.6477678],[-73.2073816,-8.6478569],[-73.2073216,-8.6424611],[-73.2154161,-8.642372],[-73.2154762,-8.6477678]]]}},{"type":"Feature","id":"AC-Y587-X144","properties":{"id":"AC-Y587-X144","grid_x":144,"grid_y":587,"centroid":[-73.2033043,-8.6452035],"aggregation":"none","score_gradboost":0.0571541,"score_random_forest":0.0350536,"score_logistic_regression":0.0530435,"score_fuzzy_knn_k29":0.0797544},"geometry":{"type":"Polygon","coordinates":[[[-73.2073816,-8.6478569],[-73.1992869,-8.647946],[-73.1992271,-8.6425501],[-73.2073216,-8.6424611],[-73.2073816,-8.6478569]]]}},{"type":"Feature","id":"AC-Y587-X145","properties":{"id":"AC-Y587-X145","grid_x":145,"grid_y":587,"centroid":[-73.1952096,-8.6452925],"aggregation":"none","score_gradboost":0.0547274,"score_random_forest":0.0318118,"score_logistic_regression":0.0523364,"score_fuzzy_knn_k29":0.0450071},"geometry":{"type":"Polygon","coordinates":[[[-73.1992869,-8.647946],[-73.1911921,-8.6480348],[-73.1911324,-8.6426389],[-73.1992271,-8.6425501],[-73.1992869,-8.647946]]]}},{"type":"Feature","id":"AC-Y587-X146","properties":{"id":"AC-Y587-X146","grid_x":146,"grid_y":587,"centroid":[-73.1871149,-8.6453812],"aggregation":"none","score_gradboost":0.0338654,"score_random_forest":0.0280552,"score_logistic_regression":0.0625663,"score_fuzzy_knn_k29":0.0976063},"geometry":{"type":"Polygon","coordinates":[[[-73.1911921,-8.6480348],[-73.1830973,-8.6481235],[-73.1830377,-8.6427275],[-73.1911324,-8.6426389],[-73.1911921,-8.6480348]]]}},{"type":"Feature","id":"AC-Y587-X147","properties":{"id":"AC-Y587-X147","grid_x":147,"grid_y":587,"centroid":[-73.17902,-8.6454698],"aggregation":"none","score_gradboost":0.0508516,"score_random_forest":0.0903771,"score_logistic_regression":0.0607785,"score_fuzzy_knn_k29":0.0465008},"geometry":{"type":"Polygon","coordinates":[[[-73.1830973,-8.6481235],[-73.1750023,-8.648212],[-73.1749428,-8.642816],[-73.1830377,-8.6427275],[-73.1830973,-8.6481235]]]}},{"type":"Feature","id":"AC-Y587-X148","properties":{"id":"AC-Y587-X148","grid_x":148,"grid_y":587,"centroid":[-73.1709251,-8.6455582],"aggregation":"none","score_gradboost":0.054162,"score_random_forest":0.0278148,"score_logistic_regression":0.030204,"score_fuzzy_knn_k29":0.0744951},"geometry":{"type":"Polygon","coordinates":[[[-73.1750023,-8.648212],[-73.1669073,-8.6483003],[-73.1668479,-8.6429042],[-73.1749428,-8.642816],[-73.1750023,-8.648212]]]}},{"type":"Feature","id":"AC-Y587-X149","properties":{"id":"AC-Y587-X149","grid_x":149,"grid_y":587,"centroid":[-73.1628301,-8.6456464],"aggregation":"none","score_gradboost":0.0185428,"score_random_forest":0.0140383,"score_logistic_regression":0.0696553,"score_fuzzy_knn_k29":0.0130227},"geometry":{"type":"Polygon","coordinates":[[[-73.1669073,-8.6483003],[-73.1588122,-8.6483885],[-73.1587529,-8.6429924],[-73.1668479,-8.6429042],[-73.1669073,-8.6483003]]]}},{"type":"Feature","id":"AC-Y587-X150","properties":{"id":"AC-Y587-X150","grid_x":150,"grid_y":587,"centroid":[-73.154735,-8.6457344],"aggregation":"none","score_gradboost":0.0106616,"score_random_forest":0.0028193,"score_logistic_regression":0.0525064,"score_fuzzy_knn_k29":0.0},"geometry":{"type":"Polygon","coordinates":[[[-73.1588122,-8.6483885],[-73.150717,-8.6484765],[-73.1506578,-8.6430803],[-73.1587529,-8.6429924],[-73.1588122,-8.6483885]]]}},{"type":"Feature","id":"AC-Y588-X144","properties":{"id":"AC-Y588-X144","grid_x":144,"grid_y":588,"centroid":[-73.2032444,-8.6398077],"aggregation":"none","score_gradboost":0.022135,"score_random_forest":0.0279059,"score_logistic_regression":0.0539967,"score_fuzzy_knn_k29":0.0773489},"geometry":{"type":"Polygon","coordinates":[[[-73.2073216,-8.6424611],[-73.1992271,-8.6425501],[-73.1991673,-8.6371542],[-73.2072617,-8.6370653],[-73.2073216,-8.6424611]]]}},{"type":"Feature","id":"AC-Y588-X145","properties":{"id":"AC-Y588-X145","grid_x":145,"grid_y":588,"centroid":[-73.1951499,-8.6398965],"aggregation":"none","score_gradboost":0.0342049,"score_random_forest":0.0268534,"score_logistic_regression":0.0522543,"score_fuzzy_knn_k29":0.0648027},"geometry":{"type":"Polygon","coordinates":[[[-73.1992271,-8.6425501],[-73.1911324,-8.6426389],[-73.1910727,-8.6372429],[-73.1991673,-8.6371542],[-73.1992271,-8.6425501]]]}},{"type":"Feature","id":"AC-Y588-X146","properties":{"id":"AC-Y588-X146","grid_x":146,"grid_y":588,"centroid":[-73.1870552,-8.6399852],"aggregation":"none","score_gradboost":0.0321833,"score_random_forest":0.0414322,"score_logistic_regression":0.0628857,"score_fuzzy_knn_k29":0.1252991},"geometry":{"type":"Polygon","coordinates":[[[-73.1911324,-8.6426389],[-73.1830377,-8.6427275],[-73.1829781,-8.6373315],[-73.1910727,-8.6372429],[-73.1911324,-8.6426389]]]}},{"type":"Feature","id":"AC-Y588-X147","properties":{"id":"AC-Y588-X147","grid_x":147,"grid_y":588,"centroid":[-73.1789605,-8.6400737],"aggregation":"none","score_gradboost":0.1131362,"score_random_forest":0.077209,"score_logistic_regression":0.0264308,"score_fuzzy_knn_k29":0.0812768},"geometry":{"type":"Polygon","coordinates":[[[-73.1830377,-8.6427275],[-73.1749428,-8.642816],[-73.1748834,-8.6374199],[-73.1829781,-8.6373315],[-73.1830377,-8.6427275]]]}},{"type":"Feature","id":"AC-Y588-X148","properties":{"id":"AC-Y588-X148","grid_x":148,"grid_y":588,"centroid":[-73.1708657,-8.6401621],"aggregation":"none","score_gradboost":0.0993332,"score_random_forest":0.0659612,"score_logistic_regression":0.0383736,"score_fuzzy_knn_k29":0.0912651},"geometry":{"type":"Polygon","coordinates":[[[-73.1749428,-8.642816],[-73.1668479,-8.6429042],[-73.1667886,-8.6375081],[-73.1748834,-8.6374199],[-73.1749428,-8.642816]]]}},{"type":"Feature","id":"AC-Y588-X149","properties":{"id":"AC-Y588-X149","grid_x":149,"grid_y":588,"centroid":[-73.1627708,-8.6402502],"aggregation":"none","score_gradboost":0.022754,"score_random_forest":0.0153733,"score_logistic_regression":0.0595879,"score_fuzzy_knn_k29":0.0057978},"geometry":{"type":"Polygon","coordinates":[[[-73.1668479,-8.6429042],[-73.1587529,-8.6429924],[-73.1586937,-8.6375962],[-73.1667886,-8.6375081],[-73.1668479,-8.6429042]]]}},{"type":"Feature","id":"AC-Y588-X150","properties":{"id":"AC-Y588-X150","grid_x":150,"grid_y":588,"centroid":[-73.1546758,-8.6403382],"aggregation":"none","score_gradboost":0.0106616,"score_random_forest":0.0046548,"score_logistic_regression":0.0624268,"score_fuzzy_knn_k29":0.0},"geometry":{"type":"Polygon","coordinates":[[[-73.1587529,-8.6429924],[-73.1506578,-8.6430803],[-73.1505987,-8.6376841],[-73.1586937,-8.6375962],[-73.1587529,-8.6429924]]]}},{"type":"Feature","id":"AC-Y589-X144","properties":{"id":"AC-Y589-X144","grid_x":144,"grid_y":589,"centroid":[-73.2031846,-8.6344118],"aggregation":"none","score_gradboost":0.0316995,"score_random_forest":0.0512839,"score_logistic_regression":0.0450471,"score_fuzzy_knn_k29":0.0193224},"geometry":{"type":"Polygon","coordinates":[[[-73.2072617,-8.6370653],[-73.1991673,-8.6371542],[-73.1991075,-8.6317583],[-73.2072018,-8.6316695],[-73.2072617,-8.6370653]]]}},{"type":"Feature","id":"AC-Y589-X145","properties":{"id":"AC-Y589-X145","grid_x":145,"grid_y":589,"centroid":[-73.1950901,-8.6345006],"aggregation":"none","score_gradboost":0.0343868,"score_random_forest":0.028008,"score_logistic_regression":0.0472118,"score_fuzzy_knn_k29":0.022235},"geometry":{"type":"Polygon","coordinates":[[[-73.1991673,-8.6371542],[-73.1910727,-8.6372429],[-73.1910131,-8.631847],[-73.1991075,-8.6317583],[-73.1991673,-8.6371542]]]}},{"type":"Feature","id":"AC-Y589-X146","properties":{"id":"AC-Y589-X146","grid_x":146,"grid_y":589,"centroid":[-73.1869956,-8.6345893],"aggregation":"none","score_gradboost":0.0756185,"score_random_forest":0.0544957,"score_logistic_regression":0.0691559,"score_fuzzy_knn_k29":0.144928},"geometry":{"type":"Polygon","coordinates":[[[-73.1910727,-8.6372429],[-73.1829781,-8.6373315],[-73.1829185,-8.6319355],[-73.1910131,-8.631847],[-73.1910727,-8.6372429]]]}},{"type":"Feature","id":"AC-Y589-X147","properties":{"id":"AC-Y589-X147","grid_x":147,"grid_y":589,"centroid":[-73.178901,-8.6346777],"aggregation":"none","score_gradboost":0.0866367,"score_random_forest":0.0637355,"score_logistic_regression":0.0325105,"score_fuzzy_knn_k29":0.1004611},"geometry":{"type":"Polygon","coordinates":[[[-73.1829781,-8.6373315],[-73.1748834,-8.6374199],[-73.1748239,-8.6320238],[-73.1829185,-8.6319355],[-73.1829781,-8.6373315]]]}},{"type":"Feature","id":"AC-Y589-X148","properties":{"id":"AC-Y589-X148","grid_x":148,"grid_y":589,"centroid":[-73.1708063,-8.634766],"aggregation":"none","score_gradboost":0.1105019,"score_random_forest":0.1441256,"score_logistic_regression":0.037872,"score_fuzzy_knn_k29":0.0903296},"geometry":{"type":"Polygon","coordinates":[[[-73.1748834,-8.6374199],[-73.1667886,-8.6375081],[-73.1667293,-8.632112],[-73.1748239,-8.6320238],[-73.1748834,-8.6374199]]]}},{"type":"Feature","id":"AC-Y589-X149","properties":{"id":"AC-Y589-X149","grid_x":149,"grid_y":589,"centroid":[-73.1627115,-8.6348541],"aggregation":"none","score_gradboost":0.0745432,"score_random_forest":0.0501505,"score_logistic_regression":0.03356,"score_fuzzy_knn_k29":0.0785231},"geometry":{"type":"Polygon","coordinates":[[[-73.1667886,-8.6375081],[-73.1586937,-8.6375962],[-73.1586345,-8.6322],[-73.1667293,-8.632112],[-73.1667886,-8.6375081]]]}},{"type":"Feature","id":"AC-Y589-X150","properties":{"id":"AC-Y589-X150","grid_x":150,"grid_y":589,"centroid":[-73.1546166,-8.6349421],"aggregation":"none","score_gradboost":0.0153941,"score_random_forest":0.0021831,"score_logistic_regression":0.0524473,"score_fuzzy_knn_k29":0.0},"geometry":{"type":"Polygon","coordinates":[[[-73.1586937,-8.6375962],[-73.1505987,-8.6376841],[-73.1505396,-8.6322879],[-73.1586345,-8.6322],[-73.1586937,-8.6375962]]]}},{"type":"Feature","id":"AC-Y590-X145","properties":{"id":"AC-Y590-X145","grid_x":145,"grid_y":590,"centroid":[-73.1950305,-8.6291047],"aggregation":"none","score_gradboost":0.0307884,"score_random_forest":0.0782082,"score_logistic_regression":0.0630673,"score_fuzzy_knn_k29":0.0855639},"geometry":{"type":"Polygon","coordinates":[[[-73.1991075,-8.6317583],[-73.1910131,-8.631847],[-73.1909535,-8.626451],[-73.1990478,-8.6263624],[-73.1991075,-8.6317583]]]}},{"type":"Feature","id":"AC-Y590-X146","properties":{"id":"AC-Y590-X146","grid_x":146,"grid_y":590,"centroid":[-73.186936,-8.6291933],"aggregation":"none","score_gradboost":0.0416818,"score_random_forest":0.0631133,"score_logistic_regression":0.0626592,"score_fuzzy_knn_k29":0.1244432},"geometry":{"type":"Polygon","coordinates":[[[-73.1910131,-8.631847],[-73.1829185,-8.6319355],[-73.182859,-8.6265395],[-73.1909535,-8.626451],[-73.1910131,-8.631847]]]}},{"type":"Feature","id":"AC-Y590-X147","properties":{"id":"AC-Y590-X147","grid_x":147,"grid_y":590,"centroid":[-73.1788415,-8.6292817],"aggregation":"none","score_gradboost":0.0687626,"score_random_forest":0.0865509,"score_logistic_regression":0.0393315,"score_fuzzy_knn_k29":0.0657968},"geometry":{"type":"Polygon","coordinates":[[[-73.1829185,-8.6319355],[-73.1748239,-8.6320238],[-73.1747646,-8.6266278],[-73.182859,-8.6265395],[-73.1829185,-8.6319355]]]}},{"type":"Feature","id":"AC-Y590-X148","properties":{"id":"AC-Y590-X148","grid_x":148,"grid_y":590,"centroid":[-73.1707469,-8.6293699],"aggregation":"none","score_gradboost":0.1237681,"score_random_forest":0.126465,"score_logistic_regression":0.0419029,"score_fuzzy_knn_k29":0.0726787},"geometry":{"type":"Polygon","coordinates":[[[-73.1748239,-8.6320238],[-73.1667293,-8.632112],[-73.16667,-8.6267159],[-73.1747646,-8.6266278],[-73.1748239,-8.6320238]]]}},{"type":"Feature","id":"AC-Y590-X149","properties":{"id":"AC-Y590-X149","grid_x":149,"grid_y":590,"centroid":[-73.1626523,-8.629458],"aggregation":"none","score_gradboost":0.1795899,"score_random_forest":0.1510247,"score_logistic_regression":0.0275325,"score_fuzzy_knn_k29":0.0780207},"geometry":{"type":"Polygon","coordinates":[[[-73.1667293,-8.632112],[-73.1586345,-8.6322],[-73.1585753,-8.6268039],[-73.16667,-8.6267159],[-73.1667293,-8.632112]]]}},{"type":"Feature","id":"AC-Y590-X150","properties":{"id":"AC-Y590-X150","grid_x":150,"grid_y":590,"centroid":[-73.1545575,-8.6295459],"aggregation":"none","score_gradboost":0.0601966,"score_random_forest":0.0505566,"score_logistic_regression":0.0362125,"score_fuzzy_knn_k29":0.0765636},"geometry":{"type":"Polygon","coordinates":[[[-73.1586345,-8.6322],[-73.1505396,-8.6322879],[-73.1504806,-8.6268916],[-73.1585753,-8.6268039],[-73.1586345,-8.6322]]]}},{"type":"Feature","id":"AC-Y586-X139","properties":{"id":"AC-Y586-X139","grid_x":139,"grid_y":586,"centroid":[-73.2438369,-8.650152],"aggregation":"none","score_gradboost":0.0363862,"score_random_forest":0.0275397,"score_logistic_regression":0.039929,"score_fuzzy_knn_k29":0.0240204},"geometry":{"type":"Polygon","coordinates":[[[-73.2479143,-8.6528048],[-73.2398199,-8.6528948],[-73.2397595,-8.6474992],[-73.2478537,-8.6474093],[-73.2479143,-8.6528048]]]}},{"type":"Feature","id":"AC-Y586-X140","properties":{"id":"AC-Y586-X140","grid_x":140,"grid_y":586,"centroid":[-73.2357425,-8.6502418],"aggregation":"none","score_gradboost":0.0316995,"score_random_forest":0.0436887,"score_logistic_regression":0.0388572,"score_fuzzy_knn_k29":0.0},"geometry":{"type":"Polygon","coordinates":[[[-73.2398199,-8.6528948],[-73.2317255,-8.6529845],[-73.2316651,-8.6475889],[-73.2397595,-8.6474992],[-73.2398199,-8.6528948]]]}},{"type":"Feature","id":"AC-Y586-X141","properties":{"id":"AC-Y586-X141","grid_x":141,"grid_y":586,"centroid":[-73.2276481,-8.6503315],"aggregation":"none","score_gradboost":0.0248677,"score_random_forest":0.0121671,"score_logistic_regression":0.0428819,"score_fuzzy_knn_k29":0.0160882},"geometry":{"type":"Polygon","coordinates":[[[-73.2317255,-8.6529845],[-73.2236309,-8.6530741],[-73.2235707,-8.6476784],[-73.2316651,-8.6475889],[-73.2317255,-8.6529845]]]}},{"type":"Feature","id":"AC-Y587-X139","properties":{"id":"AC-Y587-X139","grid_x":139,"grid_y":587,"centroid":[-73.2437764,-8.6447565],"aggregation":"none","score_gradboost":0.0226958,"score_random_forest":0.0236013,"score_logistic_regression":0.0467029,"score_fuzzy_knn_k29":0.0714037},"geometry":{"type":"Polygon","coordinates":[[[-73.2478537,-8.6474093],[-73.2397595,-8.6474992],[-73.2396991,-8.6421036],[-73.2477932,-8.6420137],[-73.2478537,-8.6474093]]]}},{"type":"Feature","id":"AC-Y587-X140","properties":{"id":"AC-Y587-X140","grid_x":140,"grid_y":587,"centroid":[-73.2356821,-8.6448462],"aggregation":"none","score_gradboost":0.0217359,"score_random_forest":0.0234728,"score_logistic_regression":0.0376761,"score_fuzzy_knn_k29":0.0212109},"geometry":{"type":"Polygon","coordinates":[[[-73.2397595,-8.6474992],[-73.2316651,-8.6475889],[-73.2316048,-8.6421932],[-73.2396991,-8.6421036],[-73.2397595,-8.6474992]]]}},{"type":"Feature","id":"AC-Y587-X141","properties":{"id":"AC-Y587-X141","grid_x":141,"grid_y":587,"centroid":[-73.2275878,-8.6449358],"aggregation":"none","score_gradboost":0.0193969,"score_random_forest":0.0492204,"score_logistic_regression":0.035139,"score_fuzzy_knn_k29":0.0},"geometry":{"type":"Polygon","coordinates":[[[-73.2316651,-8.6475889],[-73.2235707,-8.6476784],[-73.2235105,-8.6422827],[-73.2316048,-8.6421932],[-73.2316651,-8.6475889]]]}},{"type":"Feature","id":"AC-Y587-X142","properties":{"id":"AC-Y587-X142","grid_x":142,"grid_y":587,"centroid":[-73.2194934,-8.6450252],"aggregation":"none","score_gradboost":0.044534,"score_random_forest":0.1176209,"score_logistic_regression":0.0454688,"score_fuzzy_knn_k29":0.0168674},"geometry":{"type":"Polygon","coordinates":[[[-73.2235707,-8.6476784],[-73.2154762,-8.6477678],[-73.2154161,-8.642372],[-73.2235105,-8.6422827],[-73.2235707,-8.6476784]]]}},{"type":"Feature","id":"AC-Y588-X139","properties":{"id":"AC-Y588-X139","grid_x":139,"grid_y":588,"centroid":[-73.2437159,-8.6393609],"aggregation":"none","score_gradboost":0.0363862,"score_random_forest":0.0329615,"score_logistic_regression":0.0366866,"score_fuzzy_knn_k29":0.0229972},"geometry":{"type":"Polygon","coordinates":[[[-73.2477932,-8.6420137],[-73.2396991,-8.6421036],[-73.2396387,-8.636708],[-73.2477327,-8.6366182],[-73.2477932,-8.6420137]]]}},{"type":"Feature","id":"AC-Y588-X140","properties":{"id":"AC-Y588-X140","grid_x":140,"grid_y":588,"centroid":[-73.2356218,-8.6394506],"aggregation":"none","score_gradboost":0.0220718,"score_random_forest":0.0345623,"score_logistic_regression":0.0509476,"score_fuzzy_knn_k29":0.061059},"geometry":{"type":"Polygon","coordinates":[[[-73.2396991,-8.6421036],[-73.2316048,-8.6421932],[-73.2315446,-8.6367975],[-73.2396387,-8.636708],[-73.2396991,-8.6421036]]]}},{"type":"Feature","id":"AC-Y588-X141","properties":{"id":"AC-Y588-X141","grid_x":141,"grid_y":588,"centroid":[-73.2275276,-8.6395401],"aggregation":"none","score_gradboost":0.031234,"score_random_forest":0.0238548,"score_logistic_regression":0.0492356,"score_fuzzy_knn_k29":0.0781191},"geometry":{"type":"Polygon","coordinates":[[[-73.2316048,-8.6421932],[-73.2235105,-8.6422827],[-73.2234504,-8.636887],[-73.2315446,-8.6367975],[-73.2316048,-8.6421932]]]}},{"type":"Feature","id":"AC-Y588-X142","properties":{"id":"AC-Y588-X142","grid_x":142,"grid_y":588,"centroid":[-73.2194333,-8.6396295],"aggregation":"none","score_gradboost":0.0300723,"score_random_forest":0.0639398,"score_logistic_regression":0.0538619,"score_fuzzy_knn_k29":0.0805834},"geometry":{"type":"Polygon","coordinates":[[[-73.2235105,-8.6422827],[-73.2154161,-8.642372],[-73.2153561,-8.6369762],[-73.2234504,-8.636887],[-73.2235105,-8.6422827]]]}},{"type":"Feature","id":"AC-Y588-X143","properties":{"id":"AC-Y588-X143","grid_x":143,"grid_y":588,"centroid":[-73.2113389,-8.6397187],"aggregation":"none","score_gradboost":0.0374196,"score_random_forest":0.0724128,"score_logistic_regression":0.0465944,"score_fuzzy_knn_k29":0.0174842},"geometry":{"type":"Polygon","coordinates":[[[-73.2154161,-8.642372],[-73.2073216,-8.6424611],[-73.2072617,-8.6370653],[-73.2153561,-8.6369762],[-73.2154161,-8.642372]]]}},{"type":"Feature","id":"AC-Y589-X139","properties":{"id":"AC-Y589-X139","grid_x":139,"grid_y":589,"centroid":[-73.2436555,-8.6339653],"aggregation":"none","score_gradboost":0.030632,"score_random_forest":0.063209,"score_logistic_regression":0.051458,"score_fuzzy_knn_k29":0.0915064},"geometry":{"type":"Polygon","coordinates":[[[-73.2477327,-8.6366182],[-73.2396387,-8.636708],[-73.2395784,-8.6313124],[-73.2476723,-8.6312227],[-73.2477327,-8.6366182]]]}},{"type":"Feature","id":"AC-Y589-X140","properties":{"id":"AC-Y589-X140","grid_x":140,"grid_y":589,"centroid":[-73.2355615,-8.634055],"aggregation":"none","score_gradboost":0.0366544,"score_random_forest":0.0407812,"score_logistic_regression":0.0507365,"score_fuzzy_knn_k29":0.0647373},"geometry":{"type":"Polygon","coordinates":[[[-73.2396387,-8.636708],[-73.2315446,-8.6367975],[-73.2314844,-8.6314019],[-73.2395784,-8.6313124],[-73.2396387,-8.636708]]]}},{"type":"Feature","id":"AC-Y589-X141","properties":{"id":"AC-Y589-X141","grid_x":141,"grid_y":589,"centroid":[-73.2274674,-8.6341444],"aggregation":"none","score_gradboost":0.0211902,"score_random_forest":0.0362733,"score_logistic_regression":0.0521935,"score_fuzzy_knn_k29":0.0667571},"geometry":{"type":"Polygon","coordinates":[[[-73.2315446,-8.6367975],[-73.2234504,-8.636887],[-73.2233903,-8.6314912],[-73.2314844,-8.6314019],[-73.2315446,-8.6367975]]]}},{"type":"Feature","id":"AC-Y589-X142","properties":{"id":"AC-Y589-X142","grid_x":142,"grid_y":589,"centroid":[-73.2193732,-8.6342337],"aggregation":"none","score_gradboost":0.0358607,"score_random_forest":0.0262776,"score_logistic_regression":0.0493026,"score_fuzzy_knn_k29":0.0767039},"geometry":{"type":"Polygon","coordinates":[[[-73.2234504,-8.636887],[-73.2153561,-8.6369762],[-73.2152961,-8.6315804],[-73.2233903,-8.6314912],[-73.2234504,-8.636887]]]}},{"type":"Feature","id":"AC-Y589-X143","properties":{"id":"AC-Y589-X143","grid_x":143,"grid_y":589,"centroid":[-73.2112789,-8.6343229],"aggregation":"none","score_gradboost":0.0308045,"score_random_forest":0.038953,"score_logistic_regression":0.0460101,"score_fuzzy_knn_k29":0.0231482},"geometry":{"type":"Polygon","coordinates":[[[-73.2153561,-8.6369762],[-73.2072617,-8.6370653],[-73.2072018,-8.6316695],[-73.2152961,-8.6315804],[-73.2153561,-8.6369762]]]}},{"type":"Feature","id":"AC-Y590-X138","properties":{"id":"AC-Y590-X138","grid_x":138,"grid_y":590,"centroid":[-73.2516889,-8.62848],"aggregation":"none","score_gradboost":0.0126392,"score_random_forest":0.0072911,"score_logistic_regression":0.0405145,"score_fuzzy_knn_k29":0.0189197},"geometry":{"type":"Polygon","coordinates":[[[-73.2557661,-8.6311328],[-73.2476723,-8.6312227],[-73.2476119,-8.6258271],[-73.2557056,-8.6257373],[-73.2557661,-8.6311328]]]}},{"type":"Feature","id":"AC-Y590-X139","properties":{"id":"AC-Y590-X139","grid_x":139,"grid_y":590,"centroid":[-73.2435951,-8.6285697],"aggregation":"none","score_gradboost":0.044534,"score_random_forest":0.0938443,"score_logistic_regression":0.0399269,"score_fuzzy_knn_k29":0.0208462},"geometry":{"type":"Polygon","coordinates":[[[-73.2476723,-8.6312227],[-73.2395784,-8.6313124],[-73.2395181,-8.6259168],[-73.2476119,-8.6258271],[-73.2476723,-8.6312227]]]}},{"type":"Feature","id":"AC-Y590-X140","properties":{"id":"AC-Y590-X140","grid_x":140,"grid_y":590,"centroid":[-73.2355012,-8.6286593],"aggregation":"none","score_gradboost":0.0308045,"score_random_forest":0.0460317,"score_logistic_regression":0.0455882,"score_fuzzy_knn_k29":0.0642408},"geometry":{"type":"Polygon","coordinates":[[[-73.2395784,-8.6313124],[-73.2314844,-8.6314019],[-73.2314242,-8.6260062],[-73.2395181,-8.6259168],[-73.2395784,-8.6313124]]]}},{"type":"Feature","id":"AC-Y590-X141","properties":{"id":"AC-Y590-X141","grid_x":141,"grid_y":590,"centroid":[-73.2274073,-8.6287487],"aggregation":"none","score_gradboost":0.0316939,"score_random_forest":0.0187203,"score_logistic_regression":0.0421166,"score_fuzzy_knn_k29":0.0250581},"geometry":{"type":"Polygon","coordinates":[[[-73.2314844,-8.6314019],[-73.2233903,-8.6314912],[-73.2233302,-8.6260955],[-73.2314242,-8.6260062],[-73.2314844,-8.6314019]]]}},{"type":"Feature","id":"AC-Y590-X142","properties":{"id":"AC-Y590-X142","grid_x":142,"grid_y":590,"centroid":[-73.2193132,-8.628838],"aggregation":"none","score_gradboost":0.0213394,"score_random_forest":0.0377847,"score_logistic_regression":0.0559867,"score_fuzzy_knn_k29":0.0945582},"geometry":{"type":"Polygon","coordinates":[[[-73.2233903,-8.6314912],[-73.2152961,-8.6315804],[-73.2152361,-8.6261847],[-73.2233302,-8.6260955],[-73.2233903,-8.6314912]]]}},{"type":"Feature","id":"AC-Y590-X143","properties":{"id":"AC-Y590-X143","grid_x":143,"grid_y":590,"centroid":[-73.211219,-8.6289271],"aggregation":"none","score_gradboost":0.0366544,"score_random_forest":0.0395207,"score_logistic_regression":0.053653,"score_fuzzy_knn_k29":0.0765503},"geometry":{"type":"Polygon","coordinates":[[[-73.2152961,-8.6315804],[-73.2072018,-8.6316695],[-73.207142,-8.6262736],[-73.2152361,-8.6261847],[-73.2152961,-8.6315804]]]}},{"type":"Feature","id":"AC-Y590-X144","properties":{"id":"AC-Y590-X144","grid_x":144,"grid_y":590,"centroid":[-73.2031248,-8.629016],"aggregation":"none","score_gradboost":0.0308045,"score_random_forest":0.0394122,"score_logistic_regression":0.0450215,"score_fuzzy_knn_k29":0.0212701},"geometry":{"type":"Polygon","coordinates":[[[-73.2072018,-8.6316695],[-73.1991075,-8.6317583],[-73.1990478,-8.6263624],[-73.207142,-8.6262736],[-73.2072018,-8.6316695]]]}},{"type":"Feature","id":"AC-Y576-X150","properties":{"id":"AC-Y576-X150","grid_x":150,"grid_y":576,"centroid":[-73.1553887,-8.7050924],"aggregation":"none","score_gradboost":0.0273737,"score_random_forest":0.0411343,"score_logistic_regression":0.0193972,"score_fuzzy_knn_k29":0.0511027},"geometry":{"type":"Polygon","coordinates":[[[-73.1594667,-8.7077462],[-73.1513702,-8.7078348],[-73.1513107,-8.7024386],[-73.159407,-8.70235],[-73.1594667,-8.7077462]]]}},{"type":"Feature","id":"AC-Y577-X149","properties":{"id":"AC-Y577-X149","grid_x":149,"grid_y":577,"centroid":[-73.1634253,-8.6996076],"aggregation":"none","score_gradboost":0.0239742,"score_random_forest":0.0216386,"score_logistic_regression":0.0198393,"score_fuzzy_knn_k29":0.0436446},"geometry":{"type":"Polygon","coordinates":[[[-73.1675033,-8.7022613],[-73.159407,-8.70235],[-73.1593474,-8.6969539],[-73.1674435,-8.6968652],[-73.1675033,-8.7022613]]]}},{"type":"Feature","id":"AC-Y577-X150","properties":{"id":"AC-Y577-X150","grid_x":150,"grid_y":577,"centroid":[-73.155329,-8.6996962],"aggregation":"none","score_gradboost":0.0294973,"score_random_forest":0.0636447,"score_logistic_regression":0.0190306,"score_fuzzy_knn_k29":0.0471983},"geometry":{"type":"Polygon","coordinates":[[[-73.159407,-8.70235],[-73.1513107,-8.7024386],[-73.1512511,-8.6970424],[-73.1593474,-8.6969539],[-73.159407,-8.70235]]]}},{"type":"Feature","id":"AC-Y578-X148","properties":{"id":"AC-Y578-X148","grid_x":148,"grid_y":578,"centroid":[-73.1714616,-8.6941228],"aggregation":"none","score_gradboost":0.0150327,"score_random_forest":0.0307105,"score_logistic_regression":0.0532009,"score_fuzzy_knn_k29":0.0},"geometry":{"type":"Polygon","coordinates":[[[-73.1755396,-8.6967764],[-73.1674435,-8.6968652],[-73.1673838,-8.6914691],[-73.1754797,-8.6913803],[-73.1755396,-8.6967764]]]}},{"type":"Feature","id":"AC-Y578-X149","properties":{"id":"AC-Y578-X149","grid_x":149,"grid_y":578,"centroid":[-73.1633656,-8.6942115],"aggregation":"none","score_gradboost":0.0250008,"score_random_forest":0.0084292,"score_logistic_regression":0.0239656,"score_fuzzy_knn_k29":0.0540758},"geometry":{"type":"Polygon","coordinates":[[[-73.1674435,-8.6968652],[-73.1593474,-8.6969539],[-73.1592877,-8.6915577],[-73.1673838,-8.6914691],[-73.1674435,-8.6968652]]]}},{"type":"Feature","id":"AC-Y578-X150","properties":{"id":"AC-Y578-X150","grid_x":150,"grid_y":578,"centroid":[-73.1552695,-8.6943001],"aggregation":"none","score_gradboost":0.033369,"score_random_forest":0.1384301,"score_logistic_regression":0.0184115,"score_fuzzy_knn_k29":0.0404182},"geometry":{"type":"Polygon","coordinates":[[[-73.1593474,-8.6969539],[-73.1512511,-8.6970424],[-73.1511916,-8.6916462],[-73.1592877,-8.6915577],[-73.1593474,-8.6969539]]]}},{"type":"Feature","id":"AC-Y579-X147","properties":{"id":"AC-Y579-X147","grid_x":147,"grid_y":579,"centroid":[-73.1794977,-8.6886379],"aggregation":"none","score_gradboost":0.0066764,"score_random_forest":0.0,"score_logistic_regression":0.0452257,"score_fuzzy_knn_k29":0.0},"geometry":{"type":"Polygon","coordinates":[[[-73.1835756,-8.6912914],[-73.1754797,-8.6913803],[-73.1754199,-8.6859843],[-73.1835157,-8.6858954],[-73.1835756,-8.6912914]]]}},{"type":"Feature","id":"AC-Y579-X148","properties":{"id":"AC-Y579-X148","grid_x":148,"grid_y":579,"centroid":[-73.1714019,-8.6887267],"aggregation":"none","score_gradboost":0.0066764,"score_random_forest":0.0002568,"score_logistic_regression":0.0425968,"score_fuzzy_knn_k29":0.0},"geometry":{"type":"Polygon","coordinates":[[[-73.1754797,-8.6913803],[-73.1673838,-8.6914691],[-73.1673241,-8.686073],[-73.1754199,-8.6859843],[-73.1754797,-8.6913803]]]}},{"type":"Feature","id":"AC-Y579-X149","properties":{"id":"AC-Y579-X149","grid_x":149,"grid_y":579,"centroid":[-73.1633059,-8.6888154],"aggregation":"none","score_gradboost":0.0176828,"score_random_forest":0.0216534,"score_logistic_regression":0.0210513,"score_fuzzy_knn_k29":0.0350048},"geometry":{"type":"Polygon","coordinates":[[[-73.1673838,-8.6914691],[-73.1592877,-8.6915577],[-73.1592282,-8.6861616],[-73.1673241,-8.686073],[-73.1673838,-8.6914691]]]}},{"type":"Feature","id":"AC-Y579-X150","properties":{"id":"AC-Y579-X150","grid_x":150,"grid_y":579,"centroid":[-73.1552099,-8.6889039],"aggregation":"none","score_gradboost":0.0250008,"score_random_forest":0.0084292,"score_logistic_regression":0.0246234,"score_fuzzy_knn_k29":0.0576677},"geometry":{"type":"Polygon","coordinates":[[[-73.1592877,-8.6915577],[-73.1511916,-8.6916462],[-73.1511321,-8.68625],[-73.1592282,-8.6861616],[-73.1592877,-8.6915577]]]}},{"type":"Feature","id":"AC-Y580-X147","properties":{"id":"AC-Y580-X147","grid_x":147,"grid_y":580,"centroid":[-73.1794379,-8.6832419],"aggregation":"none","score_gradboost":0.0093524,"score_random_forest":0.002329,"score_logistic_regression":0.0584635,"score_fuzzy_knn_k29":0.0},"geometry":{"type":"Polygon","coordinates":[[[-73.1835157,-8.6858954],[-73.1754199,-8.6859843],[-73.1753601,-8.6805883],[-73.1834558,-8.6804994],[-73.1835157,-8.6858954]]]}},{"type":"Feature","id":"AC-Y580-X148","properties":{"id":"AC-Y580-X148","grid_x":148,"grid_y":580,"centroid":[-73.1713421,-8.6833307],"aggregation":"none","score_gradboost":0.0066764,"score_random_forest":0.0,"score_logistic_regression":0.0418876,"score_fuzzy_knn_k29":0.0},"geometry":{"type":"Polygon","coordinates":[[[-73.1754199,-8.6859843],[-73.1673241,-8.686073],[-73.1672644,-8.6806769],[-73.1753601,-8.6805883],[-73.1754199,-8.6859843]]]}},{"type":"Feature","id":"AC-Y580-X149","properties":{"id":"AC-Y580-X149","grid_x":149,"grid_y":580,"centroid":[-73.1632463,-8.6834193],"aggregation":"none","score_gradboost":0.0074561,"score_random_forest":0.0015661,"score_logistic_regression":0.0236985,"score_fuzzy_knn_k29":0.0289544},"geometry":{"type":"Polygon","coordinates":[[[-73.1673241,-8.686073],[-73.1592282,-8.6861616],[-73.1591686,-8.6807654],[-73.1672644,-8.6806769],[-73.1673241,-8.686073]]]}},{"type":"Feature","id":"AC-Y580-X150","properties":{"id":"AC-Y580-X150","grid_x":150,"grid_y":580,"centroid":[-73.1551504,-8.6835077],"aggregation":"none","score_gradboost":0.0095385,"score_random_forest":0.0272339,"score_logistic_regression":0.0213297,"score_fuzzy_knn_k29":0.034384},"geometry":{"type":"Polygon","coordinates":[[[-73.1592282,-8.6861616],[-73.1511321,-8.68625],[-73.1510727,-8.6808538],[-73.1591686,-8.6807654],[-73.1592282,-8.6861616]]]}},{"type":"Feature","id":"AC-Y581-X148","properties":{"id":"AC-Y581-X148","grid_x":148,"grid_y":581,"centroid":[-73.1712825,-8.6779346],"aggregation":"none","score_gradboost":0.0074561,"score_random_forest":0.0008635,"score_logistic_regression":0.0211746,"score_fuzzy_knn_k29":0.0},"geometry":{"type":"Polygon","coordinates":[[[-73.1753601,-8.6805883],[-73.1672644,-8.6806769],[-73.1672048,-8.6752808],[-73.1753004,-8.6751922],[-73.1753601,-8.6805883]]]}},{"type":"Feature","id":"AC-Y581-X149","properties":{"id":"AC-Y581-X149","grid_x":149,"grid_y":581,"centroid":[-73.1631867,-8.6780232],"aggregation":"none","score_gradboost":0.0074561,"score_random_forest":0.0011203,"score_logistic_regression":0.0212865,"score_fuzzy_knn_k29":0.0200096},"geometry":{"type":"Polygon","coordinates":[[[-73.1672644,-8.6806769],[-73.1591686,-8.6807654],[-73.1591091,-8.6753693],[-73.1672048,-8.6752808],[-73.1672644,-8.6806769]]]}},{"type":"Feature","id":"AC-Y581-X150","properties":{"id":"AC-Y581-X150","grid_x":150,"grid_y":581,"centroid":[-73.155091,-8.6781115],"aggregation":"none","score_gradboost":0.0074561,"score_random_forest":0.0015661,"score_logistic_regression":0.0215072,"score_fuzzy_knn_k29":0.0253768},"geometry":{"type":"Polygon","coordinates":[[[-73.1591686,-8.6807654],[-73.1510727,-8.6808538],[-73.1510133,-8.6754576],[-73.1591091,-8.6753693],[-73.1591686,-8.6807654]]]}},{"type":"Feature","id":"AC-Y582-X149","properties":{"id":"AC-Y582-X149","grid_x":149,"grid_y":582,"centroid":[-73.1631272,-8.672627],"aggregation":"none","score_gradboost":0.0124993,"score_random_forest":0.0015043,"score_logistic_regression":0.0301271,"score_fuzzy_knn_k29":0.0},"geometry":{"type":"Polygon","coordinates":[[[-73.1672048,-8.6752808],[-73.1591091,-8.6753693],[-73.1590496,-8.6699731],[-73.1671452,-8.6698848],[-73.1672048,-8.6752808]]]}},{"type":"Feature","id":"AC-Y582-X150","properties":{"id":"AC-Y582-X150","grid_x":150,"grid_y":582,"centroid":[-73.1550315,-8.6727154],"aggregation":"none","score_gradboost":0.0104209,"score_random_forest":0.0297344,"score_logistic_regression":0.0546313,"score_fuzzy_knn_k29":0.0},"geometry":{"type":"Polygon","coordinates":[[[-73.1591091,-8.6753693],[-73.1510133,-8.6754576],[-73.150954,-8.6700614],[-73.1590496,-8.6699731],[-73.1591091,-8.6753693]]]}},{"type":"Feature","id":"AC-Y583-X150","properties":{"id":"AC-Y583-X150","grid_x":150,"grid_y":583,"centroid":[-73.1549721,-8.6673192],"aggregation":"none","score_gradboost":0.0093524,"score_random_forest":0.002329,"score_logistic_regression":0.0603065,"score_fuzzy_knn_k29":0.0},"geometry":{"type":"Polygon","coordinates":[[[-73.1590496,-8.6699731],[-73.150954,-8.6700614],[-73.1508947,-8.6646652],[-73.1589902,-8.664577],[-73.1590496,-8.6699731]]]}}]}