{"type":"FeatureCollection","features":[{"type":"Feature","id":"AC-Y445-X145","properties":{"id":"AC-Y445-X145","grid_x":145,"grid_y":445,"centroid":[-73.2040912,-9.4114917],"aggregation":"none","score_gradboost":0.0854584,"score_random_forest":0.0528789,"score_logistic_regression":0.0249244,"score_fuzzy_knn_k29":0.0334993},"geometry":{"type":"Polygon","coordinates":[[[-73.2081798,-9.4141411],[-73.200068,-9.4142379],[-73.2000027,-9.4088423],[-73.2081144,-9.4087455],[-73.2081798,-9.4141411]]]}},{"type":"Feature","id":"AC-Y445-X146","properties":{"id":"AC-Y445-X146","grid_x":146,"grid_y":445,"centroid":[-73.1959794,-9.4115884],"aggregation":"none","score_gradboost":0.1640212,"score_random_forest":0.1309206,"score_logistic_regression":0.0261231,"score_fuzzy_knn_k29":0.0462091},"geometry":{"type":"Polygon","coordinates":[[[-73.200068,-9.4142379],[-73.1919561,-9.4143346],[-73.191891,-9.4089389],[-73.2000027,-9.4088423],[-73.200068,-9.4142379]]]}},{"type":"Feature","id":"AC-Y445-X147","properties":{"id":"AC-Y445-X147","grid_x":147,"grid_y":445,"centroid":[-73.1878676,-9.411685],"aggregation":"none","score_gradboost":0.1539782,"score_random_forest":0.0912872,"score_logistic_regression":0.0281682,"score_fuzzy_knn_k29":0.0256552},"geometry":{"type":"Polygon","coordinates":[[[-73.1919561,-9.4143346],[-73.1838441,-9.4144311],[-73.1837791,-9.4090353],[-73.191891,-9.4089389],[-73.1919561,-9.4143346]]]}},{"type":"Feature","id":"AC-Y446-X145","properties":{"id":"AC-Y446-X145","grid_x":145,"grid_y":446,"centroid":[-73.2040259,-9.4060961],"aggregation":"none","score_gradboost":0.0137001,"score_random_forest":0.0284034,"score_logistic_regression":0.02306,"score_fuzzy_knn_k29":0.0402057},"geometry":{"type":"Polygon","coordinates":[[[-73.2081144,-9.4087455],[-73.2000027,-9.4088423],[-73.1999375,-9.4034466],[-73.2080491,-9.4033499],[-73.2081144,-9.4087455]]]}},{"type":"Feature","id":"AC-Y446-X146","properties":{"id":"AC-Y446-X146","grid_x":146,"grid_y":446,"centroid":[-73.1959143,-9.4061928],"aggregation":"none","score_gradboost":0.1143189,"score_random_forest":0.1059283,"score_logistic_regression":0.0306176,"score_fuzzy_knn_k29":0.0312356},"geometry":{"type":"Polygon","coordinates":[[[-73.2000027,-9.4088423],[-73.191891,-9.4089389],[-73.1918259,-9.4035432],[-73.1999375,-9.4034466],[-73.2000027,-9.4088423]]]}},{"type":"Feature","id":"AC-Y446-X147","properties":{"id":"AC-Y446-X147","grid_x":147,"grid_y":446,"centroid":[-73.1878025,-9.4062893],"aggregation":"none","score_gradboost":0.0885169,"score_random_forest":0.1052909,"score_logistic_regression":0.0318661,"score_fuzzy_knn_k29":0.0401718},"geometry":{"type":"Polygon","coordinates":[[[-73.191891,-9.4089389],[-73.1837791,-9.4090353],[-73.1837142,-9.4036395],[-73.1918259,-9.4035432],[-73.191891,-9.4089389]]]}},{"type":"Feature","id":"AC-Y446-X148","properties":{"id":"AC-Y446-X148","grid_x":148,"grid_y":446,"centroid":[-73.1796907,-9.4063856],"aggregation":"none","score_gradboost":0.1594362,"score_random_forest":0.1011202,"score_logistic_regression":0.0279449,"score_fuzzy_knn_k29":0.0407987},"geometry":{"type":"Polygon","coordinates":[[[-73.1837791,-9.4090353],[-73.1756672,-9.4091316],[-73.1756024,-9.4037357],[-73.1837142,-9.4036395],[-73.1837791,-9.4090353]]]}},{"type":"Feature","id":"AC-Y446-X149","properties":{"id":"AC-Y446-X149","grid_x":149,"grid_y":446,"centroid":[-73.1715788,-9.4064817],"aggregation":"none","score_gradboost":0.1157913,"score_random_forest":0.1052181,"score_logistic_regression":0.036844,"score_fuzzy_knn_k29":0.0157727},"geometry":{"type":"Polygon","coordinates":[[[-73.1756672,-9.4091316],[-73.1675552,-9.4092276],[-73.1674905,-9.4038317],[-73.1756024,-9.4037357],[-73.1756672,-9.4091316]]]}},{"type":"Feature","id":"AC-Y446-X150","properties":{"id":"AC-Y446-X150","grid_x":150,"grid_y":446,"centroid":[-73.1634668,-9.4065776],"aggregation":"none","score_gradboost":0.1540101,"score_random_forest":0.117038,"score_logistic_regression":0.0301251,"score_fuzzy_knn_k29":0.037358},"geometry":{"type":"Polygon","coordinates":[[[-73.1675552,-9.4092276],[-73.1594431,-9.4093235],[-73.1593785,-9.4039275],[-73.1674905,-9.4038317],[-73.1675552,-9.4092276]]]}},{"type":"Feature","id":"AC-Y446-X151","properties":{"id":"AC-Y446-X151","grid_x":151,"grid_y":446,"centroid":[-73.1553547,-9.4066734],"aggregation":"none","score_gradboost":0.1365724,"score_random_forest":0.0890889,"score_logistic_regression":0.028817,"score_fuzzy_knn_k29":0.0460359},"geometry":{"type":"Polygon","coordinates":[[[-73.1594431,-9.4093235],[-73.1513309,-9.4094192],[-73.1512664,-9.4040232],[-73.1593785,-9.4039275],[-73.1594431,-9.4093235]]]}},{"type":"Feature","id":"AC-Y447-X146","properties":{"id":"AC-Y447-X146","grid_x":146,"grid_y":447,"centroid":[-73.1958491,-9.4007971],"aggregation":"none","score_gradboost":0.1111854,"score_random_forest":0.0947908,"score_logistic_regression":0.0303209,"score_fuzzy_knn_k29":0.0},"geometry":{"type":"Polygon","coordinates":[[[-73.1999375,-9.4034466],[-73.1918259,-9.4035432],[-73.1917608,-9.3981475],[-73.1998723,-9.398051],[-73.1999375,-9.4034466]]]}},{"type":"Feature","id":"AC-Y447-X147","properties":{"id":"AC-Y447-X147","grid_x":147,"grid_y":447,"centroid":[-73.1877375,-9.4008935],"aggregation":"none","score_gradboost":0.1411455,"score_random_forest":0.0921992,"score_logistic_regression":0.0275965,"score_fuzzy_knn_k29":0.0420204},"geometry":{"type":"Polygon","coordinates":[[[-73.1918259,-9.4035432],[-73.1837142,-9.4036395],[-73.1836492,-9.3982438],[-73.1917608,-9.3981475],[-73.1918259,-9.4035432]]]}},{"type":"Feature","id":"AC-Y447-X148","properties":{"id":"AC-Y447-X148","grid_x":148,"grid_y":447,"centroid":[-73.1796258,-9.4009898],"aggregation":"none","score_gradboost":0.1023156,"score_random_forest":0.1197775,"score_logistic_regression":0.0297132,"score_fuzzy_knn_k29":0.0428613},"geometry":{"type":"Polygon","coordinates":[[[-73.1837142,-9.4036395],[-73.1756024,-9.4037357],[-73.1755376,-9.3983399],[-73.1836492,-9.3982438],[-73.1837142,-9.4036395]]]}},{"type":"Feature","id":"AC-Y447-X149","properties":{"id":"AC-Y447-X149","grid_x":149,"grid_y":447,"centroid":[-73.171514,-9.4010858],"aggregation":"none","score_gradboost":0.118152,"score_random_forest":0.100603,"score_logistic_regression":0.0349006,"score_fuzzy_knn_k29":0.0372153},"geometry":{"type":"Polygon","coordinates":[[[-73.1756024,-9.4037357],[-73.1674905,-9.4038317],[-73.1674258,-9.3984359],[-73.1755376,-9.3983399],[-73.1756024,-9.4037357]]]}},{"type":"Feature","id":"AC-Y447-X150","properties":{"id":"AC-Y447-X150","grid_x":150,"grid_y":447,"centroid":[-73.1634022,-9.4011817],"aggregation":"none","score_gradboost":0.1411752,"score_random_forest":0.1187283,"score_logistic_regression":0.0286476,"score_fuzzy_knn_k29":0.0487125},"geometry":{"type":"Polygon","coordinates":[[[-73.1674905,-9.4038317],[-73.1593785,-9.4039275],[-73.1593139,-9.3985316],[-73.1674258,-9.3984359],[-73.1674905,-9.4038317]]]}},{"type":"Feature","id":"AC-Y447-X151","properties":{"id":"AC-Y447-X151","grid_x":151,"grid_y":447,"centroid":[-73.1552902,-9.4012774],"aggregation":"none","score_gradboost":0.0884347,"score_random_forest":0.1059539,"score_logistic_regression":0.0432307,"score_fuzzy_knn_k29":0.0405553},"geometry":{"type":"Polygon","coordinates":[[[-73.1593785,-9.4039275],[-73.1512664,-9.4040232],[-73.151202,-9.3986272],[-73.1593139,-9.3985316],[-73.1593785,-9.4039275]]]}},{"type":"Feature","id":"AC-Y448-X146","properties":{"id":"AC-Y448-X146","grid_x":146,"grid_y":448,"centroid":[-73.1957841,-9.3954014],"aggregation":"none","score_gradboost":0.0602277,"score_random_forest":0.0258109,"score_logistic_regression":0.0391475,"score_fuzzy_knn_k29":0.026633},"geometry":{"type":"Polygon","coordinates":[[[-73.1998723,-9.398051],[-73.1917608,-9.3981475],[-73.1916958,-9.3927517],[-73.1998072,-9.3926553],[-73.1998723,-9.398051]]]}},{"type":"Feature","id":"AC-Y448-X147","properties":{"id":"AC-Y448-X147","grid_x":147,"grid_y":448,"centroid":[-73.1876726,-9.3954978],"aggregation":"none","score_gradboost":0.0137001,"score_random_forest":0.0262173,"score_logistic_regression":0.0245514,"score_fuzzy_knn_k29":0.0401205},"geometry":{"type":"Polygon","coordinates":[[[-73.1917608,-9.3981475],[-73.1836492,-9.3982438],[-73.1835844,-9.392848],[-73.1916958,-9.3927517],[-73.1917608,-9.3981475]]]}},{"type":"Feature","id":"AC-Y448-X148","properties":{"id":"AC-Y448-X148","grid_x":148,"grid_y":448,"centroid":[-73.179561,-9.395594],"aggregation":"none","score_gradboost":0.1111854,"score_random_forest":0.0711238,"score_logistic_regression":0.0321106,"score_fuzzy_knn_k29":0.0103303},"geometry":{"type":"Polygon","coordinates":[[[-73.1836492,-9.3982438],[-73.1755376,-9.3983399],[-73.1754728,-9.3929441],[-73.1835844,-9.392848],[-73.1836492,-9.3982438]]]}},{"type":"Feature","id":"AC-Y448-X149","properties":{"id":"AC-Y448-X149","grid_x":149,"grid_y":448,"centroid":[-73.1714493,-9.39569],"aggregation":"none","score_gradboost":0.1365724,"score_random_forest":0.0912188,"score_logistic_regression":0.0287802,"score_fuzzy_knn_k29":0.0461257},"geometry":{"type":"Polygon","coordinates":[[[-73.1755376,-9.3983399],[-73.1674258,-9.3984359],[-73.1673612,-9.39304],[-73.1754728,-9.3929441],[-73.1755376,-9.3983399]]]}},{"type":"Feature","id":"AC-Y448-X150","properties":{"id":"AC-Y448-X150","grid_x":150,"grid_y":448,"centroid":[-73.1633376,-9.3957858],"aggregation":"none","score_gradboost":0.1119326,"score_random_forest":0.1057174,"score_logistic_regression":0.0374771,"score_fuzzy_knn_k29":0.0210374},"geometry":{"type":"Polygon","coordinates":[[[-73.1674258,-9.3984359],[-73.1593139,-9.3985316],[-73.1592494,-9.3931357],[-73.1673612,-9.39304],[-73.1674258,-9.3984359]]]}},{"type":"Feature","id":"AC-Y448-X151","properties":{"id":"AC-Y448-X151","grid_x":151,"grid_y":448,"centroid":[-73.1552257,-9.3958814],"aggregation":"none","score_gradboost":0.1104791,"score_random_forest":0.0670209,"score_logistic_regression":0.0350439,"score_fuzzy_knn_k29":0.0256233},"geometry":{"type":"Polygon","coordinates":[[[-73.1593139,-9.3985316],[-73.151202,-9.3986272],[-73.1511376,-9.3932312],[-73.1592494,-9.3931357],[-73.1593139,-9.3985316]]]}},{"type":"Feature","id":"AC-Y449-X147","properties":{"id":"AC-Y449-X147","grid_x":147,"grid_y":449,"centroid":[-73.1876076,-9.390102],"aggregation":"none","score_gradboost":0.0722502,"score_random_forest":0.0889185,"score_logistic_regression":0.0317114,"score_fuzzy_knn_k29":0.0229866},"geometry":{"type":"Polygon","coordinates":[[[-73.1916958,-9.3927517],[-73.1835844,-9.392848],[-73.1835195,-9.3874522],[-73.1916308,-9.387356],[-73.1916958,-9.3927517]]]}},{"type":"Feature","id":"AC-Y449-X148","properties":{"id":"AC-Y449-X148","grid_x":148,"grid_y":449,"centroid":[-73.1794962,-9.3901982],"aggregation":"none","score_gradboost":0.0767931,"score_random_forest":0.0314577,"score_logistic_regression":0.0270959,"score_fuzzy_knn_k29":0.0349183},"geometry":{"type":"Polygon","coordinates":[[[-73.1835844,-9.392848],[-73.1754728,-9.3929441],[-73.1754081,-9.3875482],[-73.1835195,-9.3874522],[-73.1835844,-9.392848]]]}},{"type":"Feature","id":"AC-Y449-X149","properties":{"id":"AC-Y449-X149","grid_x":149,"grid_y":449,"centroid":[-73.1713847,-9.3902941],"aggregation":"none","score_gradboost":0.0614235,"score_random_forest":0.0300074,"score_logistic_regression":0.0343111,"score_fuzzy_knn_k29":0.0269797},"geometry":{"type":"Polygon","coordinates":[[[-73.1754728,-9.3929441],[-73.1673612,-9.39304],[-73.1672966,-9.3876441],[-73.1754081,-9.3875482],[-73.1754728,-9.3929441]]]}},{"type":"Feature","id":"AC-Y449-X150","properties":{"id":"AC-Y449-X150","grid_x":150,"grid_y":449,"centroid":[-73.163273,-9.3903899],"aggregation":"none","score_gradboost":0.0649704,"score_random_forest":0.0431619,"score_logistic_regression":0.0299511,"score_fuzzy_knn_k29":0.0299057},"geometry":{"type":"Polygon","coordinates":[[[-73.1673612,-9.39304],[-73.1592494,-9.3931357],[-73.159185,-9.3877397],[-73.1672966,-9.3876441],[-73.1673612,-9.39304]]]}},{"type":"Feature","id":"AC-Y449-X151","properties":{"id":"AC-Y449-X151","grid_x":151,"grid_y":449,"centroid":[-73.1551613,-9.3904855],"aggregation":"none","score_gradboost":0.0632399,"score_random_forest":0.0295174,"score_logistic_regression":0.0372101,"score_fuzzy_knn_k29":0.0333589},"geometry":{"type":"Polygon","coordinates":[[[-73.1592494,-9.3931357],[-73.1511376,-9.3932312],[-73.1510733,-9.3878352],[-73.159185,-9.3877397],[-73.1592494,-9.3931357]]]}},{"type":"Feature","id":"AC-Y450-X147","properties":{"id":"AC-Y450-X147","grid_x":147,"grid_y":450,"centroid":[-73.1875427,-9.3847063],"aggregation":"none","score_gradboost":0.0428227,"score_random_forest":0.0481629,"score_logistic_regression":0.0315317,"score_fuzzy_knn_k29":0.0219924},"geometry":{"type":"Polygon","coordinates":[[[-73.1916308,-9.387356],[-73.1835195,-9.3874522],[-73.1834547,-9.3820565],[-73.1915659,-9.3819603],[-73.1916308,-9.387356]]]}},{"type":"Feature","id":"AC-Y450-X148","properties":{"id":"AC-Y450-X148","grid_x":148,"grid_y":450,"centroid":[-73.1794314,-9.3848024],"aggregation":"none","score_gradboost":0.0449698,"score_random_forest":0.0641507,"score_logistic_regression":0.0331697,"score_fuzzy_knn_k29":0.0215572},"geometry":{"type":"Polygon","coordinates":[[[-73.1835195,-9.3874522],[-73.1754081,-9.3875482],[-73.1753434,-9.3821524],[-73.1834547,-9.3820565],[-73.1835195,-9.3874522]]]}},{"type":"Feature","id":"AC-Y450-X149","properties":{"id":"AC-Y450-X149","grid_x":149,"grid_y":450,"centroid":[-73.17132,-9.3848983],"aggregation":"none","score_gradboost":0.0657922,"score_random_forest":0.0911219,"score_logistic_regression":0.0310739,"score_fuzzy_knn_k29":0.0267137},"geometry":{"type":"Polygon","coordinates":[[[-73.1754081,-9.3875482],[-73.1672966,-9.3876441],[-73.167232,-9.3822482],[-73.1753434,-9.3821524],[-73.1754081,-9.3875482]]]}},{"type":"Feature","id":"AC-Y450-X150","properties":{"id":"AC-Y450-X150","grid_x":150,"grid_y":450,"centroid":[-73.1632085,-9.384994],"aggregation":"none","score_gradboost":0.0428227,"score_random_forest":0.0515237,"score_logistic_regression":0.032832,"score_fuzzy_knn_k29":0.0233365},"geometry":{"type":"Polygon","coordinates":[[[-73.1672966,-9.3876441],[-73.159185,-9.3877397],[-73.1591205,-9.3823438],[-73.167232,-9.3822482],[-73.1672966,-9.3876441]]]}},{"type":"Feature","id":"AC-Y450-X151","properties":{"id":"AC-Y450-X151","grid_x":151,"grid_y":450,"centroid":[-73.1550969,-9.3850895],"aggregation":"none","score_gradboost":0.0666311,"score_random_forest":0.0401797,"score_logistic_regression":0.0347427,"score_fuzzy_knn_k29":0.0206443},"geometry":{"type":"Polygon","coordinates":[[[-73.159185,-9.3877397],[-73.1510733,-9.3878352],[-73.151009,-9.3824392],[-73.1591205,-9.3823438],[-73.159185,-9.3877397]]]}},{"type":"Feature","id":"AC-Y451-X147","properties":{"id":"AC-Y451-X147","grid_x":147,"grid_y":451,"centroid":[-73.1874779,-9.3793105],"aggregation":"none","score_gradboost":0.0306381,"score_random_forest":0.0188232,"score_logistic_regression":0.0345253,"score_fuzzy_knn_k29":0.0},"geometry":{"type":"Polygon","coordinates":[[[-73.1915659,-9.3819603],[-73.1834547,-9.3820565],[-73.1833899,-9.3766607],[-73.191501,-9.3765646],[-73.1915659,-9.3819603]]]}},{"type":"Feature","id":"AC-Y451-X148","properties":{"id":"AC-Y451-X148","grid_x":148,"grid_y":451,"centroid":[-73.1793667,-9.3794066],"aggregation":"none","score_gradboost":0.0228848,"score_random_forest":0.0095598,"score_logistic_regression":0.0411244,"score_fuzzy_knn_k29":0.0},"geometry":{"type":"Polygon","coordinates":[[[-73.1834547,-9.3820565],[-73.1753434,-9.3821524],[-73.1752787,-9.3767566],[-73.1833899,-9.3766607],[-73.1834547,-9.3820565]]]}},{"type":"Feature","id":"AC-Y451-X149","properties":{"id":"AC-Y451-X149","grid_x":149,"grid_y":451,"centroid":[-73.1712554,-9.3795024],"aggregation":"none","score_gradboost":0.0255881,"score_random_forest":0.0301564,"score_logistic_regression":0.0385782,"score_fuzzy_knn_k29":0.0},"geometry":{"type":"Polygon","coordinates":[[[-73.1753434,-9.3821524],[-73.167232,-9.3822482],[-73.1671675,-9.3768523],[-73.1752787,-9.3767566],[-73.1753434,-9.3821524]]]}},{"type":"Feature","id":"AC-Y451-X150","properties":{"id":"AC-Y451-X150","grid_x":150,"grid_y":451,"centroid":[-73.163144,-9.3795981],"aggregation":"none","score_gradboost":0.0332951,"score_random_forest":0.0171852,"score_logistic_regression":0.0313311,"score_fuzzy_knn_k29":0.0424401},"geometry":{"type":"Polygon","coordinates":[[[-73.167232,-9.3822482],[-73.1591205,-9.3823438],[-73.1590561,-9.3769478],[-73.1671675,-9.3768523],[-73.167232,-9.3822482]]]}},{"type":"Feature","id":"AC-Y451-X151","properties":{"id":"AC-Y451-X151","grid_x":151,"grid_y":451,"centroid":[-73.1550326,-9.3796935],"aggregation":"none","score_gradboost":0.0592709,"score_random_forest":0.0948887,"score_logistic_regression":0.0451101,"score_fuzzy_knn_k29":0.0320918},"geometry":{"type":"Polygon","coordinates":[[[-73.1591205,-9.3823438],[-73.151009,-9.3824392],[-73.1509447,-9.3770432],[-73.1590561,-9.3769478],[-73.1591205,-9.3823438]]]}},{"type":"Feature","id":"AC-Y452-X147","properties":{"id":"AC-Y452-X147","grid_x":147,"grid_y":452,"centroid":[-73.1874131,-9.3739148],"aggregation":"none","score_gradboost":0.014911,"score_random_forest":0.0231459,"score_logistic_regression":0.0372932,"score_fuzzy_knn_k29":0.0136495},"geometry":{"type":"Polygon","coordinates":[[[-73.191501,-9.3765646],[-73.1833899,-9.3766607],[-73.1833252,-9.3712649],[-73.1914362,-9.3711689],[-73.191501,-9.3765646]]]}},{"type":"Feature","id":"AC-Y452-X148","properties":{"id":"AC-Y452-X148","grid_x":148,"grid_y":452,"centroid":[-73.179302,-9.3740108],"aggregation":"none","score_gradboost":0.0208877,"score_random_forest":0.0195411,"score_logistic_regression":0.0398739,"score_fuzzy_knn_k29":0.0178904},"geometry":{"type":"Polygon","coordinates":[[[-73.1833899,-9.3766607],[-73.1752787,-9.3767566],[-73.1752141,-9.3713607],[-73.1833252,-9.3712649],[-73.1833899,-9.3766607]]]}},{"type":"Feature","id":"AC-Y452-X149","properties":{"id":"AC-Y452-X149","grid_x":149,"grid_y":452,"centroid":[-73.1711908,-9.3741065],"aggregation":"none","score_gradboost":0.0208877,"score_random_forest":0.0092308,"score_logistic_regression":0.0452817,"score_fuzzy_knn_k29":0.0},"geometry":{"type":"Polygon","coordinates":[[[-73.1752787,-9.3767566],[-73.1671675,-9.3768523],[-73.167103,-9.3714564],[-73.1752141,-9.3713607],[-73.1752787,-9.3767566]]]}},{"type":"Feature","id":"AC-Y452-X150","properties":{"id":"AC-Y452-X150","grid_x":150,"grid_y":452,"centroid":[-73.1630796,-9.3742021],"aggregation":"none","score_gradboost":0.0204911,"score_random_forest":0.0087348,"score_logistic_regression":0.0447754,"score_fuzzy_knn_k29":0.0},"geometry":{"type":"Polygon","coordinates":[[[-73.1671675,-9.3768523],[-73.1590561,-9.3769478],[-73.1589918,-9.3715519],[-73.167103,-9.3714564],[-73.1671675,-9.3768523]]]}},{"type":"Feature","id":"AC-Y452-X151","properties":{"id":"AC-Y452-X151","grid_x":151,"grid_y":452,"centroid":[-73.1549683,-9.3742975],"aggregation":"none","score_gradboost":0.0284061,"score_random_forest":0.0239811,"score_logistic_regression":0.0415249,"score_fuzzy_knn_k29":0.0225645},"geometry":{"type":"Polygon","coordinates":[[[-73.1590561,-9.3769478],[-73.1509447,-9.3770432],[-73.1508805,-9.3716472],[-73.1589918,-9.3715519],[-73.1590561,-9.3769478]]]}},{"type":"Feature","id":"AC-Y453-X147","properties":{"id":"AC-Y453-X147","grid_x":147,"grid_y":453,"centroid":[-73.1873483,-9.368519],"aggregation":"none","score_gradboost":0.0226772,"score_random_forest":0.0346871,"score_logistic_regression":0.0341825,"score_fuzzy_knn_k29":0.019957},"geometry":{"type":"Polygon","coordinates":[[[-73.1914362,-9.3711689],[-73.1833252,-9.3712649],[-73.1832605,-9.3658691],[-73.1913714,-9.3657731],[-73.1914362,-9.3711689]]]}},{"type":"Feature","id":"AC-Y453-X148","properties":{"id":"AC-Y453-X148","grid_x":148,"grid_y":453,"centroid":[-73.1792374,-9.3686149],"aggregation":"none","score_gradboost":0.0153745,"score_random_forest":0.0343879,"score_logistic_regression":0.0408289,"score_fuzzy_knn_k29":0.0203817},"geometry":{"type":"Polygon","coordinates":[[[-73.1833252,-9.3712649],[-73.1752141,-9.3713607],[-73.1751496,-9.3659649],[-73.1832605,-9.3658691],[-73.1833252,-9.3712649]]]}},{"type":"Feature","id":"AC-Y453-X149","properties":{"id":"AC-Y453-X149","grid_x":149,"grid_y":453,"centroid":[-73.1711263,-9.3687107],"aggregation":"none","score_gradboost":0.0213991,"score_random_forest":0.0428117,"score_logistic_regression":0.0383389,"score_fuzzy_knn_k29":0.0},"geometry":{"type":"Polygon","coordinates":[[[-73.1752141,-9.3713607],[-73.167103,-9.3714564],[-73.1670386,-9.3660605],[-73.1751496,-9.3659649],[-73.1752141,-9.3713607]]]}},{"type":"Feature","id":"AC-Y453-X150","properties":{"id":"AC-Y453-X150","grid_x":150,"grid_y":453,"centroid":[-73.1630152,-9.3688062],"aggregation":"none","score_gradboost":0.0384429,"score_random_forest":0.0209548,"score_logistic_regression":0.0368385,"score_fuzzy_knn_k29":0.0203227},"geometry":{"type":"Polygon","coordinates":[[[-73.167103,-9.3714564],[-73.1589918,-9.3715519],[-73.1589275,-9.3661559],[-73.1670386,-9.3660605],[-73.167103,-9.3714564]]]}},{"type":"Feature","id":"AC-Y453-X151","properties":{"id":"AC-Y453-X151","grid_x":151,"grid_y":453,"centroid":[-73.154904,-9.3689016],"aggregation":"none","score_gradboost":0.0284061,"score_random_forest":0.0251576,"score_logistic_regression":0.0448537,"score_fuzzy_knn_k29":0.0251859},"geometry":{"type":"Polygon","coordinates":[[[-73.1589918,-9.3715519],[-73.1508805,-9.3716472],[-73.1508163,-9.3662512],[-73.1589275,-9.3661559],[-73.1589918,-9.3715519]]]}},{"type":"Feature","id":"AC-Y454-X147","properties":{"id":"AC-Y454-X147","grid_x":147,"grid_y":454,"centroid":[-73.1872836,-9.3631233],"aggregation":"none","score_gradboost":0.0226772,"score_random_forest":0.0418113,"score_logistic_regression":0.0349612,"score_fuzzy_knn_k29":0.0263792},"geometry":{"type":"Polygon","coordinates":[[[-73.1913714,-9.3657731],[-73.1832605,-9.3658691],[-73.1831959,-9.3604733],[-73.1913066,-9.3603774],[-73.1913714,-9.3657731]]]}},{"type":"Feature","id":"AC-Y454-X148","properties":{"id":"AC-Y454-X148","grid_x":148,"grid_y":454,"centroid":[-73.1791728,-9.3632191],"aggregation":"none","score_gradboost":0.0210094,"score_random_forest":0.0295299,"score_logistic_regression":0.032684,"score_fuzzy_knn_k29":0.026219},"geometry":{"type":"Polygon","coordinates":[[[-73.1832605,-9.3658691],[-73.1751496,-9.3659649],[-73.175085,-9.3605691],[-73.1831959,-9.3604733],[-73.1832605,-9.3658691]]]}},{"type":"Feature","id":"AC-Y454-X149","properties":{"id":"AC-Y454-X149","grid_x":149,"grid_y":454,"centroid":[-73.1710618,-9.3633148],"aggregation":"none","score_gradboost":0.0244592,"score_random_forest":0.0344395,"score_logistic_regression":0.0364682,"score_fuzzy_knn_k29":0.0246851},"geometry":{"type":"Polygon","coordinates":[[[-73.1751496,-9.3659649],[-73.1670386,-9.3660605],[-73.1669742,-9.3606646],[-73.175085,-9.3605691],[-73.1751496,-9.3659649]]]}},{"type":"Feature","id":"AC-Y454-X150","properties":{"id":"AC-Y454-X150","grid_x":150,"grid_y":454,"centroid":[-73.1629508,-9.3634103],"aggregation":"none","score_gradboost":0.0242969,"score_random_forest":0.0278581,"score_logistic_regression":0.0357554,"score_fuzzy_knn_k29":0.0228355},"geometry":{"type":"Polygon","coordinates":[[[-73.1670386,-9.3660605],[-73.1589275,-9.3661559],[-73.1588632,-9.36076],[-73.1669742,-9.3606646],[-73.1670386,-9.3660605]]]}},{"type":"Feature","id":"AC-Y454-X151","properties":{"id":"AC-Y454-X151","grid_x":151,"grid_y":454,"centroid":[-73.1548398,-9.3635056],"aggregation":"none","score_gradboost":0.0250116,"score_random_forest":0.037494,"score_logistic_regression":0.0436629,"score_fuzzy_knn_k29":0.0},"geometry":{"type":"Polygon","coordinates":[[[-73.1589275,-9.3661559],[-73.1508163,-9.3662512],[-73.1507521,-9.3608552],[-73.1588632,-9.36076],[-73.1589275,-9.3661559]]]}},{"type":"Feature","id":"AC-Y455-X149","properties":{"id":"AC-Y455-X149","grid_x":149,"grid_y":455,"centroid":[-73.1709974,-9.3579189],"aggregation":"none","score_gradboost":0.0270167,"score_random_forest":0.0432867,"score_logistic_regression":0.0395244,"score_fuzzy_knn_k29":0.028706},"geometry":{"type":"Polygon","coordinates":[[[-73.175085,-9.3605691],[-73.1669742,-9.3606646],[-73.1669098,-9.3552687],[-73.1750206,-9.3551732],[-73.175085,-9.3605691]]]}},{"type":"Feature","id":"AC-Y455-X150","properties":{"id":"AC-Y455-X150","grid_x":150,"grid_y":455,"centroid":[-73.1628865,-9.3580144],"aggregation":"none","score_gradboost":0.0165923,"score_random_forest":0.0338786,"score_logistic_regression":0.0427225,"score_fuzzy_knn_k29":0.0199389},"geometry":{"type":"Polygon","coordinates":[[[-73.1669742,-9.3606646],[-73.1588632,-9.36076],[-73.1587989,-9.355364],[-73.1669098,-9.3552687],[-73.1669742,-9.3606646]]]}},{"type":"Feature","id":"AC-Y455-X151","properties":{"id":"AC-Y455-X151","grid_x":151,"grid_y":455,"centroid":[-73.1547756,-9.3581096],"aggregation":"none","score_gradboost":0.0349721,"score_random_forest":0.0174427,"score_logistic_regression":0.034743,"score_fuzzy_knn_k29":0.0254994},"geometry":{"type":"Polygon","coordinates":[[[-73.1588632,-9.36076],[-73.1507521,-9.3608552],[-73.150688,-9.3554592],[-73.1587989,-9.355364],[-73.1588632,-9.36076]]]}},{"type":"Feature","id":"AC-Y456-X151","properties":{"id":"AC-Y456-X151","grid_x":151,"grid_y":456,"centroid":[-73.1547114,-9.3527136],"aggregation":"none","score_gradboost":0.0127728,"score_random_forest":0.0010174,"score_logistic_regression":0.0497543,"score_fuzzy_knn_k29":0.0236774},"geometry":{"type":"Polygon","coordinates":[[[-73.1587989,-9.355364],[-73.150688,-9.3554592],[-73.1506239,-9.3500631],[-73.1587347,-9.3499681],[-73.1587989,-9.355364]]]}},{"type":"Feature","id":"AC-Y457-X151","properties":{"id":"AC-Y457-X151","grid_x":151,"grid_y":457,"centroid":[-73.1546473,-9.3473176],"aggregation":"none","score_gradboost":0.0165923,"score_random_forest":0.0349519,"score_logistic_regression":0.0487569,"score_fuzzy_knn_k29":0.0334642},"geometry":{"type":"Polygon","coordinates":[[[-73.1587347,-9.3499681],[-73.1506239,-9.3500631],[-73.1505599,-9.3446671],[-73.1586706,-9.3445721],[-73.1587347,-9.3499681]]]}}]}