{"type":"FeatureCollection","features":[{"type":"Feature","id":"AC-Y443-X806","properties":{"id":"AC-Y443-X806","grid_x":806,"grid_y":443,"centroid":[-67.8312394,-9.4454699],"aggregation":"none","score_gradboost":0.9709441,"score_random_forest":0.9513085,"score_logistic_regression":0.775382,"score_fuzzy_knn_k29":0.935067},"geometry":{"type":"Polygon","coordinates":[[[-67.8352968,-9.448188],[-67.8271638,-9.448161],[-67.8271821,-9.4427518],[-67.8353149,-9.4427789],[-67.8352968,-9.448188]]]}},{"type":"Feature","id":"AC-Y444-X806","properties":{"id":"AC-Y444-X806","grid_x":806,"grid_y":444,"centroid":[-67.8312577,-9.4400608],"aggregation":"none","score_gradboost":0.9466309,"score_random_forest":0.8782733,"score_logistic_regression":0.9193404,"score_fuzzy_knn_k29":0.8704507},"geometry":{"type":"Polygon","coordinates":[[[-67.8353149,-9.4427789],[-67.8271821,-9.4427518],[-67.8272004,-9.4373427],[-67.8353331,-9.4373697],[-67.8353149,-9.4427789]]]}},{"type":"Feature","id":"AC-Y444-X807","properties":{"id":"AC-Y444-X807","grid_x":807,"grid_y":444,"centroid":[-67.8231249,-9.4400337],"aggregation":"none","score_gradboost":0.8994565,"score_random_forest":0.8530141,"score_logistic_regression":0.9191378,"score_fuzzy_knn_k29":0.9116903},"geometry":{"type":"Polygon","coordinates":[[[-67.8271821,-9.4427518],[-67.8190494,-9.4427246],[-67.8190678,-9.4373155],[-67.8272004,-9.4373427],[-67.8271821,-9.4427518]]]}},{"type":"Feature","id":"AC-Y445-X806","properties":{"id":"AC-Y445-X806","grid_x":806,"grid_y":445,"centroid":[-67.8312759,-9.4346517],"aggregation":"none","score_gradboost":0.9292505,"score_random_forest":0.8540892,"score_logistic_regression":0.790398,"score_fuzzy_knn_k29":0.9383608},"geometry":{"type":"Polygon","coordinates":[[[-67.8353331,-9.4373697],[-67.8272004,-9.4373427],[-67.8272187,-9.4319336],[-67.8353513,-9.4319606],[-67.8353331,-9.4373697]]]}},{"type":"Feature","id":"AC-Y445-X807","properties":{"id":"AC-Y445-X807","grid_x":807,"grid_y":445,"centroid":[-67.8231433,-9.4346246],"aggregation":"none","score_gradboost":0.8477283,"score_random_forest":0.7421776,"score_logistic_regression":0.9124967,"score_fuzzy_knn_k29":0.8921963},"geometry":{"type":"Polygon","coordinates":[[[-67.8272004,-9.4373427],[-67.8190678,-9.4373155],[-67.8190862,-9.4319064],[-67.8272187,-9.4319336],[-67.8272004,-9.4373427]]]}},{"type":"Feature","id":"AC-Y445-X808","properties":{"id":"AC-Y445-X808","grid_x":808,"grid_y":445,"centroid":[-67.8150107,-9.4345973],"aggregation":"none","score_gradboost":0.9712338,"score_random_forest":0.9514291,"score_logistic_regression":0.7947283,"score_fuzzy_knn_k29":0.620164},"geometry":{"type":"Polygon","coordinates":[[[-67.8190678,-9.4373155],[-67.8109352,-9.4372881],[-67.8109537,-9.431879],[-67.8190862,-9.4319064],[-67.8190678,-9.4373155]]]}},{"type":"Feature","id":"AC-Y446-X806","properties":{"id":"AC-Y446-X806","grid_x":806,"grid_y":446,"centroid":[-67.8312941,-9.4292425],"aggregation":"none","score_gradboost":0.8650763,"score_random_forest":0.7536697,"score_logistic_regression":0.9021341,"score_fuzzy_knn_k29":0.7497157},"geometry":{"type":"Polygon","coordinates":[[[-67.8353513,-9.4319606],[-67.8272187,-9.4319336],[-67.827237,-9.4265245],[-67.8353694,-9.4265514],[-67.8353513,-9.4319606]]]}},{"type":"Feature","id":"AC-Y446-X807","properties":{"id":"AC-Y446-X807","grid_x":807,"grid_y":446,"centroid":[-67.8231616,-9.4292155],"aggregation":"none","score_gradboost":0.8956736,"score_random_forest":0.8686009,"score_logistic_regression":0.8834425,"score_fuzzy_knn_k29":0.921146},"geometry":{"type":"Polygon","coordinates":[[[-67.8272187,-9.4319336],[-67.8190862,-9.4319064],[-67.8191046,-9.4264973],[-67.827237,-9.4265245],[-67.8272187,-9.4319336]]]}},{"type":"Feature","id":"AC-Y446-X808","properties":{"id":"AC-Y446-X808","grid_x":808,"grid_y":446,"centroid":[-67.8150292,-9.4291882],"aggregation":"none","score_gradboost":0.9503175,"score_random_forest":0.8976349,"score_logistic_regression":0.7454535,"score_fuzzy_knn_k29":0.8957301},"geometry":{"type":"Polygon","coordinates":[[[-67.8190862,-9.4319064],[-67.8109537,-9.431879],[-67.8109723,-9.4264699],[-67.8191046,-9.4264973],[-67.8190862,-9.4319064]]]}},{"type":"Feature","id":"AC-Y447-X806","properties":{"id":"AC-Y447-X806","grid_x":806,"grid_y":447,"centroid":[-67.8313123,-9.4238334],"aggregation":"none","score_gradboost":0.7946225,"score_random_forest":0.8253977,"score_logistic_regression":0.9260442,"score_fuzzy_knn_k29":0.9512415},"geometry":{"type":"Polygon","coordinates":[[[-67.8353694,-9.4265514],[-67.827237,-9.4265245],[-67.8272553,-9.4211153],[-67.8353875,-9.4211423],[-67.8353694,-9.4265514]]]}},{"type":"Feature","id":"AC-Y447-X807","properties":{"id":"AC-Y447-X807","grid_x":807,"grid_y":447,"centroid":[-67.82318,-9.4238063],"aggregation":"none","score_gradboost":0.8685737,"score_random_forest":0.8030543,"score_logistic_regression":0.751011,"score_fuzzy_knn_k29":0.6017814},"geometry":{"type":"Polygon","coordinates":[[[-67.827237,-9.4265245],[-67.8191046,-9.4264973],[-67.819123,-9.4210882],[-67.8272553,-9.4211153],[-67.827237,-9.4265245]]]}},{"type":"Feature","id":"AC-Y440-X806","properties":{"id":"AC-Y440-X806","grid_x":806,"grid_y":440,"centroid":[-67.8311847,-9.4616973],"aggregation":"none","score_gradboost":0.9625484,"score_random_forest":0.9271935,"score_logistic_regression":0.7582714,"score_fuzzy_knn_k29":0.9032723},"geometry":{"type":"Polygon","coordinates":[[[-67.8352422,-9.4644154],[-67.8271089,-9.4643883],[-67.8271272,-9.4589792],[-67.8352604,-9.4590063],[-67.8352422,-9.4644154]]]}},{"type":"Feature","id":"AC-Y440-X807","properties":{"id":"AC-Y440-X807","grid_x":807,"grid_y":440,"centroid":[-67.8230514,-9.4616702],"aggregation":"none","score_gradboost":0.9631346,"score_random_forest":0.9138904,"score_logistic_regression":0.7269124,"score_fuzzy_knn_k29":0.9507474},"geometry":{"type":"Polygon","coordinates":[[[-67.8271089,-9.4643883],[-67.8189756,-9.464361],[-67.8189941,-9.4589519],[-67.8271272,-9.4589792],[-67.8271089,-9.4643883]]]}},{"type":"Feature","id":"AC-Y440-X808","properties":{"id":"AC-Y440-X808","grid_x":808,"grid_y":440,"centroid":[-67.8149182,-9.4616428],"aggregation":"none","score_gradboost":0.9079605,"score_random_forest":0.9407935,"score_logistic_regression":0.7470255,"score_fuzzy_knn_k29":0.5680224},"geometry":{"type":"Polygon","coordinates":[[[-67.8189756,-9.464361],[-67.8108424,-9.4643336],[-67.8108609,-9.4589245],[-67.8189941,-9.4589519],[-67.8189756,-9.464361]]]}},{"type":"Feature","id":"AC-Y440-X809","properties":{"id":"AC-Y440-X809","grid_x":809,"grid_y":440,"centroid":[-67.8067851,-9.4616152],"aggregation":"none","score_gradboost":0.9409436,"score_random_forest":0.9077014,"score_logistic_regression":0.6973933,"score_fuzzy_knn_k29":0.8367786},"geometry":{"type":"Polygon","coordinates":[[[-67.8108424,-9.4643336],[-67.8027091,-9.4643059],[-67.8027279,-9.4588969],[-67.8108609,-9.4589245],[-67.8108424,-9.4643336]]]}},{"type":"Feature","id":"AC-Y440-X810","properties":{"id":"AC-Y440-X810","grid_x":810,"grid_y":440,"centroid":[-67.7986519,-9.4615875],"aggregation":"none","score_gradboost":0.9568478,"score_random_forest":0.8560094,"score_logistic_regression":0.7706875,"score_fuzzy_knn_k29":0.9099115},"geometry":{"type":"Polygon","coordinates":[[[-67.8027091,-9.4643059],[-67.7945759,-9.4642781],[-67.7945948,-9.458869],[-67.8027279,-9.4588969],[-67.8027091,-9.4643059]]]}},{"type":"Feature","id":"AC-Y440-X811","properties":{"id":"AC-Y440-X811","grid_x":811,"grid_y":440,"centroid":[-67.7905188,-9.4615596],"aggregation":"none","score_gradboost":0.8822021,"score_random_forest":0.8747179,"score_logistic_regression":0.9142236,"score_fuzzy_knn_k29":0.9726017},"geometry":{"type":"Polygon","coordinates":[[[-67.7945759,-9.4642781],[-67.7864428,-9.46425],[-67.7864617,-9.458841],[-67.7945948,-9.458869],[-67.7945759,-9.4642781]]]}},{"type":"Feature","id":"AC-Y440-X812","properties":{"id":"AC-Y440-X812","grid_x":812,"grid_y":440,"centroid":[-67.7823857,-9.4615314],"aggregation":"none","score_gradboost":0.8891959,"score_random_forest":0.9138419,"score_logistic_regression":0.6937317,"score_fuzzy_knn_k29":1.0},"geometry":{"type":"Polygon","coordinates":[[[-67.7864428,-9.46425],[-67.7783096,-9.4642218],[-67.7783287,-9.4588128],[-67.7864617,-9.458841],[-67.7864428,-9.46425]]]}},{"type":"Feature","id":"AC-Y440-X813","properties":{"id":"AC-Y440-X813","grid_x":813,"grid_y":440,"centroid":[-67.7742526,-9.4615031],"aggregation":"none","score_gradboost":0.8729849,"score_random_forest":0.9037654,"score_logistic_regression":0.6684704,"score_fuzzy_knn_k29":1.0},"geometry":{"type":"Polygon","coordinates":[[[-67.7783096,-9.4642218],[-67.7701765,-9.4641934],[-67.7701957,-9.4587844],[-67.7783287,-9.4588128],[-67.7783096,-9.4642218]]]}},{"type":"Feature","id":"AC-Y440-X814","properties":{"id":"AC-Y440-X814","grid_x":814,"grid_y":440,"centroid":[-67.7661196,-9.4614746],"aggregation":"none","score_gradboost":0.8321834,"score_random_forest":0.8042213,"score_logistic_regression":0.862974,"score_fuzzy_knn_k29":0.7414966},"geometry":{"type":"Polygon","coordinates":[[[-67.7701765,-9.4641934],[-67.7620434,-9.4641648],[-67.7620628,-9.4587558],[-67.7701957,-9.4587844],[-67.7701765,-9.4641934]]]}},{"type":"Feature","id":"AC-Y440-X815","properties":{"id":"AC-Y440-X815","grid_x":815,"grid_y":440,"centroid":[-67.7579866,-9.461446],"aggregation":"none","score_gradboost":0.8004883,"score_random_forest":0.847303,"score_logistic_regression":0.8634766,"score_fuzzy_knn_k29":0.7818868},"geometry":{"type":"Polygon","coordinates":[[[-67.7620434,-9.4641648],[-67.7539103,-9.464136],[-67.7539298,-9.4587271],[-67.7620628,-9.4587558],[-67.7620434,-9.4641648]]]}},{"type":"Feature","id":"AC-Y440-X816","properties":{"id":"AC-Y440-X816","grid_x":816,"grid_y":440,"centroid":[-67.7498536,-9.4614171],"aggregation":"none","score_gradboost":0.9034183,"score_random_forest":0.8535106,"score_logistic_regression":0.8298629,"score_fuzzy_knn_k29":0.921187},"geometry":{"type":"Polygon","coordinates":[[[-67.7539103,-9.464136],[-67.7457773,-9.4641071],[-67.7457969,-9.4586981],[-67.7539298,-9.4587271],[-67.7539103,-9.464136]]]}},{"type":"Feature","id":"AC-Y440-X817","properties":{"id":"AC-Y440-X817","grid_x":817,"grid_y":440,"centroid":[-67.7417206,-9.461388],"aggregation":"none","score_gradboost":0.9167515,"score_random_forest":0.8562048,"score_logistic_regression":0.8207789,"score_fuzzy_knn_k29":0.8428621},"geometry":{"type":"Polygon","coordinates":[[[-67.7457773,-9.4641071],[-67.7376443,-9.4640779],[-67.737664,-9.4586689],[-67.7457969,-9.4586981],[-67.7457773,-9.4641071]]]}},{"type":"Feature","id":"AC-Y441-X806","properties":{"id":"AC-Y441-X806","grid_x":806,"grid_y":441,"centroid":[-67.8312029,-9.4562882],"aggregation":"none","score_gradboost":0.9664966,"score_random_forest":0.9356389,"score_logistic_regression":0.7452376,"score_fuzzy_knn_k29":0.9192051},"geometry":{"type":"Polygon","coordinates":[[[-67.8352604,-9.4590063],[-67.8271272,-9.4589792],[-67.8271455,-9.4535701],[-67.8352786,-9.4535971],[-67.8352604,-9.4590063]]]}},{"type":"Feature","id":"AC-Y441-X807","properties":{"id":"AC-Y441-X807","grid_x":807,"grid_y":441,"centroid":[-67.8230698,-9.456261],"aggregation":"none","score_gradboost":0.9547234,"score_random_forest":0.942858,"score_logistic_regression":0.7665502,"score_fuzzy_knn_k29":0.9641647},"geometry":{"type":"Polygon","coordinates":[[[-67.8271272,-9.4589792],[-67.8189941,-9.4589519],[-67.8190125,-9.4535428],[-67.8271455,-9.4535701],[-67.8271272,-9.4589792]]]}},{"type":"Feature","id":"AC-Y441-X808","properties":{"id":"AC-Y441-X808","grid_x":808,"grid_y":441,"centroid":[-67.8149368,-9.4562337],"aggregation":"none","score_gradboost":0.8149967,"score_random_forest":0.8084797,"score_logistic_regression":0.6881821,"score_fuzzy_knn_k29":0.7118624},"geometry":{"type":"Polygon","coordinates":[[[-67.8189941,-9.4589519],[-67.8108609,-9.4589245],[-67.8108795,-9.4535154],[-67.8190125,-9.4535428],[-67.8189941,-9.4589519]]]}},{"type":"Feature","id":"AC-Y441-X809","properties":{"id":"AC-Y441-X809","grid_x":809,"grid_y":441,"centroid":[-67.8068037,-9.4562062],"aggregation":"none","score_gradboost":0.7631269,"score_random_forest":0.845415,"score_logistic_regression":0.8834063,"score_fuzzy_knn_k29":0.9212603},"geometry":{"type":"Polygon","coordinates":[[[-67.8108609,-9.4589245],[-67.8027279,-9.4588969],[-67.8027466,-9.4534878],[-67.8108795,-9.4535154],[-67.8108609,-9.4589245]]]}},{"type":"Feature","id":"AC-Y441-X810","properties":{"id":"AC-Y441-X810","grid_x":810,"grid_y":441,"centroid":[-67.7986707,-9.4561784],"aggregation":"none","score_gradboost":0.85693,"score_random_forest":0.8187477,"score_logistic_regression":0.9119775,"score_fuzzy_knn_k29":0.9429942},"geometry":{"type":"Polygon","coordinates":[[[-67.8027279,-9.4588969],[-67.7945948,-9.458869],[-67.7946136,-9.45346],[-67.8027466,-9.4534878],[-67.8027279,-9.4588969]]]}},{"type":"Feature","id":"AC-Y441-X811","properties":{"id":"AC-Y441-X811","grid_x":811,"grid_y":441,"centroid":[-67.7905377,-9.4561505],"aggregation":"none","score_gradboost":0.854172,"score_random_forest":0.8244992,"score_logistic_regression":0.9137097,"score_fuzzy_knn_k29":0.9455841},"geometry":{"type":"Polygon","coordinates":[[[-67.7945948,-9.458869],[-67.7864617,-9.458841],[-67.7864807,-9.453432],[-67.7946136,-9.45346],[-67.7945948,-9.458869]]]}},{"type":"Feature","id":"AC-Y441-X812","properties":{"id":"AC-Y441-X812","grid_x":812,"grid_y":441,"centroid":[-67.7824047,-9.4561224],"aggregation":"none","score_gradboost":0.9537872,"score_random_forest":0.9380139,"score_logistic_regression":0.7000715,"score_fuzzy_knn_k29":1.0},"geometry":{"type":"Polygon","coordinates":[[[-67.7864617,-9.458841],[-67.7783287,-9.4588128],[-67.7783478,-9.4534038],[-67.7864807,-9.453432],[-67.7864617,-9.458841]]]}},{"type":"Feature","id":"AC-Y441-X813","properties":{"id":"AC-Y441-X813","grid_x":813,"grid_y":441,"centroid":[-67.7742718,-9.4560941],"aggregation":"none","score_gradboost":0.8903646,"score_random_forest":0.9048637,"score_logistic_regression":0.677903,"score_fuzzy_knn_k29":1.0},"geometry":{"type":"Polygon","coordinates":[[[-67.7783287,-9.4588128],[-67.7701957,-9.4587844],[-67.7702149,-9.4533754],[-67.7783478,-9.4534038],[-67.7783287,-9.4588128]]]}},{"type":"Feature","id":"AC-Y441-X814","properties":{"id":"AC-Y441-X814","grid_x":814,"grid_y":441,"centroid":[-67.7661389,-9.4560656],"aggregation":"none","score_gradboost":0.9075498,"score_random_forest":0.9123538,"score_logistic_regression":0.6964678,"score_fuzzy_knn_k29":0.9243342},"geometry":{"type":"Polygon","coordinates":[[[-67.7701957,-9.4587844],[-67.7620628,-9.4587558],[-67.7620821,-9.4533468],[-67.7702149,-9.4533754],[-67.7701957,-9.4587844]]]}},{"type":"Feature","id":"AC-Y441-X815","properties":{"id":"AC-Y441-X815","grid_x":815,"grid_y":441,"centroid":[-67.758006,-9.456037],"aggregation":"none","score_gradboost":0.7519766,"score_random_forest":0.8290908,"score_logistic_regression":0.8900844,"score_fuzzy_knn_k29":0.954951},"geometry":{"type":"Polygon","coordinates":[[[-67.7620628,-9.4587558],[-67.7539298,-9.4587271],[-67.7539493,-9.4533181],[-67.7620821,-9.4533468],[-67.7620628,-9.4587558]]]}},{"type":"Feature","id":"AC-Y441-X816","properties":{"id":"AC-Y441-X816","grid_x":816,"grid_y":441,"centroid":[-67.7498731,-9.4560081],"aggregation":"none","score_gradboost":0.9643341,"score_random_forest":0.8931934,"score_logistic_regression":0.6953506,"score_fuzzy_knn_k29":0.8008928},"geometry":{"type":"Polygon","coordinates":[[[-67.7539298,-9.4587271],[-67.7457969,-9.4586981],[-67.7458165,-9.4532891],[-67.7539493,-9.4533181],[-67.7539298,-9.4587271]]]}},{"type":"Feature","id":"AC-Y442-X806","properties":{"id":"AC-Y442-X806","grid_x":806,"grid_y":442,"centroid":[-67.8312212,-9.4508791],"aggregation":"none","score_gradboost":0.9588783,"score_random_forest":0.9620332,"score_logistic_regression":0.7618734,"score_fuzzy_knn_k29":0.9557711},"geometry":{"type":"Polygon","coordinates":[[[-67.8352786,-9.4535971],[-67.8271455,-9.4535701],[-67.8271638,-9.448161],[-67.8352968,-9.448188],[-67.8352786,-9.4535971]]]}},{"type":"Feature","id":"AC-Y442-X807","properties":{"id":"AC-Y442-X807","grid_x":807,"grid_y":442,"centroid":[-67.8230882,-9.4508519],"aggregation":"none","score_gradboost":0.8883657,"score_random_forest":0.8665642,"score_logistic_regression":0.7690587,"score_fuzzy_knn_k29":0.9009827},"geometry":{"type":"Polygon","coordinates":[[[-67.8271455,-9.4535701],[-67.8190125,-9.4535428],[-67.819031,-9.4481337],[-67.8271638,-9.448161],[-67.8271455,-9.4535701]]]}},{"type":"Feature","id":"AC-Y442-X808","properties":{"id":"AC-Y442-X808","grid_x":808,"grid_y":442,"centroid":[-67.8149553,-9.4508246],"aggregation":"none","score_gradboost":0.8738467,"score_random_forest":0.8328385,"score_logistic_regression":0.9064873,"score_fuzzy_knn_k29":0.5541074},"geometry":{"type":"Polygon","coordinates":[[[-67.8190125,-9.4535428],[-67.8108795,-9.4535154],[-67.8108981,-9.4481063],[-67.819031,-9.4481337],[-67.8190125,-9.4535428]]]}},{"type":"Feature","id":"AC-Y442-X809","properties":{"id":"AC-Y442-X809","grid_x":809,"grid_y":442,"centroid":[-67.8068224,-9.4507971],"aggregation":"none","score_gradboost":0.6761304,"score_random_forest":0.7534716,"score_logistic_regression":0.9227238,"score_fuzzy_knn_k29":0.7379542},"geometry":{"type":"Polygon","coordinates":[[[-67.8108795,-9.4535154],[-67.8027466,-9.4534878],[-67.8027653,-9.4480787],[-67.8108981,-9.4481063],[-67.8108795,-9.4535154]]]}},{"type":"Feature","id":"AC-Y442-X810","properties":{"id":"AC-Y442-X810","grid_x":810,"grid_y":442,"centroid":[-67.7986895,-9.4507694],"aggregation":"none","score_gradboost":0.6681956,"score_random_forest":0.696965,"score_logistic_regression":0.9075824,"score_fuzzy_knn_k29":0.2538352},"geometry":{"type":"Polygon","coordinates":[[[-67.8027466,-9.4534878],[-67.7946136,-9.45346],[-67.7946324,-9.4480509],[-67.8027653,-9.4480787],[-67.8027466,-9.4534878]]]}},{"type":"Feature","id":"AC-Y442-X811","properties":{"id":"AC-Y442-X811","grid_x":811,"grid_y":442,"centroid":[-67.7905566,-9.4507415],"aggregation":"none","score_gradboost":0.9574947,"score_random_forest":0.8486402,"score_logistic_regression":0.741832,"score_fuzzy_knn_k29":0.8547713},"geometry":{"type":"Polygon","coordinates":[[[-67.7946136,-9.45346],[-67.7864807,-9.453432],[-67.7864996,-9.4480229],[-67.7946324,-9.4480509],[-67.7946136,-9.45346]]]}},{"type":"Feature","id":"AC-Y442-X812","properties":{"id":"AC-Y442-X812","grid_x":812,"grid_y":442,"centroid":[-67.7824238,-9.4507134],"aggregation":"none","score_gradboost":0.9573359,"score_random_forest":0.9351652,"score_logistic_regression":0.720467,"score_fuzzy_knn_k29":1.0},"geometry":{"type":"Polygon","coordinates":[[[-67.7864807,-9.453432],[-67.7783478,-9.4534038],[-67.7783669,-9.4479948],[-67.7864996,-9.4480229],[-67.7864807,-9.453432]]]}},{"type":"Feature","id":"AC-Y442-X813","properties":{"id":"AC-Y442-X813","grid_x":813,"grid_y":442,"centroid":[-67.7742909,-9.4506851],"aggregation":"none","score_gradboost":0.9501626,"score_random_forest":0.9391742,"score_logistic_regression":0.7078028,"score_fuzzy_knn_k29":1.0},"geometry":{"type":"Polygon","coordinates":[[[-67.7783478,-9.4534038],[-67.7702149,-9.4533754],[-67.7702341,-9.4479664],[-67.7783669,-9.4479948],[-67.7783478,-9.4534038]]]}},{"type":"Feature","id":"AC-Y442-X814","properties":{"id":"AC-Y442-X814","grid_x":814,"grid_y":442,"centroid":[-67.7661582,-9.4506566],"aggregation":"none","score_gradboost":0.8293022,"score_random_forest":0.8245771,"score_logistic_regression":0.9102104,"score_fuzzy_knn_k29":1.0},"geometry":{"type":"Polygon","coordinates":[[[-67.7702149,-9.4533754],[-67.7620821,-9.4533468],[-67.7621014,-9.4479378],[-67.7702341,-9.4479664],[-67.7702149,-9.4533754]]]}},{"type":"Feature","id":"AC-Y443-X807","properties":{"id":"AC-Y443-X807","grid_x":807,"grid_y":443,"centroid":[-67.8231066,-9.4454428],"aggregation":"none","score_gradboost":0.9079661,"score_random_forest":0.8077715,"score_logistic_regression":0.7779284,"score_fuzzy_knn_k29":0.888293},"geometry":{"type":"Polygon","coordinates":[[[-67.8271638,-9.448161],[-67.819031,-9.4481337],[-67.8190494,-9.4427246],[-67.8271821,-9.4427518],[-67.8271638,-9.448161]]]}},{"type":"Feature","id":"AC-Y443-X808","properties":{"id":"AC-Y443-X808","grid_x":808,"grid_y":443,"centroid":[-67.8149738,-9.4454155],"aggregation":"none","score_gradboost":0.8796024,"score_random_forest":0.8319594,"score_logistic_regression":0.9177474,"score_fuzzy_knn_k29":0.8761429},"geometry":{"type":"Polygon","coordinates":[[[-67.819031,-9.4481337],[-67.8108981,-9.4481063],[-67.8109166,-9.4426972],[-67.8190494,-9.4427246],[-67.819031,-9.4481337]]]}},{"type":"Feature","id":"AC-Y443-X809","properties":{"id":"AC-Y443-X809","grid_x":809,"grid_y":443,"centroid":[-67.806841,-9.445388],"aggregation":"none","score_gradboost":0.9557385,"score_random_forest":0.8971011,"score_logistic_regression":0.7493664,"score_fuzzy_knn_k29":0.8623486},"geometry":{"type":"Polygon","coordinates":[[[-67.8108981,-9.4481063],[-67.8027653,-9.4480787],[-67.8027839,-9.4426696],[-67.8109166,-9.4426972],[-67.8108981,-9.4481063]]]}},{"type":"Feature","id":"AC-Y443-X810","properties":{"id":"AC-Y443-X810","grid_x":810,"grid_y":443,"centroid":[-67.7987082,-9.4453603],"aggregation":"none","score_gradboost":0.8583259,"score_random_forest":0.8843798,"score_logistic_regression":0.9042056,"score_fuzzy_knn_k29":0.7143684},"geometry":{"type":"Polygon","coordinates":[[[-67.8027653,-9.4480787],[-67.7946324,-9.4480509],[-67.7946512,-9.4426418],[-67.8027839,-9.4426696],[-67.8027653,-9.4480787]]]}},{"type":"Feature","id":"AC-Y443-X811","properties":{"id":"AC-Y443-X811","grid_x":811,"grid_y":443,"centroid":[-67.7905755,-9.4453324],"aggregation":"none","score_gradboost":0.8729771,"score_random_forest":0.8155197,"score_logistic_regression":0.7942977,"score_fuzzy_knn_k29":0.9213044},"geometry":{"type":"Polygon","coordinates":[[[-67.7946324,-9.4480509],[-67.7864996,-9.4480229],[-67.7865186,-9.4426139],[-67.7946512,-9.4426418],[-67.7946324,-9.4480509]]]}},{"type":"Feature","id":"AC-Y443-X812","properties":{"id":"AC-Y443-X812","grid_x":812,"grid_y":443,"centroid":[-67.7824428,-9.4453043],"aggregation":"none","score_gradboost":0.9297119,"score_random_forest":0.8286365,"score_logistic_regression":0.6945743,"score_fuzzy_knn_k29":0.8290649},"geometry":{"type":"Polygon","coordinates":[[[-67.7864996,-9.4480229],[-67.7783669,-9.4479948],[-67.7783859,-9.4425857],[-67.7865186,-9.4426139],[-67.7864996,-9.4480229]]]}},{"type":"Feature","id":"AC-Y443-X813","properties":{"id":"AC-Y443-X813","grid_x":813,"grid_y":443,"centroid":[-67.7743101,-9.4452761],"aggregation":"none","score_gradboost":0.9112551,"score_random_forest":0.8299055,"score_logistic_regression":0.7552862,"score_fuzzy_knn_k29":0.9579738},"geometry":{"type":"Polygon","coordinates":[[[-67.7783669,-9.4479948],[-67.7702341,-9.4479664],[-67.7702533,-9.4425574],[-67.7783859,-9.4425857],[-67.7783669,-9.4479948]]]}},{"type":"Feature","id":"AC-Y444-X808","properties":{"id":"AC-Y444-X808","grid_x":808,"grid_y":444,"centroid":[-67.8149923,-9.4400064],"aggregation":"none","score_gradboost":0.9504146,"score_random_forest":0.8977378,"score_logistic_regression":0.7766414,"score_fuzzy_knn_k29":0.8492299},"geometry":{"type":"Polygon","coordinates":[[[-67.8190494,-9.4427246],[-67.8109166,-9.4426972],[-67.8109352,-9.4372881],[-67.8190678,-9.4373155],[-67.8190494,-9.4427246]]]}},{"type":"Feature","id":"AC-Y444-X809","properties":{"id":"AC-Y444-X809","grid_x":809,"grid_y":444,"centroid":[-67.8068596,-9.4399789],"aggregation":"none","score_gradboost":0.9451491,"score_random_forest":0.9697275,"score_logistic_regression":0.7600913,"score_fuzzy_knn_k29":0.9119081},"geometry":{"type":"Polygon","coordinates":[[[-67.8109166,-9.4426972],[-67.8027839,-9.4426696],[-67.8028026,-9.4372606],[-67.8109352,-9.4372881],[-67.8109166,-9.4426972]]]}},{"type":"Feature","id":"AC-Y444-X810","properties":{"id":"AC-Y444-X810","grid_x":810,"grid_y":444,"centroid":[-67.798727,-9.4399512],"aggregation":"none","score_gradboost":0.9713292,"score_random_forest":0.9505176,"score_logistic_regression":0.7850641,"score_fuzzy_knn_k29":0.9336494},"geometry":{"type":"Polygon","coordinates":[[[-67.8027839,-9.4426696],[-67.7946512,-9.4426418],[-67.79467,-9.4372328],[-67.8028026,-9.4372606],[-67.8027839,-9.4426696]]]}},{"type":"Feature","id":"AC-Y444-X811","properties":{"id":"AC-Y444-X811","grid_x":811,"grid_y":444,"centroid":[-67.7905943,-9.4399234],"aggregation":"none","score_gradboost":0.792303,"score_random_forest":0.8624258,"score_logistic_regression":0.7287014,"score_fuzzy_knn_k29":0.5775429},"geometry":{"type":"Polygon","coordinates":[[[-67.7946512,-9.4426418],[-67.7865186,-9.4426139],[-67.7865375,-9.4372048],[-67.79467,-9.4372328],[-67.7946512,-9.4426418]]]}},{"type":"Feature","id":"AC-Y445-X809","properties":{"id":"AC-Y445-X809","grid_x":809,"grid_y":445,"centroid":[-67.8068782,-9.4345698],"aggregation":"none","score_gradboost":0.9642884,"score_random_forest":0.9543322,"score_logistic_regression":0.7549764,"score_fuzzy_knn_k29":0.9348738},"geometry":{"type":"Polygon","coordinates":[[[-67.8109352,-9.4372881],[-67.8028026,-9.4372606],[-67.8028213,-9.4318515],[-67.8109537,-9.431879],[-67.8109352,-9.4372881]]]}},{"type":"Feature","id":"AC-Y445-X810","properties":{"id":"AC-Y445-X810","grid_x":810,"grid_y":445,"centroid":[-67.7987457,-9.4345422],"aggregation":"none","score_gradboost":0.9729313,"score_random_forest":0.9462523,"score_logistic_regression":0.9091408,"score_fuzzy_knn_k29":0.7486327},"geometry":{"type":"Polygon","coordinates":[[[-67.8028026,-9.4372606],[-67.79467,-9.4372328],[-67.7946888,-9.4318237],[-67.8028213,-9.4318515],[-67.8028026,-9.4372606]]]}}]}