{"type":"FeatureCollection","features":[{"type":"Feature","id":"AC-Y595-X642","properties":{"id":"AC-Y595-X642","grid_x":642,"grid_y":595,"centroid":[-69.1648554,-8.6249984],"aggregation":"none","score_gradboost":0.0920918,"score_random_forest":0.0531768,"score_logistic_regression":0.4353544,"score_fuzzy_knn_k29":0.2626049},"geometry":{"type":"Polygon","coordinates":[[[-69.1689147,-8.6277019],[-69.1607985,-8.6277054],[-69.1607962,-8.6222949],[-69.1689123,-8.6222914],[-69.1689147,-8.6277019]]]}},{"type":"Feature","id":"AC-Y595-X643","properties":{"id":"AC-Y595-X643","grid_x":643,"grid_y":595,"centroid":[-69.1567393,-8.6250018],"aggregation":"none","score_gradboost":0.1062877,"score_random_forest":0.0622244,"score_logistic_regression":0.4487468,"score_fuzzy_knn_k29":0.2787853},"geometry":{"type":"Polygon","coordinates":[[[-69.1607985,-8.6277054],[-69.1526823,-8.6277087],[-69.1526801,-8.6222982],[-69.1607962,-8.6222949],[-69.1607985,-8.6277054]]]}},{"type":"Feature","id":"AC-Y595-X644","properties":{"id":"AC-Y595-X644","grid_x":644,"grid_y":595,"centroid":[-69.1486231,-8.6250051],"aggregation":"none","score_gradboost":0.1214975,"score_random_forest":0.0877377,"score_logistic_regression":0.4779606,"score_fuzzy_knn_k29":0.3069311},"geometry":{"type":"Polygon","coordinates":[[[-69.1526823,-8.6277087],[-69.1445661,-8.6277119],[-69.144564,-8.6223014],[-69.1526801,-8.6222982],[-69.1526823,-8.6277087]]]}},{"type":"Feature","id":"AC-Y596-X642","properties":{"id":"AC-Y596-X642","grid_x":642,"grid_y":596,"centroid":[-69.1648531,-8.619588],"aggregation":"none","score_gradboost":0.1279392,"score_random_forest":0.0543097,"score_logistic_regression":0.4126628,"score_fuzzy_knn_k29":0.1278615},"geometry":{"type":"Polygon","coordinates":[[[-69.1689123,-8.6222914],[-69.1607962,-8.6222949],[-69.1607939,-8.6168844],[-69.1689099,-8.616881],[-69.1689123,-8.6222914]]]}},{"type":"Feature","id":"AC-Y596-X643","properties":{"id":"AC-Y596-X643","grid_x":643,"grid_y":596,"centroid":[-69.156737,-8.6195914],"aggregation":"none","score_gradboost":0.1066232,"score_random_forest":0.0587131,"score_logistic_regression":0.4452447,"score_fuzzy_knn_k29":0.1799465},"geometry":{"type":"Polygon","coordinates":[[[-69.1607962,-8.6222949],[-69.1526801,-8.6222982],[-69.1526779,-8.6168878],[-69.1607939,-8.6168844],[-69.1607962,-8.6222949]]]}},{"type":"Feature","id":"AC-Y597-X642","properties":{"id":"AC-Y597-X642","grid_x":642,"grid_y":597,"centroid":[-69.1648507,-8.6141775],"aggregation":"none","score_gradboost":0.064611,"score_random_forest":0.04937,"score_logistic_regression":0.4183435,"score_fuzzy_knn_k29":0.0605168},"geometry":{"type":"Polygon","coordinates":[[[-69.1689099,-8.616881],[-69.1607939,-8.6168844],[-69.1607916,-8.611474],[-69.1689075,-8.6114705],[-69.1689099,-8.616881]]]}},{"type":"Feature","id":"AC-Y597-X643","properties":{"id":"AC-Y597-X643","grid_x":643,"grid_y":597,"centroid":[-69.1567348,-8.6141809],"aggregation":"none","score_gradboost":0.0999471,"score_random_forest":0.0571141,"score_logistic_regression":0.4464902,"score_fuzzy_knn_k29":0.0930711},"geometry":{"type":"Polygon","coordinates":[[[-69.1607939,-8.6168844],[-69.1526779,-8.6168878],[-69.1526758,-8.6114773],[-69.1607916,-8.611474],[-69.1607939,-8.6168844]]]}},{"type":"Feature","id":"AC-Y598-X642","properties":{"id":"AC-Y598-X642","grid_x":642,"grid_y":598,"centroid":[-69.1648484,-8.608767],"aggregation":"none","score_gradboost":0.0308693,"score_random_forest":0.0259859,"score_logistic_regression":0.4193067,"score_fuzzy_knn_k29":0.0272975},"geometry":{"type":"Polygon","coordinates":[[[-69.1689075,-8.6114705],[-69.1607916,-8.611474],[-69.1607893,-8.6060635],[-69.1689051,-8.60606],[-69.1689075,-8.6114705]]]}},{"type":"Feature","id":"AC-Y595-X634","properties":{"id":"AC-Y595-X634","grid_x":634,"grid_y":595,"centroid":[-69.2297844,-8.6249651],"aggregation":"none","score_gradboost":0.0518582,"score_random_forest":0.0376663,"score_logistic_regression":0.4158093,"score_fuzzy_knn_k29":0.0681653},"geometry":{"type":"Polygon","coordinates":[[[-69.2338441,-8.6276679],[-69.2257279,-8.6276727],[-69.2257247,-8.6222623],[-69.2338408,-8.6222574],[-69.2338441,-8.6276679]]]}},{"type":"Feature","id":"AC-Y595-X635","properties":{"id":"AC-Y595-X635","grid_x":635,"grid_y":595,"centroid":[-69.2216683,-8.6249698],"aggregation":"none","score_gradboost":0.0437889,"score_random_forest":0.0419282,"score_logistic_regression":0.4400682,"score_fuzzy_knn_k29":0.134982},"geometry":{"type":"Polygon","coordinates":[[[-69.2257279,-8.6276727],[-69.2176118,-8.6276774],[-69.2176087,-8.6222669],[-69.2257247,-8.6222623],[-69.2257279,-8.6276727]]]}},{"type":"Feature","id":"AC-Y595-X636","properties":{"id":"AC-Y595-X636","grid_x":636,"grid_y":595,"centroid":[-69.2135522,-8.6249744],"aggregation":"none","score_gradboost":0.1250843,"score_random_forest":0.0965532,"score_logistic_regression":0.4934407,"score_fuzzy_knn_k29":0.2109022},"geometry":{"type":"Polygon","coordinates":[[[-69.2176118,-8.6276774],[-69.2094956,-8.6276819],[-69.2094926,-8.6222714],[-69.2176087,-8.6222669],[-69.2176118,-8.6276774]]]}},{"type":"Feature","id":"AC-Y595-X637","properties":{"id":"AC-Y595-X637","grid_x":637,"grid_y":595,"centroid":[-69.205436,-8.6249789],"aggregation":"none","score_gradboost":0.0875122,"score_random_forest":0.0477148,"score_logistic_regression":0.434967,"score_fuzzy_knn_k29":0.1479604},"geometry":{"type":"Polygon","coordinates":[[[-69.2094956,-8.6276819],[-69.2013794,-8.6276863],[-69.2013765,-8.6222758],[-69.2094926,-8.6222714],[-69.2094956,-8.6276819]]]}},{"type":"Feature","id":"AC-Y595-X638","properties":{"id":"AC-Y595-X638","grid_x":638,"grid_y":595,"centroid":[-69.1973199,-8.6249831],"aggregation":"none","score_gradboost":0.1433229,"score_random_forest":0.047137,"score_logistic_regression":0.4493011,"score_fuzzy_knn_k29":0.1857906},"geometry":{"type":"Polygon","coordinates":[[[-69.2013794,-8.6276863],[-69.1932632,-8.6276904],[-69.1932605,-8.62228],[-69.2013765,-8.6222758],[-69.2013794,-8.6276863]]]}},{"type":"Feature","id":"AC-Y595-X639","properties":{"id":"AC-Y595-X639","grid_x":639,"grid_y":595,"centroid":[-69.1892038,-8.6249872],"aggregation":"none","score_gradboost":0.1963119,"score_random_forest":0.095176,"score_logistic_regression":0.5079964,"score_fuzzy_knn_k29":0.1271232},"geometry":{"type":"Polygon","coordinates":[[[-69.1932632,-8.6276904],[-69.185147,-8.6276944],[-69.1851444,-8.622284],[-69.1932605,-8.62228],[-69.1932632,-8.6276904]]]}},{"type":"Feature","id":"AC-Y595-X640","properties":{"id":"AC-Y595-X640","grid_x":640,"grid_y":595,"centroid":[-69.1810877,-8.6249911],"aggregation":"none","score_gradboost":0.1219255,"score_random_forest":0.0921303,"score_logistic_regression":0.4937175,"score_fuzzy_knn_k29":0.1566967},"geometry":{"type":"Polygon","coordinates":[[[-69.185147,-8.6276944],[-69.1770309,-8.6276983],[-69.1770283,-8.6222878],[-69.1851444,-8.622284],[-69.185147,-8.6276944]]]}},{"type":"Feature","id":"AC-Y595-X641","properties":{"id":"AC-Y595-X641","grid_x":641,"grid_y":595,"centroid":[-69.1729715,-8.6249949],"aggregation":"none","score_gradboost":0.1183559,"score_random_forest":0.0849158,"score_logistic_regression":0.4739043,"score_fuzzy_knn_k29":0.252917},"geometry":{"type":"Polygon","coordinates":[[[-69.1770309,-8.6276983],[-69.1689147,-8.6277019],[-69.1689123,-8.6222914],[-69.1770283,-8.6222878],[-69.1770309,-8.6276983]]]}},{"type":"Feature","id":"AC-Y596-X634","properties":{"id":"AC-Y596-X634","grid_x":634,"grid_y":596,"centroid":[-69.2297811,-8.6195546],"aggregation":"none","score_gradboost":0.035637,"score_random_forest":0.0198587,"score_logistic_regression":0.3924569,"score_fuzzy_knn_k29":0.0532922},"geometry":{"type":"Polygon","coordinates":[[[-69.2338408,-8.6222574],[-69.2257247,-8.6222623],[-69.2257215,-8.6168518],[-69.2338374,-8.6168469],[-69.2338408,-8.6222574]]]}},{"type":"Feature","id":"AC-Y596-X635","properties":{"id":"AC-Y596-X635","grid_x":635,"grid_y":596,"centroid":[-69.2216651,-8.6195594],"aggregation":"none","score_gradboost":0.0369313,"score_random_forest":0.0388079,"score_logistic_regression":0.4166159,"score_fuzzy_knn_k29":0.0372262},"geometry":{"type":"Polygon","coordinates":[[[-69.2257247,-8.6222623],[-69.2176087,-8.6222669],[-69.2176056,-8.6168565],[-69.2257215,-8.6168518],[-69.2257247,-8.6222623]]]}},{"type":"Feature","id":"AC-Y596-X636","properties":{"id":"AC-Y596-X636","grid_x":636,"grid_y":596,"centroid":[-69.2135491,-8.619564],"aggregation":"none","score_gradboost":0.0550335,"score_random_forest":0.0298557,"score_logistic_regression":0.4595815,"score_fuzzy_knn_k29":0.0975863},"geometry":{"type":"Polygon","coordinates":[[[-69.2176087,-8.6222669],[-69.2094926,-8.6222714],[-69.2094896,-8.616861],[-69.2176056,-8.6168565],[-69.2176087,-8.6222669]]]}},{"type":"Feature","id":"AC-Y596-X637","properties":{"id":"AC-Y596-X637","grid_x":637,"grid_y":596,"centroid":[-69.2054331,-8.6195684],"aggregation":"none","score_gradboost":0.0564117,"score_random_forest":0.038377,"score_logistic_regression":0.4592897,"score_fuzzy_knn_k29":0.0991157},"geometry":{"type":"Polygon","coordinates":[[[-69.2094926,-8.6222714],[-69.2013765,-8.6222758],[-69.2013737,-8.6168653],[-69.2094896,-8.616861],[-69.2094926,-8.6222714]]]}},{"type":"Feature","id":"AC-Y596-X638","properties":{"id":"AC-Y596-X638","grid_x":638,"grid_y":596,"centroid":[-69.1973171,-8.6195727],"aggregation":"none","score_gradboost":0.115237,"score_random_forest":0.0997921,"score_logistic_regression":0.5224467,"score_fuzzy_knn_k29":0.2012538},"geometry":{"type":"Polygon","coordinates":[[[-69.2013765,-8.6222758],[-69.1932605,-8.62228],[-69.1932577,-8.6168695],[-69.2013737,-8.6168653],[-69.2013765,-8.6222758]]]}},{"type":"Feature","id":"AC-Y596-X639","properties":{"id":"AC-Y596-X639","grid_x":639,"grid_y":596,"centroid":[-69.1892011,-8.6195767],"aggregation":"none","score_gradboost":0.1076983,"score_random_forest":0.0708373,"score_logistic_regression":0.4604633,"score_fuzzy_knn_k29":0.1184367},"geometry":{"type":"Polygon","coordinates":[[[-69.1932605,-8.62228],[-69.1851444,-8.622284],[-69.1851418,-8.6168735],[-69.1932577,-8.6168695],[-69.1932605,-8.62228]]]}},{"type":"Feature","id":"AC-Y596-X640","properties":{"id":"AC-Y596-X640","grid_x":640,"grid_y":596,"centroid":[-69.1810851,-8.6195807],"aggregation":"none","score_gradboost":0.0986939,"score_random_forest":0.0504625,"score_logistic_regression":0.4223974,"score_fuzzy_knn_k29":0.0995157},"geometry":{"type":"Polygon","coordinates":[[[-69.1851444,-8.622284],[-69.1770283,-8.6222878],[-69.1770258,-8.6168773],[-69.1851418,-8.6168735],[-69.1851444,-8.622284]]]}},{"type":"Feature","id":"AC-Y596-X641","properties":{"id":"AC-Y596-X641","grid_x":641,"grid_y":596,"centroid":[-69.1729691,-8.6195844],"aggregation":"none","score_gradboost":0.1415249,"score_random_forest":0.0564415,"score_logistic_regression":0.4365019,"score_fuzzy_knn_k29":0.1225005},"geometry":{"type":"Polygon","coordinates":[[[-69.1770283,-8.6222878],[-69.1689123,-8.6222914],[-69.1689099,-8.616881],[-69.1770258,-8.6168773],[-69.1770283,-8.6222878]]]}},{"type":"Feature","id":"AC-Y597-X634","properties":{"id":"AC-Y597-X634","grid_x":634,"grid_y":597,"centroid":[-69.2297778,-8.6141441],"aggregation":"none","score_gradboost":0.0336267,"score_random_forest":0.0373489,"score_logistic_regression":0.3879052,"score_fuzzy_knn_k29":0.1102104},"geometry":{"type":"Polygon","coordinates":[[[-69.2338374,-8.6168469],[-69.2257215,-8.6168518],[-69.2257183,-8.6114413],[-69.2338341,-8.6114365],[-69.2338374,-8.6168469]]]}},{"type":"Feature","id":"AC-Y597-X635","properties":{"id":"AC-Y597-X635","grid_x":635,"grid_y":597,"centroid":[-69.221662,-8.6141489],"aggregation":"none","score_gradboost":0.0322931,"score_random_forest":0.0462237,"score_logistic_regression":0.4263893,"score_fuzzy_knn_k29":0.061529},"geometry":{"type":"Polygon","coordinates":[[[-69.2257215,-8.6168518],[-69.2176056,-8.6168565],[-69.2176025,-8.611446],[-69.2257183,-8.6114413],[-69.2257215,-8.6168518]]]}},{"type":"Feature","id":"AC-Y597-X636","properties":{"id":"AC-Y597-X636","grid_x":636,"grid_y":597,"centroid":[-69.2135461,-8.6141535],"aggregation":"none","score_gradboost":0.0333824,"score_random_forest":0.0296376,"score_logistic_regression":0.454846,"score_fuzzy_knn_k29":0.0592739},"geometry":{"type":"Polygon","coordinates":[[[-69.2176056,-8.6168565],[-69.2094896,-8.616861],[-69.2094867,-8.6114505],[-69.2176025,-8.611446],[-69.2176056,-8.6168565]]]}},{"type":"Feature","id":"AC-Y597-X637","properties":{"id":"AC-Y597-X637","grid_x":637,"grid_y":597,"centroid":[-69.2054302,-8.6141579],"aggregation":"none","score_gradboost":0.0601388,"score_random_forest":0.0839884,"score_logistic_regression":0.4983861,"score_fuzzy_knn_k29":0.1658177},"geometry":{"type":"Polygon","coordinates":[[[-69.2094896,-8.616861],[-69.2013737,-8.6168653],[-69.2013708,-8.6114548],[-69.2094867,-8.6114505],[-69.2094896,-8.616861]]]}},{"type":"Feature","id":"AC-Y597-X638","properties":{"id":"AC-Y597-X638","grid_x":638,"grid_y":597,"centroid":[-69.1973143,-8.6141622],"aggregation":"none","score_gradboost":0.0375932,"score_random_forest":0.0299623,"score_logistic_regression":0.4601628,"score_fuzzy_knn_k29":0.0641759},"geometry":{"type":"Polygon","coordinates":[[[-69.2013737,-8.6168653],[-69.1932577,-8.6168695],[-69.193255,-8.611459],[-69.2013708,-8.6114548],[-69.2013737,-8.6168653]]]}},{"type":"Feature","id":"AC-Y597-X639","properties":{"id":"AC-Y597-X639","grid_x":639,"grid_y":597,"centroid":[-69.1891984,-8.6141663],"aggregation":"none","score_gradboost":0.0880084,"score_random_forest":0.0874218,"score_logistic_regression":0.4903003,"score_fuzzy_knn_k29":0.1124759},"geometry":{"type":"Polygon","coordinates":[[[-69.1932577,-8.6168695],[-69.1851418,-8.6168735],[-69.1851392,-8.611463],[-69.193255,-8.611459],[-69.1932577,-8.6168695]]]}},{"type":"Feature","id":"AC-Y597-X640","properties":{"id":"AC-Y597-X640","grid_x":640,"grid_y":597,"centroid":[-69.1810825,-8.6141702],"aggregation":"none","score_gradboost":0.0479331,"score_random_forest":0.0327925,"score_logistic_regression":0.423147,"score_fuzzy_knn_k29":0.0606961},"geometry":{"type":"Polygon","coordinates":[[[-69.1851418,-8.6168735],[-69.1770258,-8.6168773],[-69.1770233,-8.6114668],[-69.1851392,-8.611463],[-69.1851418,-8.6168735]]]}},{"type":"Feature","id":"AC-Y597-X641","properties":{"id":"AC-Y597-X641","grid_x":641,"grid_y":597,"centroid":[-69.1729666,-8.6141739],"aggregation":"none","score_gradboost":0.0618826,"score_random_forest":0.0442477,"score_logistic_regression":0.4232506,"score_fuzzy_knn_k29":0.0710504},"geometry":{"type":"Polygon","coordinates":[[[-69.1770258,-8.6168773],[-69.1689099,-8.616881],[-69.1689075,-8.6114705],[-69.1770233,-8.6114668],[-69.1770258,-8.6168773]]]}},{"type":"Feature","id":"AC-Y598-X634","properties":{"id":"AC-Y598-X634","grid_x":634,"grid_y":598,"centroid":[-69.2297746,-8.6087337],"aggregation":"none","score_gradboost":0.0387524,"score_random_forest":0.045855,"score_logistic_regression":0.4349394,"score_fuzzy_knn_k29":0.1244354},"geometry":{"type":"Polygon","coordinates":[[[-69.2338341,-8.6114365],[-69.2257183,-8.6114413],[-69.2257151,-8.6060309],[-69.2338308,-8.606026],[-69.2338341,-8.6114365]]]}},{"type":"Feature","id":"AC-Y598-X635","properties":{"id":"AC-Y598-X635","grid_x":635,"grid_y":598,"centroid":[-69.2216588,-8.6087384],"aggregation":"none","score_gradboost":0.041557,"score_random_forest":0.0348808,"score_logistic_regression":0.4695973,"score_fuzzy_knn_k29":0.1873461},"geometry":{"type":"Polygon","coordinates":[[[-69.2257183,-8.6114413],[-69.2176025,-8.611446],[-69.2175994,-8.6060355],[-69.2257151,-8.6060309],[-69.2257183,-8.6114413]]]}},{"type":"Feature","id":"AC-Y598-X636","properties":{"id":"AC-Y598-X636","grid_x":636,"grid_y":598,"centroid":[-69.2135431,-8.608743],"aggregation":"none","score_gradboost":0.0257697,"score_random_forest":0.0344047,"score_logistic_regression":0.4406109,"score_fuzzy_knn_k29":0.0461524},"geometry":{"type":"Polygon","coordinates":[[[-69.2176025,-8.611446],[-69.2094867,-8.6114505],[-69.2094837,-8.60604],[-69.2175994,-8.6060355],[-69.2176025,-8.611446]]]}},{"type":"Feature","id":"AC-Y598-X637","properties":{"id":"AC-Y598-X637","grid_x":637,"grid_y":598,"centroid":[-69.2054273,-8.6087475],"aggregation":"none","score_gradboost":0.0397598,"score_random_forest":0.0561461,"score_logistic_regression":0.4794456,"score_fuzzy_knn_k29":0.1153406},"geometry":{"type":"Polygon","coordinates":[[[-69.2094867,-8.6114505],[-69.2013708,-8.6114548],[-69.201368,-8.6060444],[-69.2094837,-8.60604],[-69.2094867,-8.6114505]]]}},{"type":"Feature","id":"AC-Y598-X638","properties":{"id":"AC-Y598-X638","grid_x":638,"grid_y":598,"centroid":[-69.1973115,-8.6087517],"aggregation":"none","score_gradboost":0.0375932,"score_random_forest":0.0369795,"score_logistic_regression":0.4656149,"score_fuzzy_knn_k29":0.0943171},"geometry":{"type":"Polygon","coordinates":[[[-69.2013708,-8.6114548],[-69.193255,-8.611459],[-69.1932522,-8.6060485],[-69.201368,-8.6060444],[-69.2013708,-8.6114548]]]}},{"type":"Feature","id":"AC-Y598-X639","properties":{"id":"AC-Y598-X639","grid_x":639,"grid_y":598,"centroid":[-69.1891957,-8.6087558],"aggregation":"none","score_gradboost":0.0601388,"score_random_forest":0.0756857,"score_logistic_regression":0.5008066,"score_fuzzy_knn_k29":0.1936274},"geometry":{"type":"Polygon","coordinates":[[[-69.193255,-8.611459],[-69.1851392,-8.611463],[-69.1851365,-8.6060525],[-69.1932522,-8.6060485],[-69.193255,-8.611459]]]}},{"type":"Feature","id":"AC-Y598-X640","properties":{"id":"AC-Y598-X640","grid_x":640,"grid_y":598,"centroid":[-69.1810799,-8.6087597],"aggregation":"none","score_gradboost":0.0342844,"score_random_forest":0.0415873,"score_logistic_regression":0.4573381,"score_fuzzy_knn_k29":0.0530181},"geometry":{"type":"Polygon","coordinates":[[[-69.1851392,-8.611463],[-69.1770233,-8.6114668],[-69.1770208,-8.6060563],[-69.1851365,-8.6060525],[-69.1851392,-8.611463]]]}},{"type":"Feature","id":"AC-Y598-X641","properties":{"id":"AC-Y598-X641","grid_x":641,"grid_y":598,"centroid":[-69.1729642,-8.6087634],"aggregation":"none","score_gradboost":0.0342844,"score_random_forest":0.0387327,"score_logistic_regression":0.4528581,"score_fuzzy_knn_k29":0.0368963},"geometry":{"type":"Polygon","coordinates":[[[-69.1770233,-8.6114668],[-69.1689075,-8.6114705],[-69.1689051,-8.60606],[-69.1770208,-8.6060563],[-69.1770233,-8.6114668]]]}},{"type":"Feature","id":"AC-Y599-X634","properties":{"id":"AC-Y599-X634","grid_x":634,"grid_y":599,"centroid":[-69.2297713,-8.6033232],"aggregation":"none","score_gradboost":0.0302315,"score_random_forest":0.0383857,"score_logistic_regression":0.3520512,"score_fuzzy_knn_k29":0.2068359},"geometry":{"type":"Polygon","coordinates":[[[-69.2338308,-8.606026],[-69.2257151,-8.6060309],[-69.2257119,-8.6006204],[-69.2338275,-8.6006155],[-69.2338308,-8.606026]]]}},{"type":"Feature","id":"AC-Y599-X635","properties":{"id":"AC-Y599-X635","grid_x":635,"grid_y":599,"centroid":[-69.2216557,-8.603328],"aggregation":"none","score_gradboost":0.031664,"score_random_forest":0.0384622,"score_logistic_regression":0.4216567,"score_fuzzy_knn_k29":0.1020965},"geometry":{"type":"Polygon","coordinates":[[[-69.2257151,-8.6060309],[-69.2175994,-8.6060355],[-69.2175963,-8.6006251],[-69.2257119,-8.6006204],[-69.2257151,-8.6060309]]]}},{"type":"Feature","id":"AC-Y599-X636","properties":{"id":"AC-Y599-X636","grid_x":636,"grid_y":599,"centroid":[-69.21354,-8.6033326],"aggregation":"none","score_gradboost":0.0344261,"score_random_forest":0.0339954,"score_logistic_regression":0.4408131,"score_fuzzy_knn_k29":0.0934059},"geometry":{"type":"Polygon","coordinates":[[[-69.2175994,-8.6060355],[-69.2094837,-8.60604],[-69.2094807,-8.6006296],[-69.2175963,-8.6006251],[-69.2175994,-8.6060355]]]}},{"type":"Feature","id":"AC-Y599-X637","properties":{"id":"AC-Y599-X637","grid_x":637,"grid_y":599,"centroid":[-69.2054244,-8.603337],"aggregation":"none","score_gradboost":0.0611807,"score_random_forest":0.1223278,"score_logistic_regression":0.4944164,"score_fuzzy_knn_k29":0.2620577},"geometry":{"type":"Polygon","coordinates":[[[-69.2094837,-8.60604],[-69.201368,-8.6060444],[-69.2013651,-8.6006339],[-69.2094807,-8.6006296],[-69.2094837,-8.60604]]]}},{"type":"Feature","id":"AC-Y599-X638","properties":{"id":"AC-Y599-X638","grid_x":638,"grid_y":599,"centroid":[-69.1973087,-8.6033412],"aggregation":"none","score_gradboost":0.026464,"score_random_forest":0.0340424,"score_logistic_regression":0.4184562,"score_fuzzy_knn_k29":0.0489307},"geometry":{"type":"Polygon","coordinates":[[[-69.201368,-8.6060444],[-69.1932522,-8.6060485],[-69.1932495,-8.600638],[-69.2013651,-8.6006339],[-69.201368,-8.6060444]]]}},{"type":"Feature","id":"AC-Y599-X639","properties":{"id":"AC-Y599-X639","grid_x":639,"grid_y":599,"centroid":[-69.189193,-8.6033453],"aggregation":"none","score_gradboost":0.0284055,"score_random_forest":0.0316221,"score_logistic_regression":0.4532628,"score_fuzzy_knn_k29":0.044004},"geometry":{"type":"Polygon","coordinates":[[[-69.1932522,-8.6060485],[-69.1851365,-8.6060525],[-69.1851339,-8.600642],[-69.1932495,-8.600638],[-69.1932522,-8.6060485]]]}},{"type":"Feature","id":"AC-Y599-X640","properties":{"id":"AC-Y599-X640","grid_x":640,"grid_y":599,"centroid":[-69.1810774,-8.6033492],"aggregation":"none","score_gradboost":0.0468986,"score_random_forest":0.0801567,"score_logistic_regression":0.4774055,"score_fuzzy_knn_k29":0.115653},"geometry":{"type":"Polygon","coordinates":[[[-69.1851365,-8.6060525],[-69.1770208,-8.6060563],[-69.1770183,-8.6006459],[-69.1851339,-8.600642],[-69.1851365,-8.6060525]]]}},{"type":"Feature","id":"AC-Y599-X641","properties":{"id":"AC-Y599-X641","grid_x":641,"grid_y":599,"centroid":[-69.1729617,-8.6033529],"aggregation":"none","score_gradboost":0.0304324,"score_random_forest":0.0246258,"score_logistic_regression":0.4346698,"score_fuzzy_knn_k29":0.0366862},"geometry":{"type":"Polygon","coordinates":[[[-69.1770208,-8.6060563],[-69.1689051,-8.60606],[-69.1689027,-8.6006495],[-69.1770183,-8.6006459],[-69.1770208,-8.6060563]]]}},{"type":"Feature","id":"AC-Y600-X634","properties":{"id":"AC-Y600-X634","grid_x":634,"grid_y":600,"centroid":[-69.2297681,-8.5979127],"aggregation":"none","score_gradboost":0.0356281,"score_random_forest":0.043418,"score_logistic_regression":0.3792264,"score_fuzzy_knn_k29":0.1254351},"geometry":{"type":"Polygon","coordinates":[[[-69.2338275,-8.6006155],[-69.2257119,-8.6006204],[-69.2257087,-8.5952099],[-69.2338242,-8.5952051],[-69.2338275,-8.6006155]]]}},{"type":"Feature","id":"AC-Y600-X635","properties":{"id":"AC-Y600-X635","grid_x":635,"grid_y":600,"centroid":[-69.2216525,-8.5979175],"aggregation":"none","score_gradboost":0.0344359,"score_random_forest":0.0446009,"score_logistic_regression":0.4028618,"score_fuzzy_knn_k29":0.1114493},"geometry":{"type":"Polygon","coordinates":[[[-69.2257119,-8.6006204],[-69.2175963,-8.6006251],[-69.2175932,-8.5952146],[-69.2257087,-8.5952099],[-69.2257119,-8.6006204]]]}},{"type":"Feature","id":"AC-Y600-X636","properties":{"id":"AC-Y600-X636","grid_x":636,"grid_y":600,"centroid":[-69.213537,-8.5979221],"aggregation":"none","score_gradboost":0.0311619,"score_random_forest":0.0380065,"score_logistic_regression":0.4506402,"score_fuzzy_knn_k29":0.1406169},"geometry":{"type":"Polygon","coordinates":[[[-69.2175963,-8.6006251],[-69.2094807,-8.6006296],[-69.2094777,-8.5952191],[-69.2175932,-8.5952146],[-69.2175963,-8.6006251]]]}},{"type":"Feature","id":"AC-Y600-X637","properties":{"id":"AC-Y600-X637","grid_x":637,"grid_y":600,"centroid":[-69.2054214,-8.5979265],"aggregation":"none","score_gradboost":0.0311619,"score_random_forest":0.0350194,"score_logistic_regression":0.4513795,"score_fuzzy_knn_k29":0.1617977},"geometry":{"type":"Polygon","coordinates":[[[-69.2094807,-8.6006296],[-69.2013651,-8.6006339],[-69.2013622,-8.5952234],[-69.2094777,-8.5952191],[-69.2094807,-8.6006296]]]}},{"type":"Feature","id":"AC-Y600-X638","properties":{"id":"AC-Y600-X638","grid_x":638,"grid_y":600,"centroid":[-69.1973059,-8.5979307],"aggregation":"none","score_gradboost":0.0296616,"score_random_forest":0.0414606,"score_logistic_regression":0.3910452,"score_fuzzy_knn_k29":0.0963634},"geometry":{"type":"Polygon","coordinates":[[[-69.2013651,-8.6006339],[-69.1932495,-8.600638],[-69.1932468,-8.5952276],[-69.2013622,-8.5952234],[-69.2013651,-8.6006339]]]}},{"type":"Feature","id":"AC-Y600-X639","properties":{"id":"AC-Y600-X639","grid_x":639,"grid_y":600,"centroid":[-69.1891904,-8.5979348],"aggregation":"none","score_gradboost":0.0325569,"score_random_forest":0.0413716,"score_logistic_regression":0.4252953,"score_fuzzy_knn_k29":0.0481082},"geometry":{"type":"Polygon","coordinates":[[[-69.1932495,-8.600638],[-69.1851339,-8.600642],[-69.1851313,-8.5952315],[-69.1932468,-8.5952276],[-69.1932495,-8.600638]]]}},{"type":"Feature","id":"AC-Y600-X640","properties":{"id":"AC-Y600-X640","grid_x":640,"grid_y":600,"centroid":[-69.1810748,-8.5979387],"aggregation":"none","score_gradboost":0.0645429,"score_random_forest":0.1280598,"score_logistic_regression":0.4781646,"score_fuzzy_knn_k29":0.2454924},"geometry":{"type":"Polygon","coordinates":[[[-69.1851339,-8.600642],[-69.1770183,-8.6006459],[-69.1770158,-8.5952354],[-69.1851313,-8.5952315],[-69.1851339,-8.600642]]]}},{"type":"Feature","id":"AC-Y601-X634","properties":{"id":"AC-Y601-X634","grid_x":634,"grid_y":601,"centroid":[-69.2297648,-8.5925023],"aggregation":"none","score_gradboost":0.0319308,"score_random_forest":0.0399704,"score_logistic_regression":0.3703738,"score_fuzzy_knn_k29":0.1612939},"geometry":{"type":"Polygon","coordinates":[[[-69.2338242,-8.5952051],[-69.2257087,-8.5952099],[-69.2257055,-8.5897994],[-69.2338208,-8.5897946],[-69.2338242,-8.5952051]]]}},{"type":"Feature","id":"AC-Y601-X635","properties":{"id":"AC-Y601-X635","grid_x":635,"grid_y":601,"centroid":[-69.2216494,-8.592507],"aggregation":"none","score_gradboost":0.0337365,"score_random_forest":0.0338468,"score_logistic_regression":0.4551104,"score_fuzzy_knn_k29":0.2226525},"geometry":{"type":"Polygon","coordinates":[[[-69.2257087,-8.5952099],[-69.2175932,-8.5952146],[-69.2175901,-8.5898041],[-69.2257055,-8.5897994],[-69.2257087,-8.5952099]]]}},{"type":"Feature","id":"AC-Y601-X636","properties":{"id":"AC-Y601-X636","grid_x":636,"grid_y":601,"centroid":[-69.213534,-8.5925116],"aggregation":"none","score_gradboost":0.0415379,"score_random_forest":0.0436075,"score_logistic_regression":0.4128839,"score_fuzzy_knn_k29":0.0897834},"geometry":{"type":"Polygon","coordinates":[[[-69.2175932,-8.5952146],[-69.2094777,-8.5952191],[-69.2094748,-8.5898086],[-69.2175901,-8.5898041],[-69.2175932,-8.5952146]]]}},{"type":"Feature","id":"AC-Y601-X637","properties":{"id":"AC-Y601-X637","grid_x":637,"grid_y":601,"centroid":[-69.2054185,-8.592516],"aggregation":"none","score_gradboost":0.0378571,"score_random_forest":0.0410858,"score_logistic_regression":0.4326981,"score_fuzzy_knn_k29":0.1282707},"geometry":{"type":"Polygon","coordinates":[[[-69.2094777,-8.5952191],[-69.2013622,-8.5952234],[-69.2013594,-8.5898129],[-69.2094748,-8.5898086],[-69.2094777,-8.5952191]]]}},{"type":"Feature","id":"AC-Y601-X638","properties":{"id":"AC-Y601-X638","grid_x":638,"grid_y":601,"centroid":[-69.1973031,-8.5925203],"aggregation":"none","score_gradboost":0.0281904,"score_random_forest":0.0403318,"score_logistic_regression":0.4339144,"score_fuzzy_knn_k29":0.1258492},"geometry":{"type":"Polygon","coordinates":[[[-69.2013622,-8.5952234],[-69.1932468,-8.5952276],[-69.193244,-8.5898171],[-69.2013594,-8.5898129],[-69.2013622,-8.5952234]]]}},{"type":"Feature","id":"AC-Y601-X639","properties":{"id":"AC-Y601-X639","grid_x":639,"grid_y":601,"centroid":[-69.1891877,-8.5925243],"aggregation":"none","score_gradboost":0.0265804,"score_random_forest":0.0483338,"score_logistic_regression":0.3884006,"score_fuzzy_knn_k29":0.1166793},"geometry":{"type":"Polygon","coordinates":[[[-69.1932468,-8.5952276],[-69.1851313,-8.5952315],[-69.1851286,-8.5898211],[-69.193244,-8.5898171],[-69.1932468,-8.5952276]]]}},{"type":"Feature","id":"AC-Y602-X634","properties":{"id":"AC-Y602-X634","grid_x":634,"grid_y":602,"centroid":[-69.2297615,-8.5870918],"aggregation":"none","score_gradboost":0.0327368,"score_random_forest":0.0402733,"score_logistic_regression":0.3840016,"score_fuzzy_knn_k29":0.1637965},"geometry":{"type":"Polygon","coordinates":[[[-69.2338208,-8.5897946],[-69.2257055,-8.5897994],[-69.2257023,-8.584389],[-69.2338175,-8.5843841],[-69.2338208,-8.5897946]]]}},{"type":"Feature","id":"AC-Y602-X635","properties":{"id":"AC-Y602-X635","grid_x":635,"grid_y":602,"centroid":[-69.2216462,-8.5870966],"aggregation":"none","score_gradboost":0.0313823,"score_random_forest":0.046775,"score_logistic_regression":0.4123849,"score_fuzzy_knn_k29":0.0787194},"geometry":{"type":"Polygon","coordinates":[[[-69.2257055,-8.5897994],[-69.2175901,-8.5898041],[-69.217587,-8.5843936],[-69.2257023,-8.584389],[-69.2257055,-8.5897994]]]}},{"type":"Feature","id":"AC-Y602-X636","properties":{"id":"AC-Y602-X636","grid_x":636,"grid_y":602,"centroid":[-69.2135309,-8.5871011],"aggregation":"none","score_gradboost":0.0313823,"score_random_forest":0.0486018,"score_logistic_regression":0.4084966,"score_fuzzy_knn_k29":0.0},"geometry":{"type":"Polygon","coordinates":[[[-69.2175901,-8.5898041],[-69.2094748,-8.5898086],[-69.2094718,-8.5843981],[-69.217587,-8.5843936],[-69.2175901,-8.5898041]]]}},{"type":"Feature","id":"AC-Y602-X637","properties":{"id":"AC-Y602-X637","grid_x":637,"grid_y":602,"centroid":[-69.2054156,-8.5871055],"aggregation":"none","score_gradboost":0.0314898,"score_random_forest":0.0491105,"score_logistic_regression":0.4189317,"score_fuzzy_knn_k29":0.0736986},"geometry":{"type":"Polygon","coordinates":[[[-69.2094748,-8.5898086],[-69.2013594,-8.5898129],[-69.2013565,-8.5844024],[-69.2094718,-8.5843981],[-69.2094748,-8.5898086]]]}},{"type":"Feature","id":"AC-Y602-X638","properties":{"id":"AC-Y602-X638","grid_x":638,"grid_y":602,"centroid":[-69.1973003,-8.5871098],"aggregation":"none","score_gradboost":0.034181,"score_random_forest":0.0506843,"score_logistic_regression":0.434529,"score_fuzzy_knn_k29":0.1305141},"geometry":{"type":"Polygon","coordinates":[[[-69.2013594,-8.5898129],[-69.193244,-8.5898171],[-69.1932413,-8.5844066],[-69.2013565,-8.5844024],[-69.2013594,-8.5898129]]]}},{"type":"Feature","id":"AC-Y602-X639","properties":{"id":"AC-Y602-X639","grid_x":639,"grid_y":602,"centroid":[-69.189185,-8.5871138],"aggregation":"none","score_gradboost":0.0415379,"score_random_forest":0.0529155,"score_logistic_regression":0.4075065,"score_fuzzy_knn_k29":0.0690313},"geometry":{"type":"Polygon","coordinates":[[[-69.193244,-8.5898171],[-69.1851286,-8.5898211],[-69.185126,-8.5844106],[-69.1932413,-8.5844066],[-69.193244,-8.5898171]]]}},{"type":"Feature","id":"AC-Y603-X634","properties":{"id":"AC-Y603-X634","grid_x":634,"grid_y":603,"centroid":[-69.2297583,-8.5816813],"aggregation":"none","score_gradboost":0.0384053,"score_random_forest":0.041828,"score_logistic_regression":0.3657823,"score_fuzzy_knn_k29":0.1535305},"geometry":{"type":"Polygon","coordinates":[[[-69.2338175,-8.5843841],[-69.2257023,-8.584389],[-69.2256991,-8.5789785],[-69.2338142,-8.5789737],[-69.2338175,-8.5843841]]]}},{"type":"Feature","id":"AC-Y603-X635","properties":{"id":"AC-Y603-X635","grid_x":635,"grid_y":603,"centroid":[-69.2216431,-8.5816861],"aggregation":"none","score_gradboost":0.0385677,"score_random_forest":0.0475208,"score_logistic_regression":0.3800741,"score_fuzzy_knn_k29":0.1644926},"geometry":{"type":"Polygon","coordinates":[[[-69.2257023,-8.584389],[-69.217587,-8.5843936],[-69.217584,-8.5789831],[-69.2256991,-8.5789785],[-69.2257023,-8.584389]]]}},{"type":"Feature","id":"AC-Y603-X636","properties":{"id":"AC-Y603-X636","grid_x":636,"grid_y":603,"centroid":[-69.2135279,-8.5816907],"aggregation":"none","score_gradboost":0.0318527,"score_random_forest":0.0586748,"score_logistic_regression":0.4041471,"score_fuzzy_knn_k29":0.1270131},"geometry":{"type":"Polygon","coordinates":[[[-69.217587,-8.5843936],[-69.2094718,-8.5843981],[-69.2094688,-8.5789876],[-69.217584,-8.5789831],[-69.217587,-8.5843936]]]}},{"type":"Feature","id":"AC-Y603-X637","properties":{"id":"AC-Y603-X637","grid_x":637,"grid_y":603,"centroid":[-69.2054127,-8.5816951],"aggregation":"none","score_gradboost":0.0337365,"score_random_forest":0.0468773,"score_logistic_regression":0.4479588,"score_fuzzy_knn_k29":0.1871473},"geometry":{"type":"Polygon","coordinates":[[[-69.2094718,-8.5843981],[-69.2013565,-8.5844024],[-69.2013537,-8.578992],[-69.2094688,-8.5789876],[-69.2094718,-8.5843981]]]}},{"type":"Feature","id":"AC-Y603-X638","properties":{"id":"AC-Y603-X638","grid_x":638,"grid_y":603,"centroid":[-69.1972975,-8.5816993],"aggregation":"none","score_gradboost":0.02416,"score_random_forest":0.0501624,"score_logistic_regression":0.4021201,"score_fuzzy_knn_k29":0.0472149},"geometry":{"type":"Polygon","coordinates":[[[-69.2013565,-8.5844024],[-69.1932413,-8.5844066],[-69.1932385,-8.5789961],[-69.2013537,-8.578992],[-69.2013565,-8.5844024]]]}},{"type":"Feature","id":"AC-Y604-X634","properties":{"id":"AC-Y604-X634","grid_x":634,"grid_y":604,"centroid":[-69.229755,-8.5762709],"aggregation":"none","score_gradboost":0.0216046,"score_random_forest":0.0417232,"score_logistic_regression":0.4354882,"score_fuzzy_knn_k29":0.1496866},"geometry":{"type":"Polygon","coordinates":[[[-69.2338142,-8.5789737],[-69.2256991,-8.5789785],[-69.2256959,-8.573568],[-69.2338109,-8.5735632],[-69.2338142,-8.5789737]]]}},{"type":"Feature","id":"AC-Y604-X635","properties":{"id":"AC-Y604-X635","grid_x":635,"grid_y":604,"centroid":[-69.22164,-8.5762756],"aggregation":"none","score_gradboost":0.029721,"score_random_forest":0.0315798,"score_logistic_regression":0.3666427,"score_fuzzy_knn_k29":0.132827},"geometry":{"type":"Polygon","coordinates":[[[-69.2256991,-8.5789785],[-69.217584,-8.5789831],[-69.2175809,-8.5735727],[-69.2256959,-8.573568],[-69.2256991,-8.5789785]]]}},{"type":"Feature","id":"AC-Y604-X636","properties":{"id":"AC-Y604-X636","grid_x":636,"grid_y":604,"centroid":[-69.2135249,-8.5762802],"aggregation":"none","score_gradboost":0.0289368,"score_random_forest":0.0163839,"score_logistic_regression":0.4044879,"score_fuzzy_knn_k29":0.1448791},"geometry":{"type":"Polygon","coordinates":[[[-69.217584,-8.5789831],[-69.2094688,-8.5789876],[-69.2094659,-8.5735772],[-69.2175809,-8.5735727],[-69.217584,-8.5789831]]]}},{"type":"Feature","id":"AC-Y604-X637","properties":{"id":"AC-Y604-X637","grid_x":637,"grid_y":604,"centroid":[-69.2054098,-8.5762846],"aggregation":"none","score_gradboost":0.0258697,"score_random_forest":0.0123514,"score_logistic_regression":0.3872113,"score_fuzzy_knn_k29":0.1574622},"geometry":{"type":"Polygon","coordinates":[[[-69.2094688,-8.5789876],[-69.2013537,-8.578992],[-69.2013508,-8.5735815],[-69.2094659,-8.5735772],[-69.2094688,-8.5789876]]]}},{"type":"Feature","id":"AC-Y605-X634","properties":{"id":"AC-Y605-X634","grid_x":634,"grid_y":605,"centroid":[-69.2297518,-8.5708604],"aggregation":"none","score_gradboost":0.0193179,"score_random_forest":0.0122215,"score_logistic_regression":0.4260297,"score_fuzzy_knn_k29":0.1196821},"geometry":{"type":"Polygon","coordinates":[[[-69.2338109,-8.5735632],[-69.2256959,-8.573568],[-69.2256927,-8.5681575],[-69.2338076,-8.5681527],[-69.2338109,-8.5735632]]]}},{"type":"Feature","id":"AC-Y605-X635","properties":{"id":"AC-Y605-X635","grid_x":635,"grid_y":605,"centroid":[-69.2216368,-8.5708651],"aggregation":"none","score_gradboost":0.0193179,"score_random_forest":0.0152926,"score_logistic_regression":0.4270979,"score_fuzzy_knn_k29":0.1132249},"geometry":{"type":"Polygon","coordinates":[[[-69.2256959,-8.573568],[-69.2175809,-8.5735727],[-69.2175778,-8.5681622],[-69.2256927,-8.5681575],[-69.2256959,-8.573568]]]}},{"type":"Feature","id":"AC-Y605-X636","properties":{"id":"AC-Y605-X636","grid_x":636,"grid_y":605,"centroid":[-69.2135219,-8.5708697],"aggregation":"none","score_gradboost":0.019097,"score_random_forest":0.0133942,"score_logistic_regression":0.4001631,"score_fuzzy_knn_k29":0.1434102},"geometry":{"type":"Polygon","coordinates":[[[-69.2175809,-8.5735727],[-69.2094659,-8.5735772],[-69.2094629,-8.5681667],[-69.2175778,-8.5681622],[-69.2175809,-8.5735727]]]}},{"type":"Feature","id":"AC-Y606-X634","properties":{"id":"AC-Y606-X634","grid_x":634,"grid_y":606,"centroid":[-69.2297485,-8.5654499],"aggregation":"none","score_gradboost":0.0243134,"score_random_forest":0.0157239,"score_logistic_regression":0.4499793,"score_fuzzy_knn_k29":0.1442258},"geometry":{"type":"Polygon","coordinates":[[[-69.2338076,-8.5681527],[-69.2256927,-8.5681575],[-69.2256895,-8.562747],[-69.2338043,-8.5627422],[-69.2338076,-8.5681527]]]}},{"type":"Feature","id":"AC-Y606-X635","properties":{"id":"AC-Y606-X635","grid_x":635,"grid_y":606,"centroid":[-69.2216337,-8.5654546],"aggregation":"none","score_gradboost":0.0275073,"score_random_forest":0.0109542,"score_logistic_regression":0.4178778,"score_fuzzy_knn_k29":0.0889588},"geometry":{"type":"Polygon","coordinates":[[[-69.2256927,-8.5681575],[-69.2175778,-8.5681622],[-69.2175747,-8.5627517],[-69.2256895,-8.562747],[-69.2256927,-8.5681575]]]}},{"type":"Feature","id":"AC-Y607-X634","properties":{"id":"AC-Y607-X634","grid_x":634,"grid_y":607,"centroid":[-69.2297453,-8.5600394],"aggregation":"none","score_gradboost":0.0275073,"score_random_forest":0.0153955,"score_logistic_regression":0.4309922,"score_fuzzy_knn_k29":0.0989371},"geometry":{"type":"Polygon","coordinates":[[[-69.2338043,-8.5627422],[-69.2256895,-8.562747],[-69.2256863,-8.5573366],[-69.233801,-8.5573317],[-69.2338043,-8.5627422]]]}},{"type":"Feature","id":"AC-Y607-X635","properties":{"id":"AC-Y607-X635","grid_x":635,"grid_y":607,"centroid":[-69.2216306,-8.5600442],"aggregation":"none","score_gradboost":0.0257681,"score_random_forest":0.0108218,"score_logistic_regression":0.3993999,"score_fuzzy_knn_k29":0.0917758},"geometry":{"type":"Polygon","coordinates":[[[-69.2256895,-8.562747],[-69.2175747,-8.5627517],[-69.2175717,-8.5573412],[-69.2256863,-8.5573366],[-69.2256895,-8.562747]]]}},{"type":"Feature","id":"AC-Y608-X634","properties":{"id":"AC-Y608-X634","grid_x":634,"grid_y":608,"centroid":[-69.2297421,-8.5546289],"aggregation":"none","score_gradboost":0.0239002,"score_random_forest":0.0142442,"score_logistic_regression":0.445467,"score_fuzzy_knn_k29":0.086349},"geometry":{"type":"Polygon","coordinates":[[[-69.233801,-8.5573317],[-69.2256863,-8.5573366],[-69.2256832,-8.5519261],[-69.2337977,-8.5519213],[-69.233801,-8.5573317]]]}}]}