{"type":"FeatureCollection","features":[{"type":"Feature","id":"AC-Y647-X600","properties":{"id":"AC-Y647-X600","grid_x":600,"grid_y":647,"centroid":[-69.5053603,-8.3433634],"aggregation":"none","score_gradboost":0.0383159,"score_random_forest":0.0289531,"score_logistic_regression":0.2942842,"score_fuzzy_knn_k29":0.0},"geometry":{"type":"Polygon","coordinates":[[[-69.5094187,-8.3460634],[-69.5013087,-8.3460737],[-69.5013018,-8.3406633],[-69.5094117,-8.340653],[-69.5094187,-8.3460634]]]}},{"type":"Feature","id":"AC-Y647-X601","properties":{"id":"AC-Y647-X601","grid_x":601,"grid_y":647,"centroid":[-69.4972503,-8.3433736],"aggregation":"none","score_gradboost":0.0682546,"score_random_forest":0.0386583,"score_logistic_regression":0.3254836,"score_fuzzy_knn_k29":0.0},"geometry":{"type":"Polygon","coordinates":[[[-69.5013087,-8.3460737],[-69.4931987,-8.3460839],[-69.4931919,-8.3406735],[-69.5013018,-8.3406633],[-69.5013087,-8.3460737]]]}},{"type":"Feature","id":"AC-Y647-X602","properties":{"id":"AC-Y647-X602","grid_x":602,"grid_y":647,"centroid":[-69.4891403,-8.3433837],"aggregation":"none","score_gradboost":0.0305315,"score_random_forest":0.0423198,"score_logistic_regression":0.3278568,"score_fuzzy_knn_k29":0.0666811},"geometry":{"type":"Polygon","coordinates":[[[-69.4931987,-8.3460839],[-69.4850887,-8.3460939],[-69.485082,-8.3406835],[-69.4931919,-8.3406735],[-69.4931987,-8.3460839]]]}},{"type":"Feature","id":"AC-Y647-X603","properties":{"id":"AC-Y647-X603","grid_x":603,"grid_y":647,"centroid":[-69.4810304,-8.3433937],"aggregation":"none","score_gradboost":0.0618658,"score_random_forest":0.0854708,"score_logistic_regression":0.3130334,"score_fuzzy_knn_k29":0.0902659},"geometry":{"type":"Polygon","coordinates":[[[-69.4850887,-8.3460939],[-69.4769787,-8.3461038],[-69.4769721,-8.3406934],[-69.485082,-8.3406835],[-69.4850887,-8.3460939]]]}},{"type":"Feature","id":"AC-Y648-X600","properties":{"id":"AC-Y648-X600","grid_x":600,"grid_y":648,"centroid":[-69.5053533,-8.337953],"aggregation":"none","score_gradboost":0.0286881,"score_random_forest":0.0138077,"score_logistic_regression":0.251124,"score_fuzzy_knn_k29":0.0},"geometry":{"type":"Polygon","coordinates":[[[-69.5094117,-8.340653],[-69.5013018,-8.3406633],[-69.5012949,-8.335253],[-69.5094047,-8.3352426],[-69.5094117,-8.340653]]]}},{"type":"Feature","id":"AC-Y648-X601","properties":{"id":"AC-Y648-X601","grid_x":601,"grid_y":648,"centroid":[-69.4972435,-8.3379633],"aggregation":"none","score_gradboost":0.0670683,"score_random_forest":0.0483052,"score_logistic_regression":0.3415007,"score_fuzzy_knn_k29":0.0228159},"geometry":{"type":"Polygon","coordinates":[[[-69.5013018,-8.3406633],[-69.4931919,-8.3406735],[-69.4931852,-8.3352631],[-69.5012949,-8.335253],[-69.5013018,-8.3406633]]]}},{"type":"Feature","id":"AC-Y648-X602","properties":{"id":"AC-Y648-X602","grid_x":602,"grid_y":648,"centroid":[-69.4891336,-8.3379733],"aggregation":"none","score_gradboost":0.0381521,"score_random_forest":0.0447002,"score_logistic_regression":0.2892565,"score_fuzzy_knn_k29":0.0526709},"geometry":{"type":"Polygon","coordinates":[[[-69.4931919,-8.3406735],[-69.485082,-8.3406835],[-69.4850754,-8.3352731],[-69.4931852,-8.3352631],[-69.4931919,-8.3406735]]]}},{"type":"Feature","id":"AC-Y648-X603","properties":{"id":"AC-Y648-X603","grid_x":603,"grid_y":648,"centroid":[-69.4810238,-8.3379833],"aggregation":"none","score_gradboost":0.0830787,"score_random_forest":0.0886267,"score_logistic_regression":0.2641256,"score_fuzzy_knn_k29":0.0888719},"geometry":{"type":"Polygon","coordinates":[[[-69.485082,-8.3406835],[-69.4769721,-8.3406934],[-69.4769656,-8.335283],[-69.4850754,-8.3352731],[-69.485082,-8.3406835]]]}},{"type":"Feature","id":"AC-Y649-X600","properties":{"id":"AC-Y649-X600","grid_x":600,"grid_y":649,"centroid":[-69.5053464,-8.3325426],"aggregation":"none","score_gradboost":0.0559227,"score_random_forest":0.037192,"score_logistic_regression":0.3049868,"score_fuzzy_knn_k29":0.0},"geometry":{"type":"Polygon","coordinates":[[[-69.5094047,-8.3352426],[-69.5012949,-8.335253],[-69.5012881,-8.3298426],[-69.5093977,-8.3298323],[-69.5094047,-8.3352426]]]}},{"type":"Feature","id":"AC-Y649-X601","properties":{"id":"AC-Y649-X601","grid_x":601,"grid_y":649,"centroid":[-69.4972366,-8.3325529],"aggregation":"none","score_gradboost":0.0611968,"score_random_forest":0.0344633,"score_logistic_regression":0.2827146,"score_fuzzy_knn_k29":0.0224942},"geometry":{"type":"Polygon","coordinates":[[[-69.5012949,-8.335253],[-69.4931852,-8.3352631],[-69.4931784,-8.3298527],[-69.5012881,-8.3298426],[-69.5012949,-8.335253]]]}},{"type":"Feature","id":"AC-Y649-X602","properties":{"id":"AC-Y649-X602","grid_x":602,"grid_y":649,"centroid":[-69.4891269,-8.332563],"aggregation":"none","score_gradboost":0.0365085,"score_random_forest":0.0526858,"score_logistic_regression":0.2965341,"score_fuzzy_knn_k29":0.0717718},"geometry":{"type":"Polygon","coordinates":[[[-69.4931852,-8.3352631],[-69.4850754,-8.3352731],[-69.4850687,-8.3298627],[-69.4931784,-8.3298527],[-69.4931852,-8.3352631]]]}},{"type":"Feature","id":"AC-Y650-X600","properties":{"id":"AC-Y650-X600","grid_x":600,"grid_y":650,"centroid":[-69.5053394,-8.3271323],"aggregation":"none","score_gradboost":0.0598735,"score_random_forest":0.0380079,"score_logistic_regression":0.2967769,"score_fuzzy_knn_k29":0.0},"geometry":{"type":"Polygon","coordinates":[[[-69.5093977,-8.3298323],[-69.5012881,-8.3298426],[-69.5012812,-8.3244322],[-69.5093907,-8.3244219],[-69.5093977,-8.3298323]]]}},{"type":"Feature","id":"AC-Y650-X601","properties":{"id":"AC-Y650-X601","grid_x":601,"grid_y":650,"centroid":[-69.4972298,-8.3271425],"aggregation":"none","score_gradboost":0.0460965,"score_random_forest":0.0132794,"score_logistic_regression":0.2522822,"score_fuzzy_knn_k29":0.0237303},"geometry":{"type":"Polygon","coordinates":[[[-69.5012881,-8.3298426],[-69.4931784,-8.3298527],[-69.4931716,-8.3244424],[-69.5012812,-8.3244322],[-69.5012881,-8.3298426]]]}},{"type":"Feature","id":"AC-Y651-X600","properties":{"id":"AC-Y651-X600","grid_x":600,"grid_y":651,"centroid":[-69.5053325,-8.3217219],"aggregation":"none","score_gradboost":0.0467387,"score_random_forest":0.0228789,"score_logistic_regression":0.2366816,"score_fuzzy_knn_k29":0.0},"geometry":{"type":"Polygon","coordinates":[[[-69.5093907,-8.3244219],[-69.5012812,-8.3244322],[-69.5012743,-8.3190218],[-69.5093837,-8.3190115],[-69.5093907,-8.3244219]]]}},{"type":"Feature","id":"AC-Y652-X600","properties":{"id":"AC-Y652-X600","grid_x":600,"grid_y":652,"centroid":[-69.5053256,-8.3163115],"aggregation":"none","score_gradboost":0.0319256,"score_random_forest":0.0195067,"score_logistic_regression":0.2339349,"score_fuzzy_knn_k29":0.0},"geometry":{"type":"Polygon","coordinates":[[[-69.5093837,-8.3190115],[-69.5012743,-8.3190218],[-69.5012674,-8.3136114],[-69.5093768,-8.3136011],[-69.5093837,-8.3190115]]]}}]}