{"type":"FeatureCollection","features":[{"type":"Feature","id":"AC-Y850-X78","properties":{"id":"AC-Y850-X78","grid_x":78,"grid_y":850,"centroid":[-73.7211175,-7.2208237],"aggregation":"none","score_gradboost":0.0181452,"score_random_forest":0.0103443,"score_logistic_regression":3.36e-05,"score_fuzzy_knn_k29":0.0},"geometry":{"type":"Polygon","coordinates":[[[-73.7251761,-7.2234781],[-73.7171149,-7.2235617],[-73.7170589,-7.2181692],[-73.72512,-7.2180857],[-73.7251761,-7.2234781]]]}},{"type":"Feature","id":"AC-Y850-X79","properties":{"id":"AC-Y850-X79","grid_x":79,"grid_y":850,"centroid":[-73.7130564,-7.2209072],"aggregation":"none","score_gradboost":0.0081871,"score_random_forest":0.005239,"score_logistic_regression":0.0005291,"score_fuzzy_knn_k29":0.0},"geometry":{"type":"Polygon","coordinates":[[[-73.7171149,-7.2235617],[-73.7090537,-7.2236451],[-73.7089978,-7.2182526],[-73.7170589,-7.2181692],[-73.7171149,-7.2235617]]]}},{"type":"Feature","id":"AC-Y851-X77","properties":{"id":"AC-Y851-X77","grid_x":77,"grid_y":851,"centroid":[-73.7291224,-7.2153477],"aggregation":"none","score_gradboost":0.0341954,"score_random_forest":0.0736061,"score_logistic_regression":0.0005168,"score_fuzzy_knn_k29":0.0},"geometry":{"type":"Polygon","coordinates":[[[-73.7331809,-7.218002],[-73.72512,-7.2180857],[-73.7250639,-7.2126933],[-73.7331248,-7.2126097],[-73.7331809,-7.218002]]]}},{"type":"Feature","id":"AC-Y851-X78","properties":{"id":"AC-Y851-X78","grid_x":78,"grid_y":851,"centroid":[-73.7210615,-7.2154313],"aggregation":"none","score_gradboost":0.0273539,"score_random_forest":0.0053579,"score_logistic_regression":0.0003664,"score_fuzzy_knn_k29":0.0},"geometry":{"type":"Polygon","coordinates":[[[-73.72512,-7.2180857],[-73.7170589,-7.2181692],[-73.717003,-7.2127768],[-73.7250639,-7.2126933],[-73.72512,-7.2180857]]]}},{"type":"Feature","id":"AC-Y851-X79","properties":{"id":"AC-Y851-X79","grid_x":79,"grid_y":851,"centroid":[-73.7130004,-7.2155147],"aggregation":"none","score_gradboost":0.0098342,"score_random_forest":0.0022726,"score_logistic_regression":0.0015772,"score_fuzzy_knn_k29":0.0},"geometry":{"type":"Polygon","coordinates":[[[-73.7170589,-7.2181692],[-73.7089978,-7.2182526],[-73.7089419,-7.2128601],[-73.717003,-7.2127768],[-73.7170589,-7.2181692]]]}},{"type":"Feature","id":"AC-Y852-X76","properties":{"id":"AC-Y852-X76","grid_x":76,"grid_y":852,"centroid":[-73.7371271,-7.2098717],"aggregation":"none","score_gradboost":0.025671,"score_random_forest":0.0313679,"score_logistic_regression":0.0001648,"score_fuzzy_knn_k29":0.0},"geometry":{"type":"Polygon","coordinates":[[[-73.7411855,-7.212526],[-73.7331248,-7.2126097],[-73.7330687,-7.2072174],[-73.7411293,-7.2071337],[-73.7411855,-7.212526]]]}},{"type":"Feature","id":"AC-Y852-X77","properties":{"id":"AC-Y852-X77","grid_x":77,"grid_y":852,"centroid":[-73.7290663,-7.2099554],"aggregation":"none","score_gradboost":0.0341954,"score_random_forest":0.0441163,"score_logistic_regression":0.0001084,"score_fuzzy_knn_k29":0.0},"geometry":{"type":"Polygon","coordinates":[[[-73.7331248,-7.2126097],[-73.7250639,-7.2126933],[-73.7250079,-7.207301],[-73.7330687,-7.2072174],[-73.7331248,-7.2126097]]]}},{"type":"Feature","id":"AC-Y852-X78","properties":{"id":"AC-Y852-X78","grid_x":78,"grid_y":852,"centroid":[-73.7210055,-7.2100389],"aggregation":"none","score_gradboost":0.0273539,"score_random_forest":0.0068879,"score_logistic_regression":0.0003561,"score_fuzzy_knn_k29":0.0},"geometry":{"type":"Polygon","coordinates":[[[-73.7250639,-7.2126933],[-73.717003,-7.2127768],[-73.7169471,-7.2073844],[-73.7250079,-7.207301],[-73.7250639,-7.2126933]]]}},{"type":"Feature","id":"AC-Y852-X79","properties":{"id":"AC-Y852-X79","grid_x":79,"grid_y":852,"centroid":[-73.7129445,-7.2101223],"aggregation":"none","score_gradboost":0.0098342,"score_random_forest":0.0020443,"score_logistic_regression":0.0031319,"score_fuzzy_knn_k29":0.0},"geometry":{"type":"Polygon","coordinates":[[[-73.717003,-7.2127768],[-73.7089419,-7.2128601],[-73.7088861,-7.2074677],[-73.7169471,-7.2073844],[-73.717003,-7.2127768]]]}},{"type":"Feature","id":"AC-Y853-X75","properties":{"id":"AC-Y853-X75","grid_x":75,"grid_y":853,"centroid":[-73.7451315,-7.2043957],"aggregation":"none","score_gradboost":0.0328497,"score_random_forest":0.0462107,"score_logistic_regression":0.0005433,"score_fuzzy_knn_k29":0.0},"geometry":{"type":"Polygon","coordinates":[[[-73.7491899,-7.2070499],[-73.7411293,-7.2071337],[-73.7410732,-7.2017415],[-73.7491336,-7.2016577],[-73.7491899,-7.2070499]]]}},{"type":"Feature","id":"AC-Y853-X76","properties":{"id":"AC-Y853-X76","grid_x":76,"grid_y":853,"centroid":[-73.737071,-7.2044795],"aggregation":"none","score_gradboost":0.025671,"score_random_forest":0.0313679,"score_logistic_regression":0.0005041,"score_fuzzy_knn_k29":0.0},"geometry":{"type":"Polygon","coordinates":[[[-73.7411293,-7.2071337],[-73.7330687,-7.2072174],[-73.7330126,-7.2018251],[-73.7410732,-7.2017415],[-73.7411293,-7.2071337]]]}},{"type":"Feature","id":"AC-Y853-X77","properties":{"id":"AC-Y853-X77","grid_x":77,"grid_y":853,"centroid":[-73.7290103,-7.204563],"aggregation":"none","score_gradboost":0.0328497,"score_random_forest":0.0496646,"score_logistic_regression":0.0002158,"score_fuzzy_knn_k29":0.0},"geometry":{"type":"Polygon","coordinates":[[[-73.7330687,-7.2072174],[-73.7250079,-7.207301],[-73.7249519,-7.2019086],[-73.7330126,-7.2018251],[-73.7330687,-7.2072174]]]}},{"type":"Feature","id":"AC-Y853-X78","properties":{"id":"AC-Y853-X78","grid_x":78,"grid_y":853,"centroid":[-73.7209495,-7.2046465],"aggregation":"none","score_gradboost":0.0390114,"score_random_forest":0.1229927,"score_logistic_regression":0.0017406,"score_fuzzy_knn_k29":0.0211959},"geometry":{"type":"Polygon","coordinates":[[[-73.7250079,-7.207301],[-73.7169471,-7.2073844],[-73.7168912,-7.201992],[-73.7249519,-7.2019086],[-73.7250079,-7.207301]]]}},{"type":"Feature","id":"AC-Y853-X79","properties":{"id":"AC-Y853-X79","grid_x":79,"grid_y":853,"centroid":[-73.7128887,-7.2047298],"aggregation":"none","score_gradboost":0.0377683,"score_random_forest":0.0093242,"score_logistic_regression":0.0046083,"score_fuzzy_knn_k29":0.0},"geometry":{"type":"Polygon","coordinates":[[[-73.7169471,-7.2073844],[-73.7088861,-7.2074677],[-73.7088303,-7.2020752],[-73.7168912,-7.201992],[-73.7169471,-7.2073844]]]}},{"type":"Feature","id":"AC-Y854-X74","properties":{"id":"AC-Y854-X74","grid_x":74,"grid_y":854,"centroid":[-73.7531357,-7.1989197],"aggregation":"none","score_gradboost":0.0289022,"score_random_forest":0.022657,"score_logistic_regression":8.79e-05,"score_fuzzy_knn_k29":0.0},"geometry":{"type":"Polygon","coordinates":[[[-73.757194,-7.2015738],[-73.7491336,-7.2016577],[-73.7490774,-7.1962655],[-73.7571377,-7.1961817],[-73.757194,-7.2015738]]]}},{"type":"Feature","id":"AC-Y854-X75","properties":{"id":"AC-Y854-X75","grid_x":75,"grid_y":854,"centroid":[-73.7450753,-7.1990035],"aggregation":"none","score_gradboost":0.0328497,"score_random_forest":0.0454453,"score_logistic_regression":0.0001128,"score_fuzzy_knn_k29":0.0},"geometry":{"type":"Polygon","coordinates":[[[-73.7491336,-7.2016577],[-73.7410732,-7.2017415],[-73.7410171,-7.1963492],[-73.7490774,-7.1962655],[-73.7491336,-7.2016577]]]}},{"type":"Feature","id":"AC-Y854-X76","properties":{"id":"AC-Y854-X76","grid_x":76,"grid_y":854,"centroid":[-73.7370149,-7.1990872],"aggregation":"none","score_gradboost":0.025671,"score_random_forest":0.0313679,"score_logistic_regression":0.000846,"score_fuzzy_knn_k29":0.0},"geometry":{"type":"Polygon","coordinates":[[[-73.7410732,-7.2017415],[-73.7330126,-7.2018251],[-73.7329566,-7.1964328],[-73.7410171,-7.1963492],[-73.7410732,-7.2017415]]]}},{"type":"Feature","id":"AC-Y854-X77","properties":{"id":"AC-Y854-X77","grid_x":77,"grid_y":854,"centroid":[-73.7289543,-7.1991707],"aggregation":"none","score_gradboost":0.0311295,"score_random_forest":0.033539,"score_logistic_regression":0.0013317,"score_fuzzy_knn_k29":0.0220507},"geometry":{"type":"Polygon","coordinates":[[[-73.7330126,-7.2018251],[-73.7249519,-7.2019086],[-73.724896,-7.1965162],[-73.7329566,-7.1964328],[-73.7330126,-7.2018251]]]}},{"type":"Feature","id":"AC-Y854-X78","properties":{"id":"AC-Y854-X78","grid_x":78,"grid_y":854,"centroid":[-73.7208936,-7.1992541],"aggregation":"none","score_gradboost":0.0341954,"score_random_forest":0.0497561,"score_logistic_regression":0.0033168,"score_fuzzy_knn_k29":0.0261772},"geometry":{"type":"Polygon","coordinates":[[[-73.7249519,-7.2019086],[-73.7168912,-7.201992],[-73.7168353,-7.1965995],[-73.724896,-7.1965162],[-73.7249519,-7.2019086]]]}},{"type":"Feature","id":"AC-Y854-X79","properties":{"id":"AC-Y854-X79","grid_x":79,"grid_y":854,"centroid":[-73.7128329,-7.1993373],"aggregation":"none","score_gradboost":0.0370279,"score_random_forest":0.0163971,"score_logistic_regression":0.0048794,"score_fuzzy_knn_k29":0.017229},"geometry":{"type":"Polygon","coordinates":[[[-73.7168912,-7.201992],[-73.7088303,-7.2020752],[-73.7087746,-7.1966827],[-73.7168353,-7.1965995],[-73.7168912,-7.201992]]]}},{"type":"Feature","id":"AC-Y855-X74","properties":{"id":"AC-Y855-X74","grid_x":74,"grid_y":855,"centroid":[-73.7530795,-7.1935276],"aggregation":"none","score_gradboost":0.0273539,"score_random_forest":0.0070327,"score_logistic_regression":0.0004576,"score_fuzzy_knn_k29":0.0},"geometry":{"type":"Polygon","coordinates":[[[-73.7571377,-7.1961817],[-73.7490774,-7.1962655],[-73.7490213,-7.1908734],[-73.7570815,-7.1907896],[-73.7571377,-7.1961817]]]}},{"type":"Feature","id":"AC-Y855-X75","properties":{"id":"AC-Y855-X75","grid_x":75,"grid_y":855,"centroid":[-73.7450192,-7.1936113],"aggregation":"none","score_gradboost":0.0341954,"score_random_forest":0.0708018,"score_logistic_regression":6.85e-05,"score_fuzzy_knn_k29":0.0},"geometry":{"type":"Polygon","coordinates":[[[-73.7490774,-7.1962655],[-73.7410171,-7.1963492],[-73.740961,-7.190957],[-73.7490213,-7.1908734],[-73.7490774,-7.1962655]]]}},{"type":"Feature","id":"AC-Y855-X76","properties":{"id":"AC-Y855-X76","grid_x":76,"grid_y":855,"centroid":[-73.7369588,-7.1936949],"aggregation":"none","score_gradboost":0.0290329,"score_random_forest":0.0355741,"score_logistic_regression":0.0003318,"score_fuzzy_knn_k29":0.0},"geometry":{"type":"Polygon","coordinates":[[[-73.7410171,-7.1963492],[-73.7329566,-7.1964328],[-73.7329006,-7.1910405],[-73.740961,-7.190957],[-73.7410171,-7.1963492]]]}},{"type":"Feature","id":"AC-Y855-X77","properties":{"id":"AC-Y855-X77","grid_x":77,"grid_y":855,"centroid":[-73.7288983,-7.1937784],"aggregation":"none","score_gradboost":0.025671,"score_random_forest":0.0321233,"score_logistic_regression":0.0031703,"score_fuzzy_knn_k29":0.0327999},"geometry":{"type":"Polygon","coordinates":[[[-73.7329566,-7.1964328],[-73.724896,-7.1965162],[-73.7248401,-7.1911239],[-73.7329006,-7.1910405],[-73.7329566,-7.1964328]]]}},{"type":"Feature","id":"AC-Y855-X78","properties":{"id":"AC-Y855-X78","grid_x":78,"grid_y":855,"centroid":[-73.7208378,-7.1938617],"aggregation":"none","score_gradboost":0.0426182,"score_random_forest":0.0491748,"score_logistic_regression":0.0042761,"score_fuzzy_knn_k29":0.0460631},"geometry":{"type":"Polygon","coordinates":[[[-73.724896,-7.1965162],[-73.7168353,-7.1965995],[-73.7167795,-7.1912071],[-73.7248401,-7.1911239],[-73.724896,-7.1965162]]]}},{"type":"Feature","id":"AC-Y855-X79","properties":{"id":"AC-Y855-X79","grid_x":79,"grid_y":855,"centroid":[-73.7127771,-7.1939449],"aggregation":"none","score_gradboost":0.0592703,"score_random_forest":0.0829969,"score_logistic_regression":0.0049567,"score_fuzzy_knn_k29":0.0363532},"geometry":{"type":"Polygon","coordinates":[[[-73.7168353,-7.1965995],[-73.7087746,-7.1966827],[-73.7087189,-7.1912902],[-73.7167795,-7.1912071],[-73.7168353,-7.1965995]]]}},{"type":"Feature","id":"AC-Y856-X74","properties":{"id":"AC-Y856-X74","grid_x":74,"grid_y":856,"centroid":[-73.7530233,-7.1881354],"aggregation":"none","score_gradboost":0.0181452,"score_random_forest":0.0119108,"score_logistic_regression":0.0008392,"score_fuzzy_knn_k29":0.0},"geometry":{"type":"Polygon","coordinates":[[[-73.7570815,-7.1907896],[-73.7490213,-7.1908734],[-73.7489651,-7.1854812],[-73.7570252,-7.1853975],[-73.7570815,-7.1907896]]]}},{"type":"Feature","id":"AC-Y856-X75","properties":{"id":"AC-Y856-X75","grid_x":75,"grid_y":856,"centroid":[-73.7449631,-7.1882191],"aggregation":"none","score_gradboost":0.0313935,"score_random_forest":0.0218114,"score_logistic_regression":0.0016599,"score_fuzzy_knn_k29":0.0219623},"geometry":{"type":"Polygon","coordinates":[[[-73.7490213,-7.1908734],[-73.740961,-7.190957],[-73.7409049,-7.1855648],[-73.7489651,-7.1854812],[-73.7490213,-7.1908734]]]}},{"type":"Feature","id":"AC-Y856-X76","properties":{"id":"AC-Y856-X76","grid_x":76,"grid_y":856,"centroid":[-73.7369028,-7.1883026],"aggregation":"none","score_gradboost":0.0328497,"score_random_forest":0.0532892,"score_logistic_regression":0.0018058,"score_fuzzy_knn_k29":0.0233796},"geometry":{"type":"Polygon","coordinates":[[[-73.740961,-7.190957],[-73.7329006,-7.1910405],[-73.7328447,-7.1856482],[-73.7409049,-7.1855648],[-73.740961,-7.190957]]]}},{"type":"Feature","id":"AC-Y856-X77","properties":{"id":"AC-Y856-X77","grid_x":77,"grid_y":856,"centroid":[-73.7288424,-7.188386],"aggregation":"none","score_gradboost":0.0286514,"score_random_forest":0.036222,"score_logistic_regression":0.0034549,"score_fuzzy_knn_k29":0.0308264},"geometry":{"type":"Polygon","coordinates":[[[-73.7329006,-7.1910405],[-73.7248401,-7.1911239],[-73.7247843,-7.1857315],[-73.7328447,-7.1856482],[-73.7329006,-7.1910405]]]}},{"type":"Feature","id":"AC-Y856-X78","properties":{"id":"AC-Y856-X78","grid_x":78,"grid_y":856,"centroid":[-73.7207819,-7.1884693],"aggregation":"none","score_gradboost":0.046498,"score_random_forest":0.0369698,"score_logistic_regression":0.0044165,"score_fuzzy_knn_k29":0.077853},"geometry":{"type":"Polygon","coordinates":[[[-73.7248401,-7.1911239],[-73.7167795,-7.1912071],[-73.7167238,-7.1858147],[-73.7247843,-7.1857315],[-73.7248401,-7.1911239]]]}},{"type":"Feature","id":"AC-Y856-X79","properties":{"id":"AC-Y856-X79","grid_x":79,"grid_y":856,"centroid":[-73.7127214,-7.1885524],"aggregation":"none","score_gradboost":0.0507213,"score_random_forest":0.0500451,"score_logistic_regression":0.0052045,"score_fuzzy_knn_k29":0.0751228},"geometry":{"type":"Polygon","coordinates":[[[-73.7167795,-7.1912071],[-73.7087189,-7.1912902],[-73.7086632,-7.1858977],[-73.7167238,-7.1858147],[-73.7167795,-7.1912071]]]}},{"type":"Feature","id":"AC-Y857-X74","properties":{"id":"AC-Y857-X74","grid_x":74,"grid_y":857,"centroid":[-73.7529671,-7.1827433],"aggregation":"none","score_gradboost":0.0097901,"score_random_forest":0.0024016,"score_logistic_regression":0.0007988,"score_fuzzy_knn_k29":0.0},"geometry":{"type":"Polygon","coordinates":[[[-73.7570252,-7.1853975],[-73.7489651,-7.1854812],[-73.7489091,-7.180089],[-73.7569691,-7.1800053],[-73.7570252,-7.1853975]]]}},{"type":"Feature","id":"AC-Y857-X75","properties":{"id":"AC-Y857-X75","grid_x":75,"grid_y":857,"centroid":[-73.744907,-7.1828269],"aggregation":"none","score_gradboost":0.0273539,"score_random_forest":0.0070327,"score_logistic_regression":0.0005054,"score_fuzzy_knn_k29":0.0},"geometry":{"type":"Polygon","coordinates":[[[-73.7489651,-7.1854812],[-73.7409049,-7.1855648],[-73.740849,-7.1801725],[-73.7489091,-7.180089],[-73.7489651,-7.1854812]]]}},{"type":"Feature","id":"AC-Y857-X76","properties":{"id":"AC-Y857-X76","grid_x":76,"grid_y":857,"centroid":[-73.7368468,-7.1829104],"aggregation":"none","score_gradboost":0.0341954,"score_random_forest":0.0750073,"score_logistic_regression":0.0007443,"score_fuzzy_knn_k29":0.0},"geometry":{"type":"Polygon","coordinates":[[[-73.7409049,-7.1855648],[-73.7328447,-7.1856482],[-73.7327888,-7.1802559],[-73.740849,-7.1801725],[-73.7409049,-7.1855648]]]}},{"type":"Feature","id":"AC-Y857-X77","properties":{"id":"AC-Y857-X77","grid_x":77,"grid_y":857,"centroid":[-73.7287866,-7.1829937],"aggregation":"none","score_gradboost":0.0311295,"score_random_forest":0.0393374,"score_logistic_regression":0.0035378,"score_fuzzy_knn_k29":0.029283},"geometry":{"type":"Polygon","coordinates":[[[-73.7328447,-7.1856482],[-73.7247843,-7.1857315],[-73.7247285,-7.1803391],[-73.7327888,-7.1802559],[-73.7328447,-7.1856482]]]}},{"type":"Feature","id":"AC-Y857-X78","properties":{"id":"AC-Y857-X78","grid_x":78,"grid_y":857,"centroid":[-73.7207262,-7.1830769],"aggregation":"none","score_gradboost":0.036271,"score_random_forest":0.035045,"score_logistic_regression":0.0043595,"score_fuzzy_knn_k29":0.0804285},"geometry":{"type":"Polygon","coordinates":[[[-73.7247843,-7.1857315],[-73.7167238,-7.1858147],[-73.7166681,-7.1804222],[-73.7247285,-7.1803391],[-73.7247843,-7.1857315]]]}},{"type":"Feature","id":"AC-Y857-X79","properties":{"id":"AC-Y857-X79","grid_x":79,"grid_y":857,"centroid":[-73.7126657,-7.18316],"aggregation":"none","score_gradboost":0.0456548,"score_random_forest":0.0393085,"score_logistic_regression":0.0053565,"score_fuzzy_knn_k29":0.1097636},"geometry":{"type":"Polygon","coordinates":[[[-73.7167238,-7.1858147],[-73.7086632,-7.1858977],[-73.7086076,-7.1805052],[-73.7166681,-7.1804222],[-73.7167238,-7.1858147]]]}},{"type":"Feature","id":"AC-Y858-X74","properties":{"id":"AC-Y858-X74","grid_x":74,"grid_y":858,"centroid":[-73.752911,-7.1773511],"aggregation":"none","score_gradboost":0.0081503,"score_random_forest":0.0,"score_logistic_regression":3.17e-05,"score_fuzzy_knn_k29":0.0},"geometry":{"type":"Polygon","coordinates":[[[-73.7569691,-7.1800053],[-73.7489091,-7.180089],[-73.748853,-7.1746968],[-73.7569129,-7.1746132],[-73.7569691,-7.1800053]]]}},{"type":"Feature","id":"AC-Y858-X75","properties":{"id":"AC-Y858-X75","grid_x":75,"grid_y":858,"centroid":[-73.744851,-7.1774347],"aggregation":"none","score_gradboost":0.0181452,"score_random_forest":0.0121426,"score_logistic_regression":0.0001853,"score_fuzzy_knn_k29":0.0},"geometry":{"type":"Polygon","coordinates":[[[-73.7489091,-7.180089],[-73.740849,-7.1801725],[-73.740793,-7.1747803],[-73.748853,-7.1746968],[-73.7489091,-7.180089]]]}},{"type":"Feature","id":"AC-Y858-X76","properties":{"id":"AC-Y858-X76","grid_x":76,"grid_y":858,"centroid":[-73.7367909,-7.1775181],"aggregation":"none","score_gradboost":0.0313935,"score_random_forest":0.0271234,"score_logistic_regression":0.0005826,"score_fuzzy_knn_k29":0.0},"geometry":{"type":"Polygon","coordinates":[[[-73.740849,-7.1801725],[-73.7327888,-7.1802559],[-73.7327329,-7.1748636],[-73.740793,-7.1747803],[-73.740849,-7.1801725]]]}},{"type":"Feature","id":"AC-Y858-X77","properties":{"id":"AC-Y858-X77","grid_x":77,"grid_y":858,"centroid":[-73.7287307,-7.1776014],"aggregation":"none","score_gradboost":0.0443457,"score_random_forest":0.0459164,"score_logistic_regression":0.0040344,"score_fuzzy_knn_k29":0.0423212},"geometry":{"type":"Polygon","coordinates":[[[-73.7327888,-7.1802559],[-73.7247285,-7.1803391],[-73.7246727,-7.1749468],[-73.7327329,-7.1748636],[-73.7327888,-7.1802559]]]}},{"type":"Feature","id":"AC-Y858-X78","properties":{"id":"AC-Y858-X78","grid_x":78,"grid_y":858,"centroid":[-73.7206704,-7.1776845],"aggregation":"none","score_gradboost":0.046498,"score_random_forest":0.0376605,"score_logistic_regression":0.0044851,"score_fuzzy_knn_k29":0.0759398},"geometry":{"type":"Polygon","coordinates":[[[-73.7247285,-7.1803391],[-73.7166681,-7.1804222],[-73.7166124,-7.1750298],[-73.7246727,-7.1749468],[-73.7247285,-7.1803391]]]}},{"type":"Feature","id":"AC-Y858-X79","properties":{"id":"AC-Y858-X79","grid_x":79,"grid_y":858,"centroid":[-73.7126101,-7.1777675],"aggregation":"none","score_gradboost":0.0667867,"score_random_forest":0.0392683,"score_logistic_regression":0.0051785,"score_fuzzy_knn_k29":0.0811778},"geometry":{"type":"Polygon","coordinates":[[[-73.7166681,-7.1804222],[-73.7086076,-7.1805052],[-73.708552,-7.1751127],[-73.7166124,-7.1750298],[-73.7166681,-7.1804222]]]}},{"type":"Feature","id":"AC-Y859-X74","properties":{"id":"AC-Y859-X74","grid_x":74,"grid_y":859,"centroid":[-73.752855,-7.171959],"aggregation":"none","score_gradboost":0.0061725,"score_random_forest":0.0,"score_logistic_regression":3.73e-05,"score_fuzzy_knn_k29":0.0},"geometry":{"type":"Polygon","coordinates":[[[-73.7569129,-7.1746132],[-73.748853,-7.1746968],[-73.748797,-7.1693046],[-73.7568568,-7.1692211],[-73.7569129,-7.1746132]]]}},{"type":"Feature","id":"AC-Y859-X75","properties":{"id":"AC-Y859-X75","grid_x":75,"grid_y":859,"centroid":[-73.744795,-7.1720424],"aggregation":"none","score_gradboost":0.0097901,"score_random_forest":0.0024016,"score_logistic_regression":0.0015424,"score_fuzzy_knn_k29":0.0},"geometry":{"type":"Polygon","coordinates":[[[-73.748853,-7.1746968],[-73.740793,-7.1747803],[-73.7407371,-7.169388],[-73.748797,-7.1693046],[-73.748853,-7.1746968]]]}},{"type":"Feature","id":"AC-Y859-X76","properties":{"id":"AC-Y859-X76","grid_x":76,"grid_y":859,"centroid":[-73.736735,-7.1721258],"aggregation":"none","score_gradboost":0.0273539,"score_random_forest":0.0062825,"score_logistic_regression":0.0005248,"score_fuzzy_knn_k29":0.0},"geometry":{"type":"Polygon","coordinates":[[[-73.740793,-7.1747803],[-73.7327329,-7.1748636],[-73.7326771,-7.1694713],[-73.7407371,-7.169388],[-73.740793,-7.1747803]]]}},{"type":"Feature","id":"AC-Y859-X77","properties":{"id":"AC-Y859-X77","grid_x":77,"grid_y":859,"centroid":[-73.7286749,-7.172209],"aggregation":"none","score_gradboost":0.0313935,"score_random_forest":0.0306025,"score_logistic_regression":0.0036393,"score_fuzzy_knn_k29":0.0180561},"geometry":{"type":"Polygon","coordinates":[[[-73.7327329,-7.1748636],[-73.7246727,-7.1749468],[-73.724617,-7.1695544],[-73.7326771,-7.1694713],[-73.7327329,-7.1748636]]]}},{"type":"Feature","id":"AC-Y859-X78","properties":{"id":"AC-Y859-X78","grid_x":78,"grid_y":859,"centroid":[-73.7206147,-7.1722921],"aggregation":"none","score_gradboost":0.0443457,"score_random_forest":0.0448761,"score_logistic_regression":0.004829,"score_fuzzy_knn_k29":0.0675823},"geometry":{"type":"Polygon","coordinates":[[[-73.7246727,-7.1749468],[-73.7166124,-7.1750298],[-73.7165568,-7.1696373],[-73.724617,-7.1695544],[-73.7246727,-7.1749468]]]}},{"type":"Feature","id":"AC-Y859-X79","properties":{"id":"AC-Y859-X79","grid_x":79,"grid_y":859,"centroid":[-73.7125545,-7.172375],"aggregation":"none","score_gradboost":0.0526983,"score_random_forest":0.0460031,"score_logistic_regression":0.0053097,"score_fuzzy_knn_k29":0.1016248},"geometry":{"type":"Polygon","coordinates":[[[-73.7166124,-7.1750298],[-73.708552,-7.1751127],[-73.7084965,-7.1697202],[-73.7165568,-7.1696373],[-73.7166124,-7.1750298]]]}},{"type":"Feature","id":"AC-Y860-X73","properties":{"id":"AC-Y860-X73","grid_x":73,"grid_y":860,"centroid":[-73.7608586,-7.1664832],"aggregation":"none","score_gradboost":0.0059545,"score_random_forest":0.0,"score_logistic_regression":0.0002504,"score_fuzzy_knn_k29":0.0},"geometry":{"type":"Polygon","coordinates":[[[-73.7649165,-7.1691374],[-73.7568568,-7.1692211],[-73.7568008,-7.163829],[-73.7648604,-7.1637454],[-73.7649165,-7.1691374]]]}},{"type":"Feature","id":"AC-Y860-X74","properties":{"id":"AC-Y860-X74","grid_x":74,"grid_y":860,"centroid":[-73.7527989,-7.1665668],"aggregation":"none","score_gradboost":0.0059545,"score_random_forest":0.0,"score_logistic_regression":0.0001028,"score_fuzzy_knn_k29":0.0},"geometry":{"type":"Polygon","coordinates":[[[-73.7568568,-7.1692211],[-73.748797,-7.1693046],[-73.7487411,-7.1639124],[-73.7568008,-7.163829],[-73.7568568,-7.1692211]]]}},{"type":"Feature","id":"AC-Y860-X75","properties":{"id":"AC-Y860-X75","grid_x":75,"grid_y":860,"centroid":[-73.7447391,-7.1666502],"aggregation":"none","score_gradboost":0.0081503,"score_random_forest":0.0,"score_logistic_regression":3.92e-05,"score_fuzzy_knn_k29":0.0},"geometry":{"type":"Polygon","coordinates":[[[-73.748797,-7.1693046],[-73.7407371,-7.169388],[-73.7406812,-7.1639958],[-73.7487411,-7.1639124],[-73.748797,-7.1693046]]]}},{"type":"Feature","id":"AC-Y860-X76","properties":{"id":"AC-Y860-X76","grid_x":76,"grid_y":860,"centroid":[-73.7366792,-7.1667335],"aggregation":"none","score_gradboost":0.0097901,"score_random_forest":0.0243118,"score_logistic_regression":0.0009331,"score_fuzzy_knn_k29":0.0},"geometry":{"type":"Polygon","coordinates":[[[-73.7407371,-7.169388],[-73.7326771,-7.1694713],[-73.7326213,-7.164079],[-73.7406812,-7.1639958],[-73.7407371,-7.169388]]]}},{"type":"Feature","id":"AC-Y860-X77","properties":{"id":"AC-Y860-X77","grid_x":77,"grid_y":860,"centroid":[-73.7286192,-7.1668167],"aggregation":"none","score_gradboost":0.0273539,"score_random_forest":0.0067734,"score_logistic_regression":0.0040252,"score_fuzzy_knn_k29":0.0271159},"geometry":{"type":"Polygon","coordinates":[[[-73.7326771,-7.1694713],[-73.724617,-7.1695544],[-73.7245613,-7.164162],[-73.7326213,-7.164079],[-73.7326771,-7.1694713]]]}},{"type":"Feature","id":"AC-Y860-X78","properties":{"id":"AC-Y860-X78","grid_x":78,"grid_y":860,"centroid":[-73.7205591,-7.1668997],"aggregation":"none","score_gradboost":0.0405003,"score_random_forest":0.0155426,"score_logistic_regression":0.0049087,"score_fuzzy_knn_k29":0.0505759},"geometry":{"type":"Polygon","coordinates":[[[-73.724617,-7.1695544],[-73.7165568,-7.1696373],[-73.7165012,-7.1642449],[-73.7245613,-7.164162],[-73.724617,-7.1695544]]]}},{"type":"Feature","id":"AC-Y860-X79","properties":{"id":"AC-Y860-X79","grid_x":79,"grid_y":860,"centroid":[-73.7124989,-7.1669825],"aggregation":"none","score_gradboost":0.1238005,"score_random_forest":0.0912883,"score_logistic_regression":0.0063854,"score_fuzzy_knn_k29":0.0855394},"geometry":{"type":"Polygon","coordinates":[[[-73.7165568,-7.1696373],[-73.7084965,-7.1697202],[-73.708441,-7.1643277],[-73.7165012,-7.1642449],[-73.7165568,-7.1696373]]]}},{"type":"Feature","id":"AC-Y861-X72","properties":{"id":"AC-Y861-X72","grid_x":72,"grid_y":861,"centroid":[-73.7688621,-7.1610075],"aggregation":"none","score_gradboost":0.0055286,"score_random_forest":0.0060126,"score_logistic_regression":5.13e-05,"score_fuzzy_knn_k29":0.0},"geometry":{"type":"Polygon","coordinates":[[[-73.7729199,-7.1636616],[-73.7648604,-7.1637454],[-73.7648043,-7.1583533],[-73.7728637,-7.1582696],[-73.7729199,-7.1636616]]]}},{"type":"Feature","id":"AC-Y861-X73","properties":{"id":"AC-Y861-X73","grid_x":73,"grid_y":861,"centroid":[-73.7608026,-7.1610911],"aggregation":"none","score_gradboost":0.0059545,"score_random_forest":0.0,"score_logistic_regression":0.0003574,"score_fuzzy_knn_k29":0.0},"geometry":{"type":"Polygon","coordinates":[[[-73.7648604,-7.1637454],[-73.7568008,-7.163829],[-73.7567448,-7.1584368],[-73.7648043,-7.1583533],[-73.7648604,-7.1637454]]]}},{"type":"Feature","id":"AC-Y861-X74","properties":{"id":"AC-Y861-X74","grid_x":74,"grid_y":861,"centroid":[-73.752743,-7.1611746],"aggregation":"none","score_gradboost":0.0059545,"score_random_forest":0.0,"score_logistic_regression":0.0004894,"score_fuzzy_knn_k29":0.0},"geometry":{"type":"Polygon","coordinates":[[[-73.7568008,-7.163829],[-73.7487411,-7.1639124],[-73.7486852,-7.1585202],[-73.7567448,-7.1584368],[-73.7568008,-7.163829]]]}},{"type":"Feature","id":"AC-Y861-X75","properties":{"id":"AC-Y861-X75","grid_x":75,"grid_y":861,"centroid":[-73.7446832,-7.161258],"aggregation":"none","score_gradboost":0.0059545,"score_random_forest":0.0,"score_logistic_regression":0.0001835,"score_fuzzy_knn_k29":0.0},"geometry":{"type":"Polygon","coordinates":[[[-73.7487411,-7.1639124],[-73.7406812,-7.1639958],[-73.7406254,-7.1586035],[-73.7486852,-7.1585202],[-73.7487411,-7.1639124]]]}},{"type":"Feature","id":"AC-Y861-X76","properties":{"id":"AC-Y861-X76","grid_x":76,"grid_y":861,"centroid":[-73.7366234,-7.1613412],"aggregation":"none","score_gradboost":0.0081503,"score_random_forest":0.0,"score_logistic_regression":0.0006939,"score_fuzzy_knn_k29":0.0},"geometry":{"type":"Polygon","coordinates":[[[-73.7406812,-7.1639958],[-73.7326213,-7.164079],[-73.7325656,-7.1586866],[-73.7406254,-7.1586035],[-73.7406812,-7.1639958]]]}},{"type":"Feature","id":"AC-Y861-X77","properties":{"id":"AC-Y861-X77","grid_x":77,"grid_y":861,"centroid":[-73.7285635,-7.1614243],"aggregation":"none","score_gradboost":0.0134623,"score_random_forest":0.0252811,"score_logistic_regression":0.0044411,"score_fuzzy_knn_k29":0.0192681},"geometry":{"type":"Polygon","coordinates":[[[-73.7326213,-7.164079],[-73.7245613,-7.164162],[-73.7245057,-7.1587696],[-73.7325656,-7.1586866],[-73.7326213,-7.164079]]]}},{"type":"Feature","id":"AC-Y861-X78","properties":{"id":"AC-Y861-X78","grid_x":78,"grid_y":861,"centroid":[-73.7205035,-7.1615073],"aggregation":"none","score_gradboost":0.0498428,"score_random_forest":0.02955,"score_logistic_regression":0.0055976,"score_fuzzy_knn_k29":0.0656481},"geometry":{"type":"Polygon","coordinates":[[[-73.7245613,-7.164162],[-73.7165012,-7.1642449],[-73.7164457,-7.1588525],[-73.7245057,-7.1587696],[-73.7245613,-7.164162]]]}},{"type":"Feature","id":"AC-Y861-X79","properties":{"id":"AC-Y861-X79","grid_x":79,"grid_y":861,"centroid":[-73.7124434,-7.1615901],"aggregation":"none","score_gradboost":0.0493982,"score_random_forest":0.0213424,"score_logistic_regression":0.0052388,"score_fuzzy_knn_k29":0.0551808},"geometry":{"type":"Polygon","coordinates":[[[-73.7165012,-7.1642449],[-73.708441,-7.1643277],[-73.7083856,-7.1589352],[-73.7164457,-7.1588525],[-73.7165012,-7.1642449]]]}},{"type":"Feature","id":"AC-Y862-X72","properties":{"id":"AC-Y862-X72","grid_x":72,"grid_y":862,"centroid":[-73.768806,-7.1556155],"aggregation":"none","score_gradboost":0.0059264,"score_random_forest":0.0048866,"score_logistic_regression":4.43e-05,"score_fuzzy_knn_k29":0.0},"geometry":{"type":"Polygon","coordinates":[[[-73.7728637,-7.1582696],[-73.7648043,-7.1583533],[-73.7647482,-7.1529612],[-73.7728076,-7.1528776],[-73.7728637,-7.1582696]]]}},{"type":"Feature","id":"AC-Y862-X73","properties":{"id":"AC-Y862-X73","grid_x":73,"grid_y":862,"centroid":[-73.7607465,-7.155699],"aggregation":"none","score_gradboost":0.0059545,"score_random_forest":0.000701,"score_logistic_regression":0.0003148,"score_fuzzy_knn_k29":0.0},"geometry":{"type":"Polygon","coordinates":[[[-73.7648043,-7.1583533],[-73.7567448,-7.1584368],[-73.7566888,-7.1530447],[-73.7647482,-7.1529612],[-73.7648043,-7.1583533]]]}},{"type":"Feature","id":"AC-Y862-X74","properties":{"id":"AC-Y862-X74","grid_x":74,"grid_y":862,"centroid":[-73.752687,-7.1557825],"aggregation":"none","score_gradboost":0.0059545,"score_random_forest":0.0,"score_logistic_regression":0.0009559,"score_fuzzy_knn_k29":0.0},"geometry":{"type":"Polygon","coordinates":[[[-73.7567448,-7.1584368],[-73.7486852,-7.1585202],[-73.7486293,-7.1531281],[-73.7566888,-7.1530447],[-73.7567448,-7.1584368]]]}},{"type":"Feature","id":"AC-Y862-X75","properties":{"id":"AC-Y862-X75","grid_x":75,"grid_y":862,"centroid":[-73.7446274,-7.1558658],"aggregation":"none","score_gradboost":0.0059545,"score_random_forest":0.0,"score_logistic_regression":0.0003735,"score_fuzzy_knn_k29":0.0},"geometry":{"type":"Polygon","coordinates":[[[-73.7486852,-7.1585202],[-73.7406254,-7.1586035],[-73.7405697,-7.1532113],[-73.7486293,-7.1531281],[-73.7486852,-7.1585202]]]}},{"type":"Feature","id":"AC-Y862-X76","properties":{"id":"AC-Y862-X76","grid_x":76,"grid_y":862,"centroid":[-73.7365677,-7.155949],"aggregation":"none","score_gradboost":0.0059545,"score_random_forest":0.0,"score_logistic_regression":0.0029634,"score_fuzzy_knn_k29":0.0},"geometry":{"type":"Polygon","coordinates":[[[-73.7406254,-7.1586035],[-73.7325656,-7.1586866],[-73.7325099,-7.1532943],[-73.7405697,-7.1532113],[-73.7406254,-7.1586035]]]}},{"type":"Feature","id":"AC-Y862-X77","properties":{"id":"AC-Y862-X77","grid_x":77,"grid_y":862,"centroid":[-73.7285079,-7.156032],"aggregation":"none","score_gradboost":0.0096796,"score_random_forest":0.0012628,"score_logistic_regression":0.004014,"score_fuzzy_knn_k29":0.0175168},"geometry":{"type":"Polygon","coordinates":[[[-73.7325656,-7.1586866],[-73.7245057,-7.1587696],[-73.7244501,-7.1533772],[-73.7325099,-7.1532943],[-73.7325656,-7.1586866]]]}},{"type":"Feature","id":"AC-Y862-X78","properties":{"id":"AC-Y862-X78","grid_x":78,"grid_y":862,"centroid":[-73.7204479,-7.1561149],"aggregation":"none","score_gradboost":0.0255297,"score_random_forest":0.0041758,"score_logistic_regression":0.0051412,"score_fuzzy_knn_k29":0.0194333},"geometry":{"type":"Polygon","coordinates":[[[-73.7245057,-7.1587696],[-73.7164457,-7.1588525],[-73.7163902,-7.15346],[-73.7244501,-7.1533772],[-73.7245057,-7.1587696]]]}},{"type":"Feature","id":"AC-Y862-X79","properties":{"id":"AC-Y862-X79","grid_x":79,"grid_y":862,"centroid":[-73.7123879,-7.1561976],"aggregation":"none","score_gradboost":0.0498428,"score_random_forest":0.0275612,"score_logistic_regression":0.0057452,"score_fuzzy_knn_k29":0.0444488},"geometry":{"type":"Polygon","coordinates":[[[-73.7164457,-7.1588525],[-73.7083856,-7.1589352],[-73.7083302,-7.1535427],[-73.7163902,-7.15346],[-73.7164457,-7.1588525]]]}},{"type":"Feature","id":"AC-Y863-X71","properties":{"id":"AC-Y863-X71","grid_x":71,"grid_y":863,"centroid":[-73.7768091,-7.1501398],"aggregation":"none","score_gradboost":0.0051775,"score_random_forest":0.0,"score_logistic_regression":6.69e-05,"score_fuzzy_knn_k29":0.0},"geometry":{"type":"Polygon","coordinates":[[[-73.7808668,-7.1527939],[-73.7728076,-7.1528776],[-73.7727515,-7.1474856],[-73.7808106,-7.1474019],[-73.7808668,-7.1527939]]]}},{"type":"Feature","id":"AC-Y863-X72","properties":{"id":"AC-Y863-X72","grid_x":72,"grid_y":863,"centroid":[-73.7687499,-7.1502234],"aggregation":"none","score_gradboost":0.0056651,"score_random_forest":0.0094648,"score_logistic_regression":0.0002708,"score_fuzzy_knn_k29":0.0},"geometry":{"type":"Polygon","coordinates":[[[-73.7728076,-7.1528776],[-73.7647482,-7.1529612],[-73.7646922,-7.1475692],[-73.7727515,-7.1474856],[-73.7728076,-7.1528776]]]}},{"type":"Feature","id":"AC-Y863-X73","properties":{"id":"AC-Y863-X73","grid_x":73,"grid_y":863,"centroid":[-73.7606906,-7.1503069],"aggregation":"none","score_gradboost":0.0055286,"score_random_forest":0.002445,"score_logistic_regression":0.0002886,"score_fuzzy_knn_k29":0.0},"geometry":{"type":"Polygon","coordinates":[[[-73.7647482,-7.1529612],[-73.7566888,-7.1530447],[-73.7566329,-7.1476526],[-73.7646922,-7.1475692],[-73.7647482,-7.1529612]]]}},{"type":"Feature","id":"AC-Y863-X74","properties":{"id":"AC-Y863-X74","grid_x":74,"grid_y":863,"centroid":[-73.7526311,-7.1503903],"aggregation":"none","score_gradboost":0.0059545,"score_random_forest":0.0,"score_logistic_regression":0.0008446,"score_fuzzy_knn_k29":0.0},"geometry":{"type":"Polygon","coordinates":[[[-73.7566888,-7.1530447],[-73.7486293,-7.1531281],[-73.7485735,-7.1477359],[-73.7566329,-7.1476526],[-73.7566888,-7.1530447]]]}},{"type":"Feature","id":"AC-Y863-X75","properties":{"id":"AC-Y863-X75","grid_x":75,"grid_y":863,"centroid":[-73.7445716,-7.1504736],"aggregation":"none","score_gradboost":0.0059545,"score_random_forest":0.0,"score_logistic_regression":0.0013344,"score_fuzzy_knn_k29":0.0},"geometry":{"type":"Polygon","coordinates":[[[-73.7486293,-7.1531281],[-73.7405697,-7.1532113],[-73.7405139,-7.147819],[-73.7485735,-7.1477359],[-73.7486293,-7.1531281]]]}},{"type":"Feature","id":"AC-Y863-X76","properties":{"id":"AC-Y863-X76","grid_x":76,"grid_y":863,"centroid":[-73.736512,-7.1505567],"aggregation":"none","score_gradboost":0.0059545,"score_random_forest":0.0,"score_logistic_regression":0.0030021,"score_fuzzy_knn_k29":0.0},"geometry":{"type":"Polygon","coordinates":[[[-73.7405697,-7.1532113],[-73.7325099,-7.1532943],[-73.7324543,-7.147902],[-73.7405139,-7.147819],[-73.7405697,-7.1532113]]]}},{"type":"Feature","id":"AC-Y863-X77","properties":{"id":"AC-Y863-X77","grid_x":77,"grid_y":863,"centroid":[-73.7284522,-7.1506396],"aggregation":"none","score_gradboost":0.0070747,"score_random_forest":0.0023535,"score_logistic_regression":0.0039212,"score_fuzzy_knn_k29":0.0},"geometry":{"type":"Polygon","coordinates":[[[-73.7325099,-7.1532943],[-73.7244501,-7.1533772],[-73.7243946,-7.1479849],[-73.7324543,-7.147902],[-73.7325099,-7.1532943]]]}},{"type":"Feature","id":"AC-Y863-X78","properties":{"id":"AC-Y863-X78","grid_x":78,"grid_y":863,"centroid":[-73.7203924,-7.1507224],"aggregation":"none","score_gradboost":0.0079779,"score_random_forest":0.000516,"score_logistic_regression":0.0050112,"score_fuzzy_knn_k29":0.0218933},"geometry":{"type":"Polygon","coordinates":[[[-73.7244501,-7.1533772],[-73.7163902,-7.15346],[-73.7163348,-7.1480676],[-73.7243946,-7.1479849],[-73.7244501,-7.1533772]]]}},{"type":"Feature","id":"AC-Y863-X79","properties":{"id":"AC-Y863-X79","grid_x":79,"grid_y":863,"centroid":[-73.7123325,-7.1508051],"aggregation":"none","score_gradboost":0.0145216,"score_random_forest":0.0002564,"score_logistic_regression":0.028931,"score_fuzzy_knn_k29":0.0},"geometry":{"type":"Polygon","coordinates":[[[-73.7163902,-7.15346],[-73.7083302,-7.1535427],[-73.7082748,-7.1481502],[-73.7163348,-7.1480676],[-73.7163902,-7.15346]]]}},{"type":"Feature","id":"AC-Y864-X71","properties":{"id":"AC-Y864-X71","grid_x":71,"grid_y":864,"centroid":[-73.776753,-7.1447478],"aggregation":"none","score_gradboost":0.0060394,"score_random_forest":0.0,"score_logistic_regression":0.0001613,"score_fuzzy_knn_k29":0.0},"geometry":{"type":"Polygon","coordinates":[[[-73.7808106,-7.1474019],[-73.7727515,-7.1474856],[-73.7726954,-7.1420936],[-73.7807545,-7.14201],[-73.7808106,-7.1474019]]]}},{"type":"Feature","id":"AC-Y864-X72","properties":{"id":"AC-Y864-X72","grid_x":72,"grid_y":864,"centroid":[-73.7686939,-7.1448314],"aggregation":"none","score_gradboost":0.0051775,"score_random_forest":0.0,"score_logistic_regression":0.0002842,"score_fuzzy_knn_k29":0.0},"geometry":{"type":"Polygon","coordinates":[[[-73.7727515,-7.1474856],[-73.7646922,-7.1475692],[-73.7646363,-7.1421771],[-73.7726954,-7.1420936],[-73.7727515,-7.1474856]]]}},{"type":"Feature","id":"AC-Y864-X73","properties":{"id":"AC-Y864-X73","grid_x":73,"grid_y":864,"centroid":[-73.7606346,-7.1449148],"aggregation":"none","score_gradboost":0.0055286,"score_random_forest":0.016914,"score_logistic_regression":0.0001397,"score_fuzzy_knn_k29":0.0},"geometry":{"type":"Polygon","coordinates":[[[-73.7646922,-7.1475692],[-73.7566329,-7.1476526],[-73.756577,-7.1422605],[-73.7646363,-7.1421771],[-73.7646922,-7.1475692]]]}},{"type":"Feature","id":"AC-Y864-X74","properties":{"id":"AC-Y864-X74","grid_x":74,"grid_y":864,"centroid":[-73.7525753,-7.1449982],"aggregation":"none","score_gradboost":0.0055286,"score_random_forest":0.0060126,"score_logistic_regression":0.0004782,"score_fuzzy_knn_k29":0.0},"geometry":{"type":"Polygon","coordinates":[[[-73.7566329,-7.1476526],[-73.7485735,-7.1477359],[-73.7485177,-7.1423437],[-73.756577,-7.1422605],[-73.7566329,-7.1476526]]]}},{"type":"Feature","id":"AC-Y864-X75","properties":{"id":"AC-Y864-X75","grid_x":75,"grid_y":864,"centroid":[-73.7445158,-7.1450813],"aggregation":"none","score_gradboost":0.0059545,"score_random_forest":0.0,"score_logistic_regression":0.0026776,"score_fuzzy_knn_k29":0.0},"geometry":{"type":"Polygon","coordinates":[[[-73.7485735,-7.1477359],[-73.7405139,-7.147819],[-73.7404582,-7.1424267],[-73.7485177,-7.1423437],[-73.7485735,-7.1477359]]]}},{"type":"Feature","id":"AC-Y864-X76","properties":{"id":"AC-Y864-X76","grid_x":76,"grid_y":864,"centroid":[-73.7364563,-7.1451644],"aggregation":"none","score_gradboost":0.0059545,"score_random_forest":0.0,"score_logistic_regression":0.0034846,"score_fuzzy_knn_k29":0.0},"geometry":{"type":"Polygon","coordinates":[[[-73.7405139,-7.147819],[-73.7324543,-7.147902],[-73.7323987,-7.1425097],[-73.7404582,-7.1424267],[-73.7405139,-7.147819]]]}},{"type":"Feature","id":"AC-Y864-X77","properties":{"id":"AC-Y864-X77","grid_x":77,"grid_y":864,"centroid":[-73.7283967,-7.1452473],"aggregation":"none","score_gradboost":0.0070747,"score_random_forest":0.000516,"score_logistic_regression":0.0046452,"score_fuzzy_knn_k29":0.0},"geometry":{"type":"Polygon","coordinates":[[[-73.7324543,-7.147902],[-73.7243946,-7.1479849],[-73.7243391,-7.1425925],[-73.7323987,-7.1425097],[-73.7324543,-7.147902]]]}},{"type":"Feature","id":"AC-Y864-X78","properties":{"id":"AC-Y864-X78","grid_x":78,"grid_y":864,"centroid":[-73.7203369,-7.14533],"aggregation":"none","score_gradboost":0.0112728,"score_random_forest":0.000516,"score_logistic_regression":0.005384,"score_fuzzy_knn_k29":0.0256002},"geometry":{"type":"Polygon","coordinates":[[[-73.7243946,-7.1479849],[-73.7163348,-7.1480676],[-73.7162794,-7.1426751],[-73.7243391,-7.1425925],[-73.7243946,-7.1479849]]]}},{"type":"Feature","id":"AC-Y865-X70","properties":{"id":"AC-Y865-X70","grid_x":70,"grid_y":865,"centroid":[-73.7847559,-7.1392721],"aggregation":"none","score_gradboost":0.0060394,"score_random_forest":0.0006876,"score_logistic_regression":3.37e-05,"score_fuzzy_knn_k29":0.0},"geometry":{"type":"Polygon","coordinates":[[[-73.7888134,-7.1419262],[-73.7807545,-7.14201],[-73.7806984,-7.136618],[-73.7887572,-7.1365343],[-73.7888134,-7.1419262]]]}},{"type":"Feature","id":"AC-Y865-X71","properties":{"id":"AC-Y865-X71","grid_x":71,"grid_y":865,"centroid":[-73.7766969,-7.1393558],"aggregation":"none","score_gradboost":0.0060394,"score_random_forest":0.0,"score_logistic_regression":0.0004125,"score_fuzzy_knn_k29":0.0},"geometry":{"type":"Polygon","coordinates":[[[-73.7807545,-7.14201],[-73.7726954,-7.1420936],[-73.7726394,-7.1367016],[-73.7806984,-7.136618],[-73.7807545,-7.14201]]]}},{"type":"Feature","id":"AC-Y865-X72","properties":{"id":"AC-Y865-X72","grid_x":72,"grid_y":865,"centroid":[-73.7686379,-7.1394394],"aggregation":"none","score_gradboost":0.0060394,"score_random_forest":0.0,"score_logistic_regression":0.0003992,"score_fuzzy_knn_k29":0.0},"geometry":{"type":"Polygon","coordinates":[[[-73.7726954,-7.1420936],[-73.7646363,-7.1421771],[-73.7645803,-7.136785],[-73.7726394,-7.1367016],[-73.7726954,-7.1420936]]]}},{"type":"Feature","id":"AC-Y865-X73","properties":{"id":"AC-Y865-X73","grid_x":73,"grid_y":865,"centroid":[-73.7605787,-7.1395227],"aggregation":"none","score_gradboost":0.0048298,"score_random_forest":0.0,"score_logistic_regression":0.0010605,"score_fuzzy_knn_k29":0.0},"geometry":{"type":"Polygon","coordinates":[[[-73.7646363,-7.1421771],[-73.756577,-7.1422605],[-73.7565212,-7.1368683],[-73.7645803,-7.136785],[-73.7646363,-7.1421771]]]}},{"type":"Feature","id":"AC-Y865-X74","properties":{"id":"AC-Y865-X74","grid_x":74,"grid_y":865,"centroid":[-73.7525195,-7.139606],"aggregation":"none","score_gradboost":0.0055286,"score_random_forest":0.016914,"score_logistic_regression":0.0016742,"score_fuzzy_knn_k29":0.0},"geometry":{"type":"Polygon","coordinates":[[[-73.756577,-7.1422605],[-73.7485177,-7.1423437],[-73.7484619,-7.1369515],[-73.7565212,-7.1368683],[-73.756577,-7.1422605]]]}},{"type":"Feature","id":"AC-Y865-X75","properties":{"id":"AC-Y865-X75","grid_x":75,"grid_y":865,"centroid":[-73.7444601,-7.1396891],"aggregation":"none","score_gradboost":0.0063982,"score_random_forest":0.0072728,"score_logistic_regression":0.0042285,"score_fuzzy_knn_k29":0.0},"geometry":{"type":"Polygon","coordinates":[[[-73.7485177,-7.1423437],[-73.7404582,-7.1424267],[-73.7404026,-7.1370345],[-73.7484619,-7.1369515],[-73.7485177,-7.1423437]]]}},{"type":"Feature","id":"AC-Y865-X76","properties":{"id":"AC-Y865-X76","grid_x":76,"grid_y":865,"centroid":[-73.7364007,-7.1397721],"aggregation":"none","score_gradboost":0.0059545,"score_random_forest":0.0,"score_logistic_regression":0.0036737,"score_fuzzy_knn_k29":0.0},"geometry":{"type":"Polygon","coordinates":[[[-73.7404582,-7.1424267],[-73.7323987,-7.1425097],[-73.7323432,-7.1371174],[-73.7404026,-7.1370345],[-73.7404582,-7.1424267]]]}},{"type":"Feature","id":"AC-Y866-X70","properties":{"id":"AC-Y866-X70","grid_x":70,"grid_y":866,"centroid":[-73.7846997,-7.1338802],"aggregation":"none","score_gradboost":0.0060394,"score_random_forest":0.0006876,"score_logistic_regression":6.2e-06,"score_fuzzy_knn_k29":0.0},"geometry":{"type":"Polygon","coordinates":[[[-73.7887572,-7.1365343],[-73.7806984,-7.136618],[-73.7806423,-7.1312261],[-73.7887011,-7.1311424],[-73.7887572,-7.1365343]]]}},{"type":"Feature","id":"AC-Y866-X71","properties":{"id":"AC-Y866-X71","grid_x":71,"grid_y":866,"centroid":[-73.7766409,-7.1339638],"aggregation":"none","score_gradboost":0.0060394,"score_random_forest":0.0,"score_logistic_regression":0.0002827,"score_fuzzy_knn_k29":0.0},"geometry":{"type":"Polygon","coordinates":[[[-73.7806984,-7.136618],[-73.7726394,-7.1367016],[-73.7725834,-7.1313096],[-73.7806423,-7.1312261],[-73.7806984,-7.136618]]]}},{"type":"Feature","id":"AC-Y866-X72","properties":{"id":"AC-Y866-X72","grid_x":72,"grid_y":866,"centroid":[-73.7685819,-7.1340473],"aggregation":"none","score_gradboost":0.0060394,"score_random_forest":0.0,"score_logistic_regression":6.52e-05,"score_fuzzy_knn_k29":0.0},"geometry":{"type":"Polygon","coordinates":[[[-73.7726394,-7.1367016],[-73.7645803,-7.136785],[-73.7645245,-7.131393],[-73.7725834,-7.1313096],[-73.7726394,-7.1367016]]]}},{"type":"Feature","id":"AC-Y866-X73","properties":{"id":"AC-Y866-X73","grid_x":73,"grid_y":866,"centroid":[-73.7605229,-7.1341306],"aggregation":"none","score_gradboost":0.0051775,"score_random_forest":0.0,"score_logistic_regression":0.0019948,"score_fuzzy_knn_k29":0.0},"geometry":{"type":"Polygon","coordinates":[[[-73.7645803,-7.136785],[-73.7565212,-7.1368683],[-73.7564654,-7.1314762],[-73.7645245,-7.131393],[-73.7645803,-7.136785]]]}},{"type":"Feature","id":"AC-Y866-X74","properties":{"id":"AC-Y866-X74","grid_x":74,"grid_y":866,"centroid":[-73.7524637,-7.1342138],"aggregation":"none","score_gradboost":0.0048298,"score_random_forest":0.0,"score_logistic_regression":0.0032952,"score_fuzzy_knn_k29":0.0},"geometry":{"type":"Polygon","coordinates":[[[-73.7565212,-7.1368683],[-73.7484619,-7.1369515],[-73.7484062,-7.1315593],[-73.7564654,-7.1314762],[-73.7565212,-7.1368683]]]}},{"type":"Feature","id":"AC-Y867-X69","properties":{"id":"AC-Y867-X69","grid_x":69,"grid_y":867,"centroid":[-73.7927023,-7.1284046],"aggregation":"none","score_gradboost":0.0060394,"score_random_forest":0.0,"score_logistic_regression":0.0004652,"score_fuzzy_knn_k29":0.0},"geometry":{"type":"Polygon","coordinates":[[[-73.7967597,-7.1310587],[-73.7887011,-7.1311424],[-73.7886449,-7.1257506],[-73.7967035,-7.1256668],[-73.7967597,-7.1310587]]]}},{"type":"Feature","id":"AC-Y867-X70","properties":{"id":"AC-Y867-X70","grid_x":70,"grid_y":867,"centroid":[-73.7846436,-7.1284883],"aggregation":"none","score_gradboost":0.0060394,"score_random_forest":0.0,"score_logistic_regression":2.65e-05,"score_fuzzy_knn_k29":0.0},"geometry":{"type":"Polygon","coordinates":[[[-73.7887011,-7.1311424],[-73.7806423,-7.1312261],[-73.7805863,-7.1258341],[-73.7886449,-7.1257506],[-73.7887011,-7.1311424]]]}},{"type":"Feature","id":"AC-Y867-X71","properties":{"id":"AC-Y867-X71","grid_x":71,"grid_y":867,"centroid":[-73.7765849,-7.1285719],"aggregation":"none","score_gradboost":0.0060394,"score_random_forest":0.0006876,"score_logistic_regression":0.0003378,"score_fuzzy_knn_k29":0.0},"geometry":{"type":"Polygon","coordinates":[[[-73.7806423,-7.1312261],[-73.7725834,-7.1313096],[-73.7725275,-7.1259176],[-73.7805863,-7.1258341],[-73.7806423,-7.1312261]]]}},{"type":"Feature","id":"AC-Y867-X72","properties":{"id":"AC-Y867-X72","grid_x":72,"grid_y":867,"centroid":[-73.768526,-7.1286553],"aggregation":"none","score_gradboost":0.0060394,"score_random_forest":0.0,"score_logistic_regression":0.0005419,"score_fuzzy_knn_k29":0.0},"geometry":{"type":"Polygon","coordinates":[[[-73.7725834,-7.1313096],[-73.7645245,-7.131393],[-73.7644686,-7.1260009],[-73.7725275,-7.1259176],[-73.7725834,-7.1313096]]]}},{"type":"Feature","id":"AC-Y868-X69","properties":{"id":"AC-Y868-X69","grid_x":69,"grid_y":868,"centroid":[-73.7926462,-7.1230128],"aggregation":"none","score_gradboost":0.0060394,"score_random_forest":0.0,"score_logistic_regression":0.0001695,"score_fuzzy_knn_k29":0.0},"geometry":{"type":"Polygon","coordinates":[[[-73.7967035,-7.1256668],[-73.7886449,-7.1257506],[-73.7885889,-7.1203587],[-73.7966473,-7.120275],[-73.7967035,-7.1256668]]]}},{"type":"Feature","id":"AC-Y868-X70","properties":{"id":"AC-Y868-X70","grid_x":70,"grid_y":868,"centroid":[-73.7845876,-7.1230964],"aggregation":"none","score_gradboost":0.0060394,"score_random_forest":0.0006876,"score_logistic_regression":0.000335,"score_fuzzy_knn_k29":0.0},"geometry":{"type":"Polygon","coordinates":[[[-73.7886449,-7.1257506],[-73.7805863,-7.1258341],[-73.7805303,-7.1204422],[-73.7885889,-7.1203587],[-73.7886449,-7.1257506]]]}}]}