{"type":"FeatureCollection","features":[{"type":"Feature","id":"AC-Y712-X78","properties":{"id":"AC-Y712-X78","grid_x":78,"grid_y":712,"centroid":[-73.7292632,-7.9649569],"aggregation":"none","score_gradboost":0.0226508,"score_random_forest":0.0056538,"score_logistic_regression":0.0069644,"score_fuzzy_knn_k29":0.0},"geometry":{"type":"Polygon","coordinates":[[[-73.7333317,-7.9676068],[-73.7252568,-7.9676991],[-73.7251948,-7.9623069],[-73.7332696,-7.9622147],[-73.7333317,-7.9676068]]]}},{"type":"Feature","id":"AC-Y713-X78","properties":{"id":"AC-Y713-X78","grid_x":78,"grid_y":713,"centroid":[-73.7292012,-7.9595648],"aggregation":"none","score_gradboost":0.0334593,"score_random_forest":0.017338,"score_logistic_regression":0.0075492,"score_fuzzy_knn_k29":0.0},"geometry":{"type":"Polygon","coordinates":[[[-73.7332696,-7.9622147],[-73.7251948,-7.9623069],[-73.7251329,-7.9569148],[-73.7332076,-7.9568226],[-73.7332696,-7.9622147]]]}},{"type":"Feature","id":"AC-Y713-X79","properties":{"id":"AC-Y713-X79","grid_x":79,"grid_y":713,"centroid":[-73.7211264,-7.9596569],"aggregation":"none","score_gradboost":0.0330979,"score_random_forest":0.0911906,"score_logistic_regression":0.0066153,"score_fuzzy_knn_k29":0.0202159},"geometry":{"type":"Polygon","coordinates":[[[-73.7251948,-7.9623069],[-73.7171199,-7.962399],[-73.7170581,-7.9570068],[-73.7251329,-7.9569148],[-73.7251948,-7.9623069]]]}},{"type":"Feature","id":"AC-Y713-X80","properties":{"id":"AC-Y713-X80","grid_x":80,"grid_y":713,"centroid":[-73.7130515,-7.9597489],"aggregation":"none","score_gradboost":0.0498927,"score_random_forest":0.1083441,"score_logistic_regression":0.0084729,"score_fuzzy_knn_k29":0.0},"geometry":{"type":"Polygon","coordinates":[[[-73.7171199,-7.962399],[-73.7090449,-7.962491],[-73.7089832,-7.9570987],[-73.7170581,-7.9570068],[-73.7171199,-7.962399]]]}},{"type":"Feature","id":"AC-Y714-X76","properties":{"id":"AC-Y714-X76","grid_x":76,"grid_y":714,"centroid":[-73.7452884,-7.953988],"aggregation":"none","score_gradboost":0.0080817,"score_random_forest":0.0027122,"score_logistic_regression":0.0056693,"score_fuzzy_knn_k29":0.0},"geometry":{"type":"Polygon","coordinates":[[[-73.7493568,-7.9566377],[-73.7412822,-7.9567302],[-73.7412202,-7.9513382],[-73.7492946,-7.9512457],[-73.7493568,-7.9566377]]]}},{"type":"Feature","id":"AC-Y714-X77","properties":{"id":"AC-Y714-X77","grid_x":77,"grid_y":714,"centroid":[-73.7372139,-7.9540804],"aggregation":"none","score_gradboost":0.0239395,"score_random_forest":0.012521,"score_logistic_regression":0.0056634,"score_fuzzy_knn_k29":0.0},"geometry":{"type":"Polygon","coordinates":[[[-73.7412822,-7.9567302],[-73.7332076,-7.9568226],[-73.7331456,-7.9514305],[-73.7412202,-7.9513382],[-73.7412822,-7.9567302]]]}},{"type":"Feature","id":"AC-Y714-X78","properties":{"id":"AC-Y714-X78","grid_x":78,"grid_y":714,"centroid":[-73.7291393,-7.9541726],"aggregation":"none","score_gradboost":0.040373,"score_random_forest":0.0422371,"score_logistic_regression":0.0081945,"score_fuzzy_knn_k29":0.021557},"geometry":{"type":"Polygon","coordinates":[[[-73.7332076,-7.9568226],[-73.7251329,-7.9569148],[-73.725071,-7.9515226],[-73.7331456,-7.9514305],[-73.7332076,-7.9568226]]]}},{"type":"Feature","id":"AC-Y714-X79","properties":{"id":"AC-Y714-X79","grid_x":79,"grid_y":714,"centroid":[-73.7210646,-7.9542647],"aggregation":"none","score_gradboost":0.0317151,"score_random_forest":0.0430295,"score_logistic_regression":0.0075796,"score_fuzzy_knn_k29":0.0226511},"geometry":{"type":"Polygon","coordinates":[[[-73.7251329,-7.9569148],[-73.7170581,-7.9570068],[-73.7169963,-7.9516146],[-73.725071,-7.9515226],[-73.7251329,-7.9569148]]]}},{"type":"Feature","id":"AC-Y714-X80","properties":{"id":"AC-Y714-X80","grid_x":80,"grid_y":714,"centroid":[-73.7129898,-7.9543566],"aggregation":"none","score_gradboost":0.038794,"score_random_forest":0.049913,"score_logistic_regression":0.0088358,"score_fuzzy_knn_k29":0.0203659},"geometry":{"type":"Polygon","coordinates":[[[-73.7170581,-7.9570068],[-73.7089832,-7.9570987],[-73.7089215,-7.9517064],[-73.7169963,-7.9516146],[-73.7170581,-7.9570068]]]}},{"type":"Feature","id":"AC-Y715-X76","properties":{"id":"AC-Y715-X76","grid_x":76,"grid_y":715,"centroid":[-73.7452263,-7.948596],"aggregation":"none","score_gradboost":0.015001,"score_random_forest":0.0243532,"score_logistic_regression":0.006242,"score_fuzzy_knn_k29":0.0},"geometry":{"type":"Polygon","coordinates":[[[-73.7492946,-7.9512457],[-73.7412202,-7.9513382],[-73.7411581,-7.9459461],[-73.7492324,-7.9458538],[-73.7492946,-7.9512457]]]}},{"type":"Feature","id":"AC-Y715-X77","properties":{"id":"AC-Y715-X77","grid_x":77,"grid_y":715,"centroid":[-73.7371519,-7.9486883],"aggregation":"none","score_gradboost":0.0260144,"score_random_forest":0.0159891,"score_logistic_regression":0.0063414,"score_fuzzy_knn_k29":0.0206184},"geometry":{"type":"Polygon","coordinates":[[[-73.7412202,-7.9513382],[-73.7331456,-7.9514305],[-73.7330837,-7.9460383],[-73.7411581,-7.9459461],[-73.7412202,-7.9513382]]]}},{"type":"Feature","id":"AC-Y715-X78","properties":{"id":"AC-Y715-X78","grid_x":78,"grid_y":715,"centroid":[-73.7290774,-7.9487805],"aggregation":"none","score_gradboost":0.032977,"score_random_forest":0.0396618,"score_logistic_regression":0.0076659,"score_fuzzy_knn_k29":0.023299},"geometry":{"type":"Polygon","coordinates":[[[-73.7331456,-7.9514305],[-73.725071,-7.9515226],[-73.7250092,-7.9461304],[-73.7330837,-7.9460383],[-73.7331456,-7.9514305]]]}},{"type":"Feature","id":"AC-Y715-X79","properties":{"id":"AC-Y715-X79","grid_x":79,"grid_y":715,"centroid":[-73.7210028,-7.9488725],"aggregation":"none","score_gradboost":0.0346483,"score_random_forest":0.0364492,"score_logistic_regression":0.0075896,"score_fuzzy_knn_k29":0.0244348},"geometry":{"type":"Polygon","coordinates":[[[-73.725071,-7.9515226],[-73.7169963,-7.9516146],[-73.7169346,-7.9462223],[-73.7250092,-7.9461304],[-73.725071,-7.9515226]]]}},{"type":"Feature","id":"AC-Y715-X80","properties":{"id":"AC-Y715-X80","grid_x":80,"grid_y":715,"centroid":[-73.7129281,-7.9489643],"aggregation":"none","score_gradboost":0.0444389,"score_random_forest":0.0434394,"score_logistic_regression":0.0080484,"score_fuzzy_knn_k29":0.0227722},"geometry":{"type":"Polygon","coordinates":[[[-73.7169963,-7.9516146],[-73.7089215,-7.9517064],[-73.7088599,-7.9463141],[-73.7169346,-7.9462223],[-73.7169963,-7.9516146]]]}},{"type":"Feature","id":"AC-Y716-X76","properties":{"id":"AC-Y716-X76","grid_x":76,"grid_y":716,"centroid":[-73.7451643,-7.9432039],"aggregation":"none","score_gradboost":0.0102164,"score_random_forest":0.0245418,"score_logistic_regression":0.0071798,"score_fuzzy_knn_k29":0.0},"geometry":{"type":"Polygon","coordinates":[[[-73.7492324,-7.9458538],[-73.7411581,-7.9459461],[-73.7410961,-7.9405541],[-73.7491703,-7.9404618],[-73.7492324,-7.9458538]]]}},{"type":"Feature","id":"AC-Y716-X77","properties":{"id":"AC-Y716-X77","grid_x":77,"grid_y":716,"centroid":[-73.7370899,-7.9432962],"aggregation":"none","score_gradboost":0.0260144,"score_random_forest":0.0141474,"score_logistic_regression":0.0065003,"score_fuzzy_knn_k29":0.0205479},"geometry":{"type":"Polygon","coordinates":[[[-73.7411581,-7.9459461],[-73.7330837,-7.9460383],[-73.7330218,-7.9406462],[-73.7410961,-7.9405541],[-73.7411581,-7.9459461]]]}},{"type":"Feature","id":"AC-Y716-X78","properties":{"id":"AC-Y716-X78","grid_x":78,"grid_y":716,"centroid":[-73.7290155,-7.9433883],"aggregation":"none","score_gradboost":0.0235519,"score_random_forest":0.0422201,"score_logistic_regression":0.0062428,"score_fuzzy_knn_k29":0.0228141},"geometry":{"type":"Polygon","coordinates":[[[-73.7330837,-7.9460383],[-73.7250092,-7.9461304],[-73.7249474,-7.9407382],[-73.7330218,-7.9406462],[-73.7330837,-7.9460383]]]}},{"type":"Feature","id":"AC-Y716-X79","properties":{"id":"AC-Y716-X79","grid_x":79,"grid_y":716,"centroid":[-73.720941,-7.9434803],"aggregation":"none","score_gradboost":0.0444389,"score_random_forest":0.0439813,"score_logistic_regression":0.0081421,"score_fuzzy_knn_k29":0.0232673},"geometry":{"type":"Polygon","coordinates":[[[-73.7250092,-7.9461304],[-73.7169346,-7.9462223],[-73.7168729,-7.9408301],[-73.7249474,-7.9407382],[-73.7250092,-7.9461304]]]}},{"type":"Feature","id":"AC-Y716-X80","properties":{"id":"AC-Y716-X80","grid_x":80,"grid_y":716,"centroid":[-73.7128664,-7.9435721],"aggregation":"none","score_gradboost":0.0401227,"score_random_forest":0.0382523,"score_logistic_regression":0.0100466,"score_fuzzy_knn_k29":0.0},"geometry":{"type":"Polygon","coordinates":[[[-73.7169346,-7.9462223],[-73.7088599,-7.9463141],[-73.7087983,-7.9409218],[-73.7168729,-7.9408301],[-73.7169346,-7.9462223]]]}},{"type":"Feature","id":"AC-Y717-X76","properties":{"id":"AC-Y717-X76","grid_x":76,"grid_y":717,"centroid":[-73.7451022,-7.9378119],"aggregation":"none","score_gradboost":0.0092003,"score_random_forest":0.0027122,"score_logistic_regression":0.0089637,"score_fuzzy_knn_k29":0.0},"geometry":{"type":"Polygon","coordinates":[[[-73.7491703,-7.9404618],[-73.7410961,-7.9405541],[-73.7410342,-7.935162],[-73.7491083,-7.9350698],[-73.7491703,-7.9404618]]]}},{"type":"Feature","id":"AC-Y717-X77","properties":{"id":"AC-Y717-X77","grid_x":77,"grid_y":717,"centroid":[-73.737028,-7.9379041],"aggregation":"none","score_gradboost":0.0226508,"score_random_forest":0.0076695,"score_logistic_regression":0.0068459,"score_fuzzy_knn_k29":0.0},"geometry":{"type":"Polygon","coordinates":[[[-73.7410961,-7.9405541],[-73.7330218,-7.9406462],[-73.73296,-7.9352541],[-73.7410342,-7.935162],[-73.7410961,-7.9405541]]]}},{"type":"Feature","id":"AC-Y717-X78","properties":{"id":"AC-Y717-X78","grid_x":78,"grid_y":717,"centroid":[-73.7289537,-7.9379962],"aggregation":"none","score_gradboost":0.040373,"score_random_forest":0.0744185,"score_logistic_regression":0.0085021,"score_fuzzy_knn_k29":0.0206699},"geometry":{"type":"Polygon","coordinates":[[[-73.7330218,-7.9406462],[-73.7249474,-7.9407382],[-73.7248857,-7.935346],[-73.73296,-7.9352541],[-73.7330218,-7.9406462]]]}},{"type":"Feature","id":"AC-Y717-X79","properties":{"id":"AC-Y717-X79","grid_x":79,"grid_y":717,"centroid":[-73.7208793,-7.9380881],"aggregation":"none","score_gradboost":0.038794,"score_random_forest":0.0524578,"score_logistic_regression":0.0074355,"score_fuzzy_knn_k29":0.0219279},"geometry":{"type":"Polygon","coordinates":[[[-73.7249474,-7.9407382],[-73.7168729,-7.9408301],[-73.7168113,-7.9354378],[-73.7248857,-7.935346],[-73.7249474,-7.9407382]]]}},{"type":"Feature","id":"AC-Y717-X80","properties":{"id":"AC-Y717-X80","grid_x":80,"grid_y":717,"centroid":[-73.7128048,-7.9381798],"aggregation":"none","score_gradboost":0.0414843,"score_random_forest":0.0360089,"score_logistic_regression":0.0080207,"score_fuzzy_knn_k29":0.0220897},"geometry":{"type":"Polygon","coordinates":[[[-73.7168729,-7.9408301],[-73.7087983,-7.9409218],[-73.7087368,-7.9355294],[-73.7168113,-7.9354378],[-73.7168729,-7.9408301]]]}},{"type":"Feature","id":"AC-Y718-X77","properties":{"id":"AC-Y718-X77","grid_x":77,"grid_y":718,"centroid":[-73.7369662,-7.932512],"aggregation":"none","score_gradboost":0.0189285,"score_random_forest":0.0124174,"score_logistic_regression":0.0076794,"score_fuzzy_knn_k29":0.0},"geometry":{"type":"Polygon","coordinates":[[[-73.7410342,-7.935162],[-73.73296,-7.9352541],[-73.7328982,-7.929862],[-73.7409723,-7.92977],[-73.7410342,-7.935162]]]}},{"type":"Feature","id":"AC-Y718-X78","properties":{"id":"AC-Y718-X78","grid_x":78,"grid_y":718,"centroid":[-73.728892,-7.932604],"aggregation":"none","score_gradboost":0.03426,"score_random_forest":0.0187584,"score_logistic_regression":0.0101611,"score_fuzzy_knn_k29":0.0},"geometry":{"type":"Polygon","coordinates":[[[-73.73296,-7.9352541],[-73.7248857,-7.935346],[-73.724824,-7.9299539],[-73.7328982,-7.929862],[-73.73296,-7.9352541]]]}},{"type":"Feature","id":"AC-Y718-X79","properties":{"id":"AC-Y718-X79","grid_x":79,"grid_y":718,"centroid":[-73.7208177,-7.9326958],"aggregation":"none","score_gradboost":0.0623434,"score_random_forest":0.1202498,"score_logistic_regression":0.0099808,"score_fuzzy_knn_k29":0.0},"geometry":{"type":"Polygon","coordinates":[[[-73.7248857,-7.935346],[-73.7168113,-7.9354378],[-73.7167497,-7.9300456],[-73.724824,-7.9299539],[-73.7248857,-7.935346]]]}},{"type":"Feature","id":"AC-Y718-X80","properties":{"id":"AC-Y718-X80","grid_x":80,"grid_y":718,"centroid":[-73.7127433,-7.9327875],"aggregation":"none","score_gradboost":0.0505745,"score_random_forest":0.0499874,"score_logistic_regression":0.0101615,"score_fuzzy_knn_k29":0.0},"geometry":{"type":"Polygon","coordinates":[[[-73.7168113,-7.9354378],[-73.7087368,-7.9355294],[-73.7086753,-7.9301371],[-73.7167497,-7.9300456],[-73.7168113,-7.9354378]]]}},{"type":"Feature","id":"AC-Y718-X76","properties":{"id":"AC-Y718-X76","grid_x":76,"grid_y":718,"centroid":[-73.7450403,-7.9324199],"aggregation":"none","score_gradboost":0.0077154,"score_random_forest":0.0004935,"score_logistic_regression":0.0070637,"score_fuzzy_knn_k29":0.0},"geometry":{"type":"Polygon","coordinates":[[[-73.7491083,-7.9350698],[-73.7410342,-7.935162],[-73.7409723,-7.92977],[-73.7490463,-7.9296778],[-73.7491083,-7.9350698]]]}},{"type":"Feature","id":"AC-Y719-X76","properties":{"id":"AC-Y719-X76","grid_x":76,"grid_y":719,"centroid":[-73.7449783,-7.9270279],"aggregation":"none","score_gradboost":0.0189285,"score_random_forest":0.0122704,"score_logistic_regression":0.0072153,"score_fuzzy_knn_k29":0.0},"geometry":{"type":"Polygon","coordinates":[[[-73.7490463,-7.9296778],[-73.7409723,-7.92977],[-73.7409104,-7.9243779],[-73.7489843,-7.9242858],[-73.7490463,-7.9296778]]]}},{"type":"Feature","id":"AC-Y719-X77","properties":{"id":"AC-Y719-X77","grid_x":77,"grid_y":719,"centroid":[-73.7369043,-7.9271199],"aggregation":"none","score_gradboost":0.026748,"score_random_forest":0.0067993,"score_logistic_regression":0.007961,"score_fuzzy_knn_k29":0.0},"geometry":{"type":"Polygon","coordinates":[[[-73.7409723,-7.92977],[-73.7328982,-7.929862],[-73.7328364,-7.9244699],[-73.7409104,-7.9243779],[-73.7409723,-7.92977]]]}},{"type":"Feature","id":"AC-Y719-X78","properties":{"id":"AC-Y719-X78","grid_x":78,"grid_y":719,"centroid":[-73.7288302,-7.9272119],"aggregation":"none","score_gradboost":0.0262179,"score_random_forest":0.01531,"score_logistic_regression":0.0069484,"score_fuzzy_knn_k29":0.0},"geometry":{"type":"Polygon","coordinates":[[[-73.7328982,-7.929862],[-73.724824,-7.9299539],[-73.7247623,-7.9245617],[-73.7328364,-7.9244699],[-73.7328982,-7.929862]]]}},{"type":"Feature","id":"AC-Y719-X79","properties":{"id":"AC-Y719-X79","grid_x":79,"grid_y":719,"centroid":[-73.720756,-7.9273036],"aggregation":"none","score_gradboost":0.0282631,"score_random_forest":0.0189477,"score_logistic_regression":0.0082174,"score_fuzzy_knn_k29":0.0},"geometry":{"type":"Polygon","coordinates":[[[-73.724824,-7.9299539],[-73.7167497,-7.9300456],[-73.7166881,-7.9246533],[-73.7247623,-7.9245617],[-73.724824,-7.9299539]]]}},{"type":"Feature","id":"AC-Y719-X80","properties":{"id":"AC-Y719-X80","grid_x":80,"grid_y":719,"centroid":[-73.7126818,-7.9273952],"aggregation":"none","score_gradboost":0.0370394,"score_random_forest":0.0305057,"score_logistic_regression":0.0105854,"score_fuzzy_knn_k29":0.0},"geometry":{"type":"Polygon","coordinates":[[[-73.7167497,-7.9300456],[-73.7086753,-7.9301371],[-73.7086139,-7.9247448],[-73.7166881,-7.9246533],[-73.7167497,-7.9300456]]]}},{"type":"Feature","id":"AC-Y720-X76","properties":{"id":"AC-Y720-X76","grid_x":76,"grid_y":720,"centroid":[-73.7449164,-7.9216358],"aggregation":"none","score_gradboost":0.0282631,"score_random_forest":0.0240956,"score_logistic_regression":0.0069634,"score_fuzzy_knn_k29":0.0},"geometry":{"type":"Polygon","coordinates":[[[-73.7489843,-7.9242858],[-73.7409104,-7.9243779],[-73.7408486,-7.9189858],[-73.7489224,-7.9188938],[-73.7489843,-7.9242858]]]}},{"type":"Feature","id":"AC-Y720-X77","properties":{"id":"AC-Y720-X77","grid_x":77,"grid_y":720,"centroid":[-73.7368425,-7.9217278],"aggregation":"none","score_gradboost":0.0343036,"score_random_forest":0.1222442,"score_logistic_regression":0.0063275,"score_fuzzy_knn_k29":0.0203644},"geometry":{"type":"Polygon","coordinates":[[[-73.7409104,-7.9243779],[-73.7328364,-7.9244699],[-73.7327747,-7.9190777],[-73.7408486,-7.9189858],[-73.7409104,-7.9243779]]]}},{"type":"Feature","id":"AC-Y720-X78","properties":{"id":"AC-Y720-X78","grid_x":78,"grid_y":720,"centroid":[-73.7287685,-7.9218197],"aggregation":"none","score_gradboost":0.0300506,"score_random_forest":0.0524422,"score_logistic_regression":0.0068206,"score_fuzzy_knn_k29":0.0213908},"geometry":{"type":"Polygon","coordinates":[[[-73.7328364,-7.9244699],[-73.7247623,-7.9245617],[-73.7247007,-7.9191695],[-73.7327747,-7.9190777],[-73.7328364,-7.9244699]]]}},{"type":"Feature","id":"AC-Y720-X79","properties":{"id":"AC-Y720-X79","grid_x":79,"grid_y":720,"centroid":[-73.7206945,-7.9219114],"aggregation":"none","score_gradboost":0.0300506,"score_random_forest":0.0764878,"score_logistic_regression":0.0067897,"score_fuzzy_knn_k29":0.0200965},"geometry":{"type":"Polygon","coordinates":[[[-73.7247623,-7.9245617],[-73.7166881,-7.9246533],[-73.7166266,-7.9192611],[-73.7247007,-7.9191695],[-73.7247623,-7.9245617]]]}},{"type":"Feature","id":"AC-Y720-X80","properties":{"id":"AC-Y720-X80","grid_x":80,"grid_y":720,"centroid":[-73.7126203,-7.9220029],"aggregation":"none","score_gradboost":0.040373,"score_random_forest":0.0487214,"score_logistic_regression":0.0084337,"score_fuzzy_knn_k29":0.0},"geometry":{"type":"Polygon","coordinates":[[[-73.7166881,-7.9246533],[-73.7086139,-7.9247448],[-73.7085525,-7.9193525],[-73.7166266,-7.9192611],[-73.7166881,-7.9246533]]]}},{"type":"Feature","id":"AC-Y721-X75","properties":{"id":"AC-Y721-X75","grid_x":75,"grid_y":721,"centroid":[-73.7529283,-7.9161517],"aggregation":"none","score_gradboost":0.0226508,"score_random_forest":0.0044178,"score_logistic_regression":0.0059872,"score_fuzzy_knn_k29":0.0},"geometry":{"type":"Polygon","coordinates":[[[-73.7569961,-7.9188016],[-73.7489224,-7.9188938],[-73.7488605,-7.9135018],[-73.7569341,-7.9134096],[-73.7569961,-7.9188016]]]}},{"type":"Feature","id":"AC-Y721-X76","properties":{"id":"AC-Y721-X76","grid_x":76,"grid_y":721,"centroid":[-73.7448546,-7.9162438],"aggregation":"none","score_gradboost":0.0330979,"score_random_forest":0.0749168,"score_logistic_regression":0.0057738,"score_fuzzy_knn_k29":0.0212018},"geometry":{"type":"Polygon","coordinates":[[[-73.7489224,-7.9188938],[-73.7408486,-7.9189858],[-73.7407868,-7.9135938],[-73.7488605,-7.9135018],[-73.7489224,-7.9188938]]]}},{"type":"Feature","id":"AC-Y721-X77","properties":{"id":"AC-Y721-X77","grid_x":77,"grid_y":721,"centroid":[-73.7367808,-7.9163357],"aggregation":"none","score_gradboost":0.0288631,"score_random_forest":0.0524668,"score_logistic_regression":0.0064504,"score_fuzzy_knn_k29":0.0229628},"geometry":{"type":"Polygon","coordinates":[[[-73.7408486,-7.9189858],[-73.7327747,-7.9190777],[-73.732713,-7.9136856],[-73.7407868,-7.9135938],[-73.7408486,-7.9189858]]]}},{"type":"Feature","id":"AC-Y721-X78","properties":{"id":"AC-Y721-X78","grid_x":78,"grid_y":721,"centroid":[-73.7287069,-7.9164275],"aggregation":"none","score_gradboost":0.0414843,"score_random_forest":0.0364737,"score_logistic_regression":0.0073764,"score_fuzzy_knn_k29":0.0234637},"geometry":{"type":"Polygon","coordinates":[[[-73.7327747,-7.9190777],[-73.7247007,-7.9191695],[-73.7246392,-7.9137773],[-73.732713,-7.9136856],[-73.7327747,-7.9190777]]]}},{"type":"Feature","id":"AC-Y721-X79","properties":{"id":"AC-Y721-X79","grid_x":79,"grid_y":721,"centroid":[-73.7206329,-7.9165192],"aggregation":"none","score_gradboost":0.0235519,"score_random_forest":0.0382523,"score_logistic_regression":0.0072214,"score_fuzzy_knn_k29":0.0222186},"geometry":{"type":"Polygon","coordinates":[[[-73.7247007,-7.9191695],[-73.7166266,-7.9192611],[-73.7165652,-7.9138688],[-73.7246392,-7.9137773],[-73.7247007,-7.9191695]]]}},{"type":"Feature","id":"AC-Y721-X80","properties":{"id":"AC-Y721-X80","grid_x":80,"grid_y":721,"centroid":[-73.7125588,-7.9166107],"aggregation":"none","score_gradboost":0.0467663,"score_random_forest":0.0468012,"score_logistic_regression":0.0096679,"score_fuzzy_knn_k29":0.0},"geometry":{"type":"Polygon","coordinates":[[[-73.7166266,-7.9192611],[-73.7085525,-7.9193525],[-73.7084911,-7.9139602],[-73.7165652,-7.9138688],[-73.7166266,-7.9192611]]]}},{"type":"Feature","id":"AC-Y722-X74","properties":{"id":"AC-Y722-X74","grid_x":74,"grid_y":722,"centroid":[-73.7609399,-7.9106675],"aggregation":"none","score_gradboost":0.0080817,"score_random_forest":0.0022188,"score_logistic_regression":0.005716,"score_fuzzy_knn_k29":0.0},"geometry":{"type":"Polygon","coordinates":[[[-73.7650076,-7.9133173],[-73.7569341,-7.9134096],[-73.7568722,-7.9080177],[-73.7649456,-7.9079254],[-73.7650076,-7.9133173]]]}},{"type":"Feature","id":"AC-Y722-X75","properties":{"id":"AC-Y722-X75","grid_x":75,"grid_y":722,"centroid":[-73.7528664,-7.9107597],"aggregation":"none","score_gradboost":0.0226508,"score_random_forest":0.0078957,"score_logistic_regression":0.0054085,"score_fuzzy_knn_k29":0.0},"geometry":{"type":"Polygon","coordinates":[[[-73.7569341,-7.9134096],[-73.7488605,-7.9135018],[-73.7487987,-7.9081098],[-73.7568722,-7.9080177],[-73.7569341,-7.9134096]]]}},{"type":"Feature","id":"AC-Y722-X76","properties":{"id":"AC-Y722-X76","grid_x":76,"grid_y":722,"centroid":[-73.7447928,-7.9108518],"aggregation":"none","score_gradboost":0.040373,"score_random_forest":0.0427439,"score_logistic_regression":0.0070732,"score_fuzzy_knn_k29":0.0235219},"geometry":{"type":"Polygon","coordinates":[[[-73.7488605,-7.9135018],[-73.7407868,-7.9135938],[-73.7407251,-7.9082017],[-73.7487987,-7.9081098],[-73.7488605,-7.9135018]]]}},{"type":"Feature","id":"AC-Y722-X77","properties":{"id":"AC-Y722-X77","grid_x":77,"grid_y":722,"centroid":[-73.7367191,-7.9109436],"aggregation":"none","score_gradboost":0.0423006,"score_random_forest":0.0389936,"score_logistic_regression":0.0073815,"score_fuzzy_knn_k29":0.0249781},"geometry":{"type":"Polygon","coordinates":[[[-73.7407868,-7.9135938],[-73.732713,-7.9136856],[-73.7326514,-7.9082935],[-73.7407251,-7.9082017],[-73.7407868,-7.9135938]]]}},{"type":"Feature","id":"AC-Y722-X78","properties":{"id":"AC-Y722-X78","grid_x":78,"grid_y":722,"centroid":[-73.7286453,-7.9110354],"aggregation":"none","score_gradboost":0.0346483,"score_random_forest":0.0369194,"score_logistic_regression":0.0084725,"score_fuzzy_knn_k29":0.0238643},"geometry":{"type":"Polygon","coordinates":[[[-73.732713,-7.9136856],[-73.7246392,-7.9137773],[-73.7245776,-7.9083851],[-73.7326514,-7.9082935],[-73.732713,-7.9136856]]]}},{"type":"Feature","id":"AC-Y722-X79","properties":{"id":"AC-Y722-X79","grid_x":79,"grid_y":722,"centroid":[-73.7205714,-7.911127],"aggregation":"none","score_gradboost":0.0364825,"score_random_forest":0.0359438,"score_logistic_regression":0.0092948,"score_fuzzy_knn_k29":0.0219622},"geometry":{"type":"Polygon","coordinates":[[[-73.7246392,-7.9137773],[-73.7165652,-7.9138688],[-73.7165038,-7.9084766],[-73.7245776,-7.9083851],[-73.7246392,-7.9137773]]]}},{"type":"Feature","id":"AC-Y722-X80","properties":{"id":"AC-Y722-X80","grid_x":80,"grid_y":722,"centroid":[-73.7124975,-7.9112184],"aggregation":"none","score_gradboost":0.0401227,"score_random_forest":0.0433032,"score_logistic_regression":0.0097451,"score_fuzzy_knn_k29":0.0},"geometry":{"type":"Polygon","coordinates":[[[-73.7165652,-7.9138688],[-73.7084911,-7.9139602],[-73.7084298,-7.9085679],[-73.7165038,-7.9084766],[-73.7165652,-7.9138688]]]}},{"type":"Feature","id":"AC-Y723-X73","properties":{"id":"AC-Y723-X73","grid_x":73,"grid_y":723,"centroid":[-73.7689512,-7.9051833],"aggregation":"none","score_gradboost":0.0070058,"score_random_forest":0.0021731,"score_logistic_regression":0.0056815,"score_fuzzy_knn_k29":0.0},"geometry":{"type":"Polygon","coordinates":[[[-73.7730188,-7.907833],[-73.7649456,-7.9079254],[-73.7648836,-7.9025336],[-73.7729567,-7.9024412],[-73.7730188,-7.907833]]]}},{"type":"Feature","id":"AC-Y723-X74","properties":{"id":"AC-Y723-X74","grid_x":74,"grid_y":723,"centroid":[-73.7608779,-7.9052756],"aggregation":"none","score_gradboost":0.015001,"score_random_forest":0.0103932,"score_logistic_regression":0.0053557,"score_fuzzy_knn_k29":0.0},"geometry":{"type":"Polygon","coordinates":[[[-73.7649456,-7.9079254],[-73.7568722,-7.9080177],[-73.7568103,-7.9026257],[-73.7648836,-7.9025336],[-73.7649456,-7.9079254]]]}},{"type":"Feature","id":"AC-Y723-X75","properties":{"id":"AC-Y723-X75","grid_x":75,"grid_y":723,"centroid":[-73.7528045,-7.9053678],"aggregation":"none","score_gradboost":0.0498927,"score_random_forest":0.1075039,"score_logistic_regression":0.0071523,"score_fuzzy_knn_k29":0.0220872},"geometry":{"type":"Polygon","coordinates":[[[-73.7568722,-7.9080177],[-73.7487987,-7.9081098],[-73.7487369,-7.9027178],[-73.7568103,-7.9026257],[-73.7568722,-7.9080177]]]}},{"type":"Feature","id":"AC-Y723-X76","properties":{"id":"AC-Y723-X76","grid_x":76,"grid_y":723,"centroid":[-73.744731,-7.9054597],"aggregation":"none","score_gradboost":0.038794,"score_random_forest":0.04426,"score_logistic_regression":0.0083778,"score_fuzzy_knn_k29":0.0226735},"geometry":{"type":"Polygon","coordinates":[[[-73.7487987,-7.9081098],[-73.7407251,-7.9082017],[-73.7406634,-7.9028096],[-73.7487369,-7.9027178],[-73.7487987,-7.9081098]]]}},{"type":"Feature","id":"AC-Y723-X77","properties":{"id":"AC-Y723-X77","grid_x":77,"grid_y":723,"centroid":[-73.7366574,-7.9055515],"aggregation":"none","score_gradboost":0.0346483,"score_random_forest":0.0369194,"score_logistic_regression":0.0079272,"score_fuzzy_knn_k29":0.0250695},"geometry":{"type":"Polygon","coordinates":[[[-73.7407251,-7.9082017],[-73.7326514,-7.9082935],[-73.7325898,-7.9029013],[-73.7406634,-7.9028096],[-73.7407251,-7.9082017]]]}},{"type":"Feature","id":"AC-Y723-X78","properties":{"id":"AC-Y723-X78","grid_x":78,"grid_y":723,"centroid":[-73.7285838,-7.9056432],"aggregation":"none","score_gradboost":0.0406199,"score_random_forest":0.0389936,"score_logistic_regression":0.0079336,"score_fuzzy_knn_k29":0.0238406},"geometry":{"type":"Polygon","coordinates":[[[-73.7326514,-7.9082935],[-73.7245776,-7.9083851],[-73.7245161,-7.9029929],[-73.7325898,-7.9029013],[-73.7326514,-7.9082935]]]}},{"type":"Feature","id":"AC-Y723-X79","properties":{"id":"AC-Y723-X79","grid_x":79,"grid_y":723,"centroid":[-73.72051,-7.9057347],"aggregation":"none","score_gradboost":0.0444389,"score_random_forest":0.0398755,"score_logistic_regression":0.0079298,"score_fuzzy_knn_k29":0.0226705},"geometry":{"type":"Polygon","coordinates":[[[-73.7245776,-7.9083851],[-73.7165038,-7.9084766],[-73.7164424,-7.9030843],[-73.7245161,-7.9029929],[-73.7245776,-7.9083851]]]}},{"type":"Feature","id":"AC-Y723-X80","properties":{"id":"AC-Y723-X80","grid_x":80,"grid_y":723,"centroid":[-73.7124361,-7.9058261],"aggregation":"none","score_gradboost":0.0235519,"score_random_forest":0.0416834,"score_logistic_regression":0.0072052,"score_fuzzy_knn_k29":0.0214428},"geometry":{"type":"Polygon","coordinates":[[[-73.7165038,-7.9084766],[-73.7084298,-7.9085679],[-73.7083685,-7.9031755],[-73.7164424,-7.9030843],[-73.7165038,-7.9084766]]]}},{"type":"Feature","id":"AC-Y724-X73","properties":{"id":"AC-Y724-X73","grid_x":73,"grid_y":724,"centroid":[-73.7688891,-7.8997915],"aggregation":"none","score_gradboost":0.0070058,"score_random_forest":0.0004935,"score_logistic_regression":0.0052478,"score_fuzzy_knn_k29":0.0},"geometry":{"type":"Polygon","coordinates":[[[-73.7729567,-7.9024412],[-73.7648836,-7.9025336],[-73.7648216,-7.8971417],[-73.7728947,-7.8970494],[-73.7729567,-7.9024412]]]}},{"type":"Feature","id":"AC-Y724-X74","properties":{"id":"AC-Y724-X74","grid_x":74,"grid_y":724,"centroid":[-73.760816,-7.8998837],"aggregation":"none","score_gradboost":0.0226508,"score_random_forest":0.0067771,"score_logistic_regression":0.0063465,"score_fuzzy_knn_k29":0.0},"geometry":{"type":"Polygon","coordinates":[[[-73.7648836,-7.9025336],[-73.7568103,-7.9026257],[-73.7567484,-7.8972338],[-73.7648216,-7.8971417],[-73.7648836,-7.9025336]]]}},{"type":"Feature","id":"AC-Y724-X75","properties":{"id":"AC-Y724-X75","grid_x":75,"grid_y":724,"centroid":[-73.7527427,-7.8999758],"aggregation":"none","score_gradboost":0.043079,"score_random_forest":0.0823345,"score_logistic_regression":0.0067094,"score_fuzzy_knn_k29":0.0232435},"geometry":{"type":"Polygon","coordinates":[[[-73.7568103,-7.9026257],[-73.7487369,-7.9027178],[-73.7486751,-7.8973257],[-73.7567484,-7.8972338],[-73.7568103,-7.9026257]]]}},{"type":"Feature","id":"AC-Y724-X76","properties":{"id":"AC-Y724-X76","grid_x":76,"grid_y":724,"centroid":[-73.7446693,-7.9000677],"aggregation":"none","score_gradboost":0.0444389,"score_random_forest":0.0407553,"score_logistic_regression":0.0071019,"score_fuzzy_knn_k29":0.0253871},"geometry":{"type":"Polygon","coordinates":[[[-73.7487369,-7.9027178],[-73.7406634,-7.9028096],[-73.7406018,-7.8974176],[-73.7486751,-7.8973257],[-73.7487369,-7.9027178]]]}},{"type":"Feature","id":"AC-Y724-X77","properties":{"id":"AC-Y724-X77","grid_x":77,"grid_y":724,"centroid":[-73.7365958,-7.9001594],"aggregation":"none","score_gradboost":0.0264312,"score_random_forest":0.0382296,"score_logistic_regression":0.0066161,"score_fuzzy_knn_k29":0.0250858},"geometry":{"type":"Polygon","coordinates":[[[-73.7406634,-7.9028096],[-73.7325898,-7.9029013],[-73.7325283,-7.8975092],[-73.7406018,-7.8974176],[-73.7406634,-7.9028096]]]}},{"type":"Feature","id":"AC-Y724-X78","properties":{"id":"AC-Y724-X78","grid_x":78,"grid_y":724,"centroid":[-73.7285222,-7.900251],"aggregation":"none","score_gradboost":0.0288631,"score_random_forest":0.0451005,"score_logistic_regression":0.0071046,"score_fuzzy_knn_k29":0.0223435},"geometry":{"type":"Polygon","coordinates":[[[-73.7325898,-7.9029013],[-73.7245161,-7.9029929],[-73.7244547,-7.8976007],[-73.7325283,-7.8975092],[-73.7325898,-7.9029013]]]}},{"type":"Feature","id":"AC-Y724-X79","properties":{"id":"AC-Y724-X79","grid_x":79,"grid_y":724,"centroid":[-73.7204486,-7.9003425],"aggregation":"none","score_gradboost":0.040373,"score_random_forest":0.0452668,"score_logistic_regression":0.0075395,"score_fuzzy_knn_k29":0.0207058},"geometry":{"type":"Polygon","coordinates":[[[-73.7245161,-7.9029929],[-73.7164424,-7.9030843],[-73.716381,-7.897692],[-73.7244547,-7.8976007],[-73.7245161,-7.9029929]]]}},{"type":"Feature","id":"AC-Y724-X80","properties":{"id":"AC-Y724-X80","grid_x":80,"grid_y":724,"centroid":[-73.7123748,-7.9004338],"aggregation":"none","score_gradboost":0.0300506,"score_random_forest":0.0852298,"score_logistic_regression":0.0075303,"score_fuzzy_knn_k29":0.0},"geometry":{"type":"Polygon","coordinates":[[[-73.7164424,-7.9030843],[-73.7083685,-7.9031755],[-73.7083073,-7.8977832],[-73.716381,-7.897692],[-73.7164424,-7.9030843]]]}},{"type":"Feature","id":"AC-Y725-X75","properties":{"id":"AC-Y725-X75","grid_x":75,"grid_y":725,"centroid":[-73.7526809,-7.8945838],"aggregation":"none","score_gradboost":0.040373,"score_random_forest":0.0776243,"score_logistic_regression":0.0076727,"score_fuzzy_knn_k29":0.022821},"geometry":{"type":"Polygon","coordinates":[[[-73.7567484,-7.8972338],[-73.7486751,-7.8973257],[-73.7486134,-7.8919337],[-73.7566866,-7.8918418],[-73.7567484,-7.8972338]]]}},{"type":"Feature","id":"AC-Y725-X76","properties":{"id":"AC-Y725-X76","grid_x":76,"grid_y":725,"centroid":[-73.7446076,-7.8946756],"aggregation":"none","score_gradboost":0.0406199,"score_random_forest":0.0389936,"score_logistic_regression":0.0073597,"score_fuzzy_knn_k29":0.0255699},"geometry":{"type":"Polygon","coordinates":[[[-73.7486751,-7.8973257],[-73.7406018,-7.8974176],[-73.7405402,-7.8920255],[-73.7486134,-7.8919337],[-73.7486751,-7.8973257]]]}},{"type":"Feature","id":"AC-Y725-X77","properties":{"id":"AC-Y725-X77","grid_x":77,"grid_y":725,"centroid":[-73.7365343,-7.8947673],"aggregation":"none","score_gradboost":0.0235519,"score_random_forest":0.0342522,"score_logistic_regression":0.0067271,"score_fuzzy_knn_k29":0.0237708},"geometry":{"type":"Polygon","coordinates":[[[-73.7406018,-7.8974176],[-73.7325283,-7.8975092],[-73.7324668,-7.8921171],[-73.7405402,-7.8920255],[-73.7406018,-7.8974176]]]}},{"type":"Feature","id":"AC-Y725-X78","properties":{"id":"AC-Y725-X78","grid_x":78,"grid_y":725,"centroid":[-73.7284608,-7.8948589],"aggregation":"none","score_gradboost":0.0330979,"score_random_forest":0.0822043,"score_logistic_regression":0.0067383,"score_fuzzy_knn_k29":0.0198041},"geometry":{"type":"Polygon","coordinates":[[[-73.7325283,-7.8975092],[-73.7244547,-7.8976007],[-73.7243933,-7.8922085],[-73.7324668,-7.8921171],[-73.7325283,-7.8975092]]]}},{"type":"Feature","id":"AC-Y725-X79","properties":{"id":"AC-Y725-X79","grid_x":79,"grid_y":725,"centroid":[-73.7203872,-7.8949503],"aggregation":"none","score_gradboost":0.0334593,"score_random_forest":0.0149257,"score_logistic_regression":0.008044,"score_fuzzy_knn_k29":0.0},"geometry":{"type":"Polygon","coordinates":[[[-73.7244547,-7.8976007],[-73.716381,-7.897692],[-73.7163198,-7.8922998],[-73.7243933,-7.8922085],[-73.7244547,-7.8976007]]]}},{"type":"Feature","id":"AC-Y725-X80","properties":{"id":"AC-Y725-X80","grid_x":80,"grid_y":725,"centroid":[-73.7123136,-7.8950415],"aggregation":"none","score_gradboost":0.0239395,"score_random_forest":0.0238999,"score_logistic_regression":0.0078749,"score_fuzzy_knn_k29":0.0},"geometry":{"type":"Polygon","coordinates":[[[-73.716381,-7.897692],[-73.7083073,-7.8977832],[-73.7082461,-7.8923909],[-73.7163198,-7.8922998],[-73.716381,-7.897692]]]}},{"type":"Feature","id":"AC-Y726-X75","properties":{"id":"AC-Y726-X75","grid_x":75,"grid_y":726,"centroid":[-73.7526192,-7.8891918],"aggregation":"none","score_gradboost":0.043079,"score_random_forest":0.0755618,"score_logistic_regression":0.0084927,"score_fuzzy_knn_k29":0.0213203},"geometry":{"type":"Polygon","coordinates":[[[-73.7566866,-7.8918418],[-73.7486134,-7.8919337],[-73.7485518,-7.8865417],[-73.7566248,-7.8864499],[-73.7566866,-7.8918418]]]}},{"type":"Feature","id":"AC-Y726-X76","properties":{"id":"AC-Y726-X76","grid_x":76,"grid_y":726,"centroid":[-73.744546,-7.8892836],"aggregation":"none","score_gradboost":0.0287229,"score_random_forest":0.0426754,"score_logistic_regression":0.0061175,"score_fuzzy_knn_k29":0.0250313},"geometry":{"type":"Polygon","coordinates":[[[-73.7486134,-7.8919337],[-73.7405402,-7.8920255],[-73.7404786,-7.8866334],[-73.7485518,-7.8865417],[-73.7486134,-7.8919337]]]}},{"type":"Feature","id":"AC-Y726-X77","properties":{"id":"AC-Y726-X77","grid_x":77,"grid_y":726,"centroid":[-73.7364727,-7.8893752],"aggregation":"none","score_gradboost":0.0287229,"score_random_forest":0.0423178,"score_logistic_regression":0.0052011,"score_fuzzy_knn_k29":0.0223943},"geometry":{"type":"Polygon","coordinates":[[[-73.7405402,-7.8920255],[-73.7324668,-7.8921171],[-73.7324053,-7.8867249],[-73.7404786,-7.8866334],[-73.7405402,-7.8920255]]]}},{"type":"Feature","id":"AC-Y726-X78","properties":{"id":"AC-Y726-X78","grid_x":78,"grid_y":726,"centroid":[-73.7283994,-7.8894667],"aggregation":"none","score_gradboost":0.0300506,"score_random_forest":0.0782804,"score_logistic_regression":0.0069961,"score_fuzzy_knn_k29":0.0203719},"geometry":{"type":"Polygon","coordinates":[[[-73.7324668,-7.8921171],[-73.7243933,-7.8922085],[-73.724332,-7.8868163],[-73.7324053,-7.8867249],[-73.7324668,-7.8921171]]]}},{"type":"Feature","id":"AC-Y726-X79","properties":{"id":"AC-Y726-X79","grid_x":79,"grid_y":726,"centroid":[-73.7203259,-7.889558],"aggregation":"none","score_gradboost":0.026748,"score_random_forest":0.0076911,"score_logistic_regression":0.0083849,"score_fuzzy_knn_k29":0.0},"geometry":{"type":"Polygon","coordinates":[[[-73.7243933,-7.8922085],[-73.7163198,-7.8922998],[-73.7162585,-7.8869075],[-73.724332,-7.8868163],[-73.7243933,-7.8922085]]]}},{"type":"Feature","id":"AC-Y726-X80","properties":{"id":"AC-Y726-X80","grid_x":80,"grid_y":726,"centroid":[-73.7122523,-7.8896492],"aggregation":"none","score_gradboost":0.0189285,"score_random_forest":0.0169817,"score_logistic_regression":0.009603,"score_fuzzy_knn_k29":0.0},"geometry":{"type":"Polygon","coordinates":[[[-73.7163198,-7.8922998],[-73.7082461,-7.8923909],[-73.708185,-7.8869986],[-73.7162585,-7.8869075],[-73.7163198,-7.8922998]]]}},{"type":"Feature","id":"AC-Y727-X75","properties":{"id":"AC-Y727-X75","grid_x":75,"grid_y":727,"centroid":[-73.7525575,-7.8837998],"aggregation":"none","score_gradboost":0.0300506,"score_random_forest":0.0585643,"score_logistic_regression":0.0061158,"score_fuzzy_knn_k29":0.0230838},"geometry":{"type":"Polygon","coordinates":[[[-73.7566248,-7.8864499],[-73.7485518,-7.8865417],[-73.7484901,-7.8811497],[-73.7565631,-7.8810579],[-73.7566248,-7.8864499]]]}},{"type":"Feature","id":"AC-Y727-X76","properties":{"id":"AC-Y727-X76","grid_x":76,"grid_y":727,"centroid":[-73.7444844,-7.8838916],"aggregation":"none","score_gradboost":0.0287229,"score_random_forest":0.0402966,"score_logistic_regression":0.006638,"score_fuzzy_knn_k29":0.02521},"geometry":{"type":"Polygon","coordinates":[[[-73.7485518,-7.8865417],[-73.7404786,-7.8866334],[-73.7404171,-7.8812413],[-73.7484901,-7.8811497],[-73.7485518,-7.8865417]]]}},{"type":"Feature","id":"AC-Y727-X77","properties":{"id":"AC-Y727-X77","grid_x":77,"grid_y":727,"centroid":[-73.7364112,-7.8839831],"aggregation":"none","score_gradboost":0.0287229,"score_random_forest":0.038627,"score_logistic_regression":0.0056419,"score_fuzzy_knn_k29":0.023012},"geometry":{"type":"Polygon","coordinates":[[[-73.7404786,-7.8866334],[-73.7324053,-7.8867249],[-73.7323439,-7.8813328],[-73.7404171,-7.8812413],[-73.7404786,-7.8866334]]]}},{"type":"Feature","id":"AC-Y727-X78","properties":{"id":"AC-Y727-X78","grid_x":78,"grid_y":727,"centroid":[-73.728338,-7.8840745],"aggregation":"none","score_gradboost":0.0300506,"score_random_forest":0.0746551,"score_logistic_regression":0.0063766,"score_fuzzy_knn_k29":0.0195418},"geometry":{"type":"Polygon","coordinates":[[[-73.7324053,-7.8867249],[-73.724332,-7.8868163],[-73.7242707,-7.8814241],[-73.7323439,-7.8813328],[-73.7324053,-7.8867249]]]}},{"type":"Feature","id":"AC-Y727-X79","properties":{"id":"AC-Y727-X79","grid_x":79,"grid_y":727,"centroid":[-73.7202646,-7.8841658],"aggregation":"none","score_gradboost":0.0226508,"score_random_forest":0.0088139,"score_logistic_regression":0.0063028,"score_fuzzy_knn_k29":0.0},"geometry":{"type":"Polygon","coordinates":[[[-73.724332,-7.8868163],[-73.7162585,-7.8869075],[-73.7161973,-7.8815152],[-73.7242707,-7.8814241],[-73.724332,-7.8868163]]]}},{"type":"Feature","id":"AC-Y727-X80","properties":{"id":"AC-Y727-X80","grid_x":80,"grid_y":727,"centroid":[-73.7121912,-7.8842569],"aggregation":"none","score_gradboost":0.0076439,"score_random_forest":0.0027724,"score_logistic_regression":0.0089461,"score_fuzzy_knn_k29":0.0},"geometry":{"type":"Polygon","coordinates":[[[-73.7162585,-7.8869075],[-73.708185,-7.8869986],[-73.7081239,-7.8816062],[-73.7161973,-7.8815152],[-73.7162585,-7.8869075]]]}},{"type":"Feature","id":"AC-Y728-X74","properties":{"id":"AC-Y728-X74","grid_x":74,"grid_y":728,"centroid":[-73.7605687,-7.878316],"aggregation":"none","score_gradboost":0.0300506,"score_random_forest":0.0770042,"score_logistic_regression":0.0049265,"score_fuzzy_knn_k29":0.0209466},"geometry":{"type":"Polygon","coordinates":[[[-73.764636,-7.880966],[-73.7565631,-7.8810579],[-73.7565014,-7.875666],[-73.7645742,-7.8755741],[-73.764636,-7.880966]]]}},{"type":"Feature","id":"AC-Y728-X75","properties":{"id":"AC-Y728-X75","grid_x":75,"grid_y":728,"centroid":[-73.7524958,-7.8784079],"aggregation":"none","score_gradboost":0.0235519,"score_random_forest":0.0333527,"score_logistic_regression":0.0057832,"score_fuzzy_knn_k29":0.0246273},"geometry":{"type":"Polygon","coordinates":[[[-73.7565631,-7.8810579],[-73.7484901,-7.8811497],[-73.7484286,-7.8757577],[-73.7565014,-7.875666],[-73.7565631,-7.8810579]]]}},{"type":"Feature","id":"AC-Y728-X76","properties":{"id":"AC-Y728-X76","grid_x":76,"grid_y":728,"centroid":[-73.7444229,-7.8784995],"aggregation":"none","score_gradboost":0.0346483,"score_random_forest":0.037797,"score_logistic_regression":0.0068272,"score_fuzzy_knn_k29":0.0262249},"geometry":{"type":"Polygon","coordinates":[[[-73.7484901,-7.8811497],[-73.7404171,-7.8812413],[-73.7403556,-7.8758492],[-73.7484286,-7.8757577],[-73.7484901,-7.8811497]]]}},{"type":"Feature","id":"AC-Y728-X77","properties":{"id":"AC-Y728-X77","grid_x":77,"grid_y":728,"centroid":[-73.7363498,-7.878591],"aggregation":"none","score_gradboost":0.0235519,"score_random_forest":0.0333527,"score_logistic_regression":0.0058108,"score_fuzzy_knn_k29":0.0224255},"geometry":{"type":"Polygon","coordinates":[[[-73.7404171,-7.8812413],[-73.7323439,-7.8813328],[-73.7322826,-7.8759406],[-73.7403556,-7.8758492],[-73.7404171,-7.8812413]]]}},{"type":"Feature","id":"AC-Y728-X78","properties":{"id":"AC-Y728-X78","grid_x":78,"grid_y":728,"centroid":[-73.7282766,-7.8786824],"aggregation":"none","score_gradboost":0.0343036,"score_random_forest":0.1123768,"score_logistic_regression":0.006436,"score_fuzzy_knn_k29":0.0187932},"geometry":{"type":"Polygon","coordinates":[[[-73.7323439,-7.8813328],[-73.7242707,-7.8814241],[-73.7242094,-7.8760319],[-73.7322826,-7.8759406],[-73.7323439,-7.8813328]]]}},{"type":"Feature","id":"AC-Y728-X79","properties":{"id":"AC-Y728-X79","grid_x":79,"grid_y":728,"centroid":[-73.7202034,-7.8787736],"aggregation":"none","score_gradboost":0.015001,"score_random_forest":0.0147057,"score_logistic_regression":0.0078555,"score_fuzzy_knn_k29":0.0},"geometry":{"type":"Polygon","coordinates":[[[-73.7242707,-7.8814241],[-73.7161973,-7.8815152],[-73.7161361,-7.876123],[-73.7242094,-7.8760319],[-73.7242707,-7.8814241]]]}},{"type":"Feature","id":"AC-Y728-X80","properties":{"id":"AC-Y728-X80","grid_x":80,"grid_y":728,"centroid":[-73.71213,-7.8788646],"aggregation":"none","score_gradboost":0.0066968,"score_random_forest":0.0030291,"score_logistic_regression":0.0074648,"score_fuzzy_knn_k29":0.0},"geometry":{"type":"Polygon","coordinates":[[[-73.7161973,-7.8815152],[-73.7081239,-7.8816062],[-73.7080628,-7.8762139],[-73.7161361,-7.876123],[-73.7161973,-7.8815152]]]}},{"type":"Feature","id":"AC-Y729-X74","properties":{"id":"AC-Y729-X74","grid_x":74,"grid_y":729,"centroid":[-73.760507,-7.8729241],"aggregation":"none","score_gradboost":0.0300506,"score_random_forest":0.0402858,"score_logistic_regression":0.0046078,"score_fuzzy_knn_k29":0.0210649},"geometry":{"type":"Polygon","coordinates":[[[-73.7645742,-7.8755741],[-73.7565014,-7.875666],[-73.7564398,-7.870274],[-73.7645125,-7.8701822],[-73.7645742,-7.8755741]]]}},{"type":"Feature","id":"AC-Y729-X75","properties":{"id":"AC-Y729-X75","grid_x":75,"grid_y":729,"centroid":[-73.7524342,-7.8730159],"aggregation":"none","score_gradboost":0.0406199,"score_random_forest":0.0424182,"score_logistic_regression":0.0065269,"score_fuzzy_knn_k29":0.0268911},"geometry":{"type":"Polygon","coordinates":[[[-73.7565014,-7.875666],[-73.7484286,-7.8757577],[-73.748367,-7.8703657],[-73.7564398,-7.870274],[-73.7565014,-7.875666]]]}},{"type":"Feature","id":"AC-Y729-X76","properties":{"id":"AC-Y729-X76","grid_x":76,"grid_y":729,"centroid":[-73.7443614,-7.8731075],"aggregation":"none","score_gradboost":0.0287229,"score_random_forest":0.0373301,"score_logistic_regression":0.0051745,"score_fuzzy_knn_k29":0.0231416},"geometry":{"type":"Polygon","coordinates":[[[-73.7484286,-7.8757577],[-73.7403556,-7.8758492],[-73.7402942,-7.8704572],[-73.748367,-7.8703657],[-73.7484286,-7.8757577]]]}},{"type":"Feature","id":"AC-Y730-X74","properties":{"id":"AC-Y730-X74","grid_x":74,"grid_y":730,"centroid":[-73.7604453,-7.8675322],"aggregation":"none","score_gradboost":0.0288631,"score_random_forest":0.041816,"score_logistic_regression":0.0046739,"score_fuzzy_knn_k29":0.0219832},"geometry":{"type":"Polygon","coordinates":[[[-73.7645125,-7.8701822],[-73.7564398,-7.870274],[-73.7563782,-7.8648821],[-73.7644508,-7.8647904],[-73.7645125,-7.8701822]]]}},{"type":"Feature","id":"AC-Y730-X75","properties":{"id":"AC-Y730-X75","grid_x":75,"grid_y":730,"centroid":[-73.7523727,-7.8676239],"aggregation":"none","score_gradboost":0.0236761,"score_random_forest":0.0352559,"score_logistic_regression":0.0050588,"score_fuzzy_knn_k29":0.0251871},"geometry":{"type":"Polygon","coordinates":[[[-73.7564398,-7.870274],[-73.748367,-7.8703657],[-73.7483056,-7.8649737],[-73.7563782,-7.8648821],[-73.7564398,-7.870274]]]}},{"type":"Feature","id":"AC-Y731-X74","properties":{"id":"AC-Y731-X74","grid_x":74,"grid_y":731,"centroid":[-73.7603837,-7.8621403],"aggregation":"none","score_gradboost":0.0235519,"score_random_forest":0.0413206,"score_logistic_regression":0.00525,"score_fuzzy_knn_k29":0.0238042},"geometry":{"type":"Polygon","coordinates":[[[-73.7644508,-7.8647904],[-73.7563782,-7.8648821],[-73.7563167,-7.8594901],[-73.7643891,-7.8593985],[-73.7644508,-7.8647904]]]}}]}