{"type":"FeatureCollection","features":[{"type":"Feature","id":"AC-Y750-X455","properties":{"id":"AC-Y750-X455","grid_x":455,"grid_y":750,"centroid":[-70.6788091,-7.7830646],"aggregation":"none","score_gradboost":0.0753615,"score_random_forest":0.0515232,"score_logistic_regression":0.3185763,"score_fuzzy_knn_k29":0.0938792},"geometry":{"type":"Polygon","coordinates":[[[-70.6828677,-7.7857527],[-70.6747721,-7.7857848],[-70.6747506,-7.7803764],[-70.6828461,-7.7803444],[-70.6828677,-7.7857527]]]}},{"type":"Feature","id":"AC-Y750-X456","properties":{"id":"AC-Y750-X456","grid_x":456,"grid_y":750,"centroid":[-70.6707135,-7.7830966],"aggregation":"none","score_gradboost":0.0781421,"score_random_forest":0.0388747,"score_logistic_regression":0.345788,"score_fuzzy_knn_k29":0.0915324},"geometry":{"type":"Polygon","coordinates":[[[-70.6747721,-7.7857848],[-70.6666764,-7.7858167],[-70.666655,-7.7804083],[-70.6747506,-7.7803764],[-70.6747721,-7.7857848]]]}},{"type":"Feature","id":"AC-Y750-X457","properties":{"id":"AC-Y750-X457","grid_x":457,"grid_y":750,"centroid":[-70.6626178,-7.7831284],"aggregation":"none","score_gradboost":0.0286418,"score_random_forest":0.027824,"score_logistic_regression":0.3470383,"score_fuzzy_knn_k29":0.0324017},"geometry":{"type":"Polygon","coordinates":[[[-70.6666764,-7.7858167],[-70.6585806,-7.7858485],[-70.6585594,-7.78044],[-70.666655,-7.7804083],[-70.6666764,-7.7858167]]]}},{"type":"Feature","id":"AC-Y750-X458","properties":{"id":"AC-Y750-X458","grid_x":458,"grid_y":750,"centroid":[-70.6545221,-7.78316],"aggregation":"none","score_gradboost":0.0625698,"score_random_forest":0.1074226,"score_logistic_regression":0.4837386,"score_fuzzy_knn_k29":0.3381369},"geometry":{"type":"Polygon","coordinates":[[[-70.6585806,-7.7858485],[-70.6504849,-7.78588],[-70.6504637,-7.7804716],[-70.6585594,-7.78044],[-70.6585806,-7.7858485]]]}},{"type":"Feature","id":"AC-Y750-X459","properties":{"id":"AC-Y750-X459","grid_x":459,"grid_y":750,"centroid":[-70.6464264,-7.7831915],"aggregation":"none","score_gradboost":0.0897287,"score_random_forest":0.176815,"score_logistic_regression":0.4307247,"score_fuzzy_knn_k29":0.2990433},"geometry":{"type":"Polygon","coordinates":[[[-70.6504849,-7.78588],[-70.6423891,-7.7859115],[-70.642368,-7.780503],[-70.6504637,-7.7804716],[-70.6504849,-7.78588]]]}},{"type":"Feature","id":"AC-Y750-X460","properties":{"id":"AC-Y750-X460","grid_x":460,"grid_y":750,"centroid":[-70.6383307,-7.7832229],"aggregation":"none","score_gradboost":0.1877547,"score_random_forest":0.251811,"score_logistic_regression":0.4316033,"score_fuzzy_knn_k29":0.2705672},"geometry":{"type":"Polygon","coordinates":[[[-70.6423891,-7.7859115],[-70.6342932,-7.7859428],[-70.6342723,-7.7805343],[-70.642368,-7.780503],[-70.6423891,-7.7859115]]]}},{"type":"Feature","id":"AC-Y751-X456","properties":{"id":"AC-Y751-X456","grid_x":456,"grid_y":751,"centroid":[-70.6706921,-7.7776881],"aggregation":"none","score_gradboost":0.1480946,"score_random_forest":0.0693881,"score_logistic_regression":0.2864927,"score_fuzzy_knn_k29":0.0626372},"geometry":{"type":"Polygon","coordinates":[[[-70.6747506,-7.7803764],[-70.666655,-7.7804083],[-70.6666336,-7.7749998],[-70.6747291,-7.774968],[-70.6747506,-7.7803764]]]}},{"type":"Feature","id":"AC-Y751-X457","properties":{"id":"AC-Y751-X457","grid_x":457,"grid_y":751,"centroid":[-70.6625965,-7.7777199],"aggregation":"none","score_gradboost":0.0380039,"score_random_forest":0.0600893,"score_logistic_regression":0.3959109,"score_fuzzy_knn_k29":0.074984},"geometry":{"type":"Polygon","coordinates":[[[-70.666655,-7.7804083],[-70.6585594,-7.78044],[-70.6585381,-7.7750316],[-70.6666336,-7.7749998],[-70.666655,-7.7804083]]]}},{"type":"Feature","id":"AC-Y751-X458","properties":{"id":"AC-Y751-X458","grid_x":458,"grid_y":751,"centroid":[-70.6545009,-7.7777516],"aggregation":"none","score_gradboost":0.0751061,"score_random_forest":0.1094565,"score_logistic_regression":0.3785273,"score_fuzzy_knn_k29":0.0613604},"geometry":{"type":"Polygon","coordinates":[[[-70.6585594,-7.78044],[-70.6504637,-7.7804716],[-70.6504426,-7.7750631],[-70.6585381,-7.7750316],[-70.6585594,-7.78044]]]}},{"type":"Feature","id":"AC-Y751-X459","properties":{"id":"AC-Y751-X459","grid_x":459,"grid_y":751,"centroid":[-70.6464053,-7.7777831],"aggregation":"none","score_gradboost":0.0889772,"score_random_forest":0.145829,"score_logistic_regression":0.449771,"score_fuzzy_knn_k29":0.2476052},"geometry":{"type":"Polygon","coordinates":[[[-70.6504637,-7.7804716],[-70.642368,-7.780503],[-70.642347,-7.7750945],[-70.6504426,-7.7750631],[-70.6504637,-7.7804716]]]}},{"type":"Feature","id":"AC-Y750-X452","properties":{"id":"AC-Y750-X452","grid_x":452,"grid_y":750,"centroid":[-70.7030958,-7.7829678],"aggregation":"none","score_gradboost":0.0320207,"score_random_forest":0.0400879,"score_logistic_regression":0.4771066,"score_fuzzy_knn_k29":0.3966575},"geometry":{"type":"Polygon","coordinates":[[[-70.7071545,-7.7856556],[-70.6990589,-7.7856882],[-70.6990372,-7.7802798],[-70.7071326,-7.7802473],[-70.7071545,-7.7856556]]]}},{"type":"Feature","id":"AC-Y750-X453","properties":{"id":"AC-Y750-X453","grid_x":453,"grid_y":750,"centroid":[-70.6950003,-7.7830002],"aggregation":"none","score_gradboost":0.1561176,"score_random_forest":0.0558201,"score_logistic_regression":0.2987994,"score_fuzzy_knn_k29":0.0524853},"geometry":{"type":"Polygon","coordinates":[[[-70.6990589,-7.7856882],[-70.6909633,-7.7857205],[-70.6909417,-7.7803122],[-70.6990372,-7.7802798],[-70.6990589,-7.7856882]]]}},{"type":"Feature","id":"AC-Y750-X454","properties":{"id":"AC-Y750-X454","grid_x":454,"grid_y":750,"centroid":[-70.6869047,-7.7830325],"aggregation":"none","score_gradboost":0.0585749,"score_random_forest":0.030087,"score_logistic_regression":0.3930852,"score_fuzzy_knn_k29":0.1211174},"geometry":{"type":"Polygon","coordinates":[[[-70.6909633,-7.7857205],[-70.6828677,-7.7857527],[-70.6828461,-7.7803444],[-70.6909417,-7.7803122],[-70.6909633,-7.7857205]]]}},{"type":"Feature","id":"AC-Y751-X453","properties":{"id":"AC-Y751-X453","grid_x":453,"grid_y":751,"centroid":[-70.6949786,-7.7775918],"aggregation":"none","score_gradboost":0.0817556,"score_random_forest":0.0516577,"score_logistic_regression":0.3293091,"score_fuzzy_knn_k29":0.0693165},"geometry":{"type":"Polygon","coordinates":[[[-70.6990372,-7.7802798],[-70.6909417,-7.7803122],[-70.69092,-7.7749038],[-70.6990154,-7.7748715],[-70.6990372,-7.7802798]]]}},{"type":"Feature","id":"AC-Y751-X454","properties":{"id":"AC-Y751-X454","grid_x":454,"grid_y":751,"centroid":[-70.6868831,-7.7776241],"aggregation":"none","score_gradboost":0.0850721,"score_random_forest":0.0615876,"score_logistic_regression":0.3339882,"score_fuzzy_knn_k29":0.0607721},"geometry":{"type":"Polygon","coordinates":[[[-70.6909417,-7.7803122],[-70.6828461,-7.7803444],[-70.6828246,-7.774936],[-70.69092,-7.7749038],[-70.6909417,-7.7803122]]]}},{"type":"Feature","id":"AC-Y751-X455","properties":{"id":"AC-Y751-X455","grid_x":455,"grid_y":751,"centroid":[-70.6787876,-7.7776562],"aggregation":"none","score_gradboost":0.0488215,"score_random_forest":0.0443199,"score_logistic_regression":0.3559813,"score_fuzzy_knn_k29":0.0879063},"geometry":{"type":"Polygon","coordinates":[[[-70.6828461,-7.7803444],[-70.6747506,-7.7803764],[-70.6747291,-7.774968],[-70.6828246,-7.774936],[-70.6828461,-7.7803444]]]}},{"type":"Feature","id":"AC-Y752-X453","properties":{"id":"AC-Y752-X453","grid_x":453,"grid_y":752,"centroid":[-70.6949568,-7.7721835],"aggregation":"none","score_gradboost":0.0279106,"score_random_forest":0.044217,"score_logistic_regression":0.4245707,"score_fuzzy_knn_k29":0.1648053},"geometry":{"type":"Polygon","coordinates":[[[-70.6990154,-7.7748715],[-70.69092,-7.7749038],[-70.6908984,-7.7694954],[-70.6989936,-7.7694631],[-70.6990154,-7.7748715]]]}},{"type":"Feature","id":"AC-Y750-X437","properties":{"id":"AC-Y750-X437","grid_x":437,"grid_y":750,"centroid":[-70.8245244,-7.7824627],"aggregation":"none","score_gradboost":0.6001693,"score_random_forest":0.6649344,"score_logistic_regression":0.6450748,"score_fuzzy_knn_k29":0.9008387},"geometry":{"type":"Polygon","coordinates":[[[-70.8285836,-7.7851493],[-70.8204885,-7.7851841],[-70.8204652,-7.7797761],[-70.8285601,-7.7797413],[-70.8285836,-7.7851493]]]}},{"type":"Feature","id":"AC-Y750-X438","properties":{"id":"AC-Y750-X438","grid_x":438,"grid_y":750,"centroid":[-70.8164294,-7.7824975],"aggregation":"none","score_gradboost":0.6263323,"score_random_forest":0.7183159,"score_logistic_regression":0.6300946,"score_fuzzy_knn_k29":0.9918667},"geometry":{"type":"Polygon","coordinates":[[[-70.8204885,-7.7851841],[-70.8123935,-7.7852188],[-70.8123703,-7.7798108],[-70.8204652,-7.7797761],[-70.8204885,-7.7851841]]]}},{"type":"Feature","id":"AC-Y750-X439","properties":{"id":"AC-Y750-X439","grid_x":439,"grid_y":750,"centroid":[-70.8083344,-7.7825321],"aggregation":"none","score_gradboost":0.5147747,"score_random_forest":0.6481384,"score_logistic_regression":0.6865278,"score_fuzzy_knn_k29":0.5683383},"geometry":{"type":"Polygon","coordinates":[[[-70.8123935,-7.7852188],[-70.8042984,-7.7852533],[-70.8042753,-7.7798453],[-70.8123703,-7.7798108],[-70.8123935,-7.7852188]]]}},{"type":"Feature","id":"AC-Y750-X440","properties":{"id":"AC-Y750-X440","grid_x":440,"grid_y":750,"centroid":[-70.8002393,-7.7825665],"aggregation":"none","score_gradboost":0.5147747,"score_random_forest":0.653762,"score_logistic_regression":0.6688986,"score_fuzzy_knn_k29":0.6638206},"geometry":{"type":"Polygon","coordinates":[[[-70.8042984,-7.7852533],[-70.7962033,-7.7852877],[-70.7961802,-7.7798797],[-70.8042753,-7.7798453],[-70.8042984,-7.7852533]]]}},{"type":"Feature","id":"AC-Y750-X445","properties":{"id":"AC-Y750-X445","grid_x":445,"grid_y":750,"centroid":[-70.7597635,-7.7827364],"aggregation":"none","score_gradboost":0.1316793,"score_random_forest":0.1378001,"score_logistic_regression":0.4547688,"score_fuzzy_knn_k29":0.3211005},"geometry":{"type":"Polygon","coordinates":[[[-70.7638224,-7.7854237],[-70.7557271,-7.7854573],[-70.7557046,-7.7800491],[-70.7637998,-7.7800155],[-70.7638224,-7.7854237]]]}},{"type":"Feature","id":"AC-Y750-X446","properties":{"id":"AC-Y750-X446","grid_x":446,"grid_y":750,"centroid":[-70.7516682,-7.7827699],"aggregation":"none","score_gradboost":0.0901594,"score_random_forest":0.12828,"score_logistic_regression":0.4461782,"score_fuzzy_knn_k29":0.2698867},"geometry":{"type":"Polygon","coordinates":[[[-70.7557271,-7.7854573],[-70.7476317,-7.7854907],[-70.7476093,-7.7800825],[-70.7557046,-7.7800491],[-70.7557271,-7.7854573]]]}},{"type":"Feature","id":"AC-Y750-X447","properties":{"id":"AC-Y750-X447","grid_x":447,"grid_y":750,"centroid":[-70.7435729,-7.7828033],"aggregation":"none","score_gradboost":0.0566264,"score_random_forest":0.1361969,"score_logistic_regression":0.4430193,"score_fuzzy_knn_k29":0.219666},"geometry":{"type":"Polygon","coordinates":[[[-70.7476317,-7.7854907],[-70.7395364,-7.785524],[-70.7395141,-7.7801158],[-70.7476093,-7.7800825],[-70.7476317,-7.7854907]]]}},{"type":"Feature","id":"AC-Y750-X448","properties":{"id":"AC-Y750-X448","grid_x":448,"grid_y":750,"centroid":[-70.7354775,-7.7828365],"aggregation":"none","score_gradboost":0.0786476,"score_random_forest":0.1698926,"score_logistic_regression":0.3943544,"score_fuzzy_knn_k29":0.1169886},"geometry":{"type":"Polygon","coordinates":[[[-70.7395364,-7.785524],[-70.731441,-7.7855571],[-70.7314188,-7.7801489],[-70.7395141,-7.7801158],[-70.7395364,-7.785524]]]}},{"type":"Feature","id":"AC-Y750-X449","properties":{"id":"AC-Y750-X449","grid_x":449,"grid_y":750,"centroid":[-70.7273822,-7.7828695],"aggregation":"none","score_gradboost":0.0737997,"score_random_forest":0.1388382,"score_logistic_regression":0.4460541,"score_fuzzy_knn_k29":0.1404323},"geometry":{"type":"Polygon","coordinates":[[[-70.731441,-7.7855571],[-70.7233455,-7.7855901],[-70.7233234,-7.7801819],[-70.7314188,-7.7801489],[-70.731441,-7.7855571]]]}},{"type":"Feature","id":"AC-Y750-X450","properties":{"id":"AC-Y750-X450","grid_x":450,"grid_y":750,"centroid":[-70.7192867,-7.7829024],"aggregation":"none","score_gradboost":0.0592583,"score_random_forest":0.1139783,"score_logistic_regression":0.3954381,"score_fuzzy_knn_k29":0.0695891},"geometry":{"type":"Polygon","coordinates":[[[-70.7233455,-7.7855901],[-70.71525,-7.785623],[-70.715228,-7.7802147],[-70.7233234,-7.7801819],[-70.7233455,-7.7855901]]]}},{"type":"Feature","id":"AC-Y750-X451","properties":{"id":"AC-Y750-X451","grid_x":451,"grid_y":750,"centroid":[-70.7111913,-7.7829352],"aggregation":"none","score_gradboost":0.0278601,"score_random_forest":0.0362702,"score_logistic_regression":0.343607,"score_fuzzy_knn_k29":0.0343581},"geometry":{"type":"Polygon","coordinates":[[[-70.71525,-7.785623],[-70.7071545,-7.7856556],[-70.7071326,-7.7802473],[-70.715228,-7.7802147],[-70.71525,-7.785623]]]}},{"type":"Feature","id":"AC-Y751-X438","properties":{"id":"AC-Y751-X438","grid_x":438,"grid_y":751,"centroid":[-70.8164061,-7.7770895],"aggregation":"none","score_gradboost":0.6877677,"score_random_forest":0.8203441,"score_logistic_regression":0.5584676,"score_fuzzy_knn_k29":0.8067893},"geometry":{"type":"Polygon","coordinates":[[[-70.8204652,-7.7797761],[-70.8123703,-7.7798108],[-70.812347,-7.7744028],[-70.8204419,-7.7743682],[-70.8204652,-7.7797761]]]}},{"type":"Feature","id":"AC-Y751-X439","properties":{"id":"AC-Y751-X439","grid_x":439,"grid_y":751,"centroid":[-70.8083112,-7.7771241],"aggregation":"none","score_gradboost":0.6597375,"score_random_forest":0.7765848,"score_logistic_regression":0.6226008,"score_fuzzy_knn_k29":0.9323946},"geometry":{"type":"Polygon","coordinates":[[[-70.8123703,-7.7798108],[-70.8042753,-7.7798453],[-70.8042522,-7.7744373],[-70.812347,-7.7744028],[-70.8123703,-7.7798108]]]}},{"type":"Feature","id":"AC-Y751-X444","properties":{"id":"AC-Y751-X444","grid_x":444,"grid_y":751,"centroid":[-70.767836,-7.7772946],"aggregation":"none","score_gradboost":0.3103207,"score_random_forest":0.292069,"score_logistic_regression":0.5410178,"score_fuzzy_knn_k29":0.2963536},"geometry":{"type":"Polygon","coordinates":[[[-70.771895,-7.7799818],[-70.7637998,-7.7800155],[-70.7637772,-7.7746074],[-70.7718723,-7.7745736],[-70.771895,-7.7799818]]]}},{"type":"Feature","id":"AC-Y751-X445","properties":{"id":"AC-Y751-X445","grid_x":445,"grid_y":751,"centroid":[-70.7597409,-7.7773282],"aggregation":"none","score_gradboost":0.2913845,"score_random_forest":0.2484532,"score_logistic_regression":0.5164345,"score_fuzzy_knn_k29":0.320341},"geometry":{"type":"Polygon","coordinates":[[[-70.7637998,-7.7800155],[-70.7557046,-7.7800491],[-70.7556821,-7.7746409],[-70.7637772,-7.7746074],[-70.7637998,-7.7800155]]]}},{"type":"Feature","id":"AC-Y751-X446","properties":{"id":"AC-Y751-X446","grid_x":446,"grid_y":751,"centroid":[-70.7516457,-7.7773617],"aggregation":"none","score_gradboost":0.1978035,"score_random_forest":0.1721713,"score_logistic_regression":0.5111967,"score_fuzzy_knn_k29":0.3233009},"geometry":{"type":"Polygon","coordinates":[[[-70.7557046,-7.7800491],[-70.7476093,-7.7800825],[-70.747587,-7.7746743],[-70.7556821,-7.7746409],[-70.7557046,-7.7800491]]]}},{"type":"Feature","id":"AC-Y751-X447","properties":{"id":"AC-Y751-X447","grid_x":447,"grid_y":751,"centroid":[-70.7435505,-7.7773951],"aggregation":"none","score_gradboost":0.0863917,"score_random_forest":0.1726491,"score_logistic_regression":0.4140357,"score_fuzzy_knn_k29":0.2238182},"geometry":{"type":"Polygon","coordinates":[[[-70.7476093,-7.7800825],[-70.7395141,-7.7801158],[-70.7394918,-7.7747076],[-70.747587,-7.7746743],[-70.7476093,-7.7800825]]]}},{"type":"Feature","id":"AC-Y751-X448","properties":{"id":"AC-Y751-X448","grid_x":448,"grid_y":751,"centroid":[-70.7354553,-7.7774282],"aggregation":"none","score_gradboost":0.0863917,"score_random_forest":0.1665135,"score_logistic_regression":0.4166157,"score_fuzzy_knn_k29":0.2498214},"geometry":{"type":"Polygon","coordinates":[[[-70.7395141,-7.7801158],[-70.7314188,-7.7801489],[-70.7313966,-7.7747407],[-70.7394918,-7.7747076],[-70.7395141,-7.7801158]]]}},{"type":"Feature","id":"AC-Y751-X449","properties":{"id":"AC-Y751-X449","grid_x":449,"grid_y":751,"centroid":[-70.72736,-7.7774613],"aggregation":"none","score_gradboost":0.0727807,"score_random_forest":0.1448833,"score_logistic_regression":0.4357568,"score_fuzzy_knn_k29":0.2209367},"geometry":{"type":"Polygon","coordinates":[[[-70.7314188,-7.7801489],[-70.7233234,-7.7801819],[-70.7233013,-7.7747736],[-70.7313966,-7.7747407],[-70.7314188,-7.7801489]]]}},{"type":"Feature","id":"AC-Y751-X450","properties":{"id":"AC-Y751-X450","grid_x":450,"grid_y":751,"centroid":[-70.7192647,-7.7774941],"aggregation":"none","score_gradboost":0.0765924,"score_random_forest":0.1460577,"score_logistic_regression":0.3634079,"score_fuzzy_knn_k29":0.0709336},"geometry":{"type":"Polygon","coordinates":[[[-70.7233234,-7.7801819],[-70.715228,-7.7802147],[-70.715206,-7.7748064],[-70.7233013,-7.7747736],[-70.7233234,-7.7801819]]]}},{"type":"Feature","id":"AC-Y751-X451","properties":{"id":"AC-Y751-X451","grid_x":451,"grid_y":751,"centroid":[-70.7111694,-7.7775269],"aggregation":"none","score_gradboost":0.057741,"score_random_forest":0.1006842,"score_logistic_regression":0.4408225,"score_fuzzy_knn_k29":0.1904923},"geometry":{"type":"Polygon","coordinates":[[[-70.715228,-7.7802147],[-70.7071326,-7.7802473],[-70.7071107,-7.774839],[-70.715206,-7.7748064],[-70.715228,-7.7802147]]]}},{"type":"Feature","id":"AC-Y751-X452","properties":{"id":"AC-Y751-X452","grid_x":452,"grid_y":751,"centroid":[-70.703074,-7.7775594],"aggregation":"none","score_gradboost":0.035958,"score_random_forest":0.0532424,"score_logistic_regression":0.4492884,"score_fuzzy_knn_k29":0.3130898},"geometry":{"type":"Polygon","coordinates":[[[-70.7071326,-7.7802473],[-70.6990372,-7.7802798],[-70.6990154,-7.7748715],[-70.7071107,-7.774839],[-70.7071326,-7.7802473]]]}},{"type":"Feature","id":"AC-Y752-X437","properties":{"id":"AC-Y752-X437","grid_x":437,"grid_y":752,"centroid":[-70.8244776,-7.7716468],"aggregation":"none","score_gradboost":0.7601678,"score_random_forest":0.9155246,"score_logistic_regression":0.4212378,"score_fuzzy_knn_k29":0.9785032},"geometry":{"type":"Polygon","coordinates":[[[-70.8285367,-7.7743334],[-70.8204419,-7.7743682],[-70.8204186,-7.7689602],[-70.8285133,-7.7689254],[-70.8285367,-7.7743334]]]}},{"type":"Feature","id":"AC-Y752-X444","properties":{"id":"AC-Y752-X444","grid_x":444,"grid_y":752,"centroid":[-70.7678134,-7.7718865],"aggregation":"none","score_gradboost":0.2632642,"score_random_forest":0.3013589,"score_logistic_regression":0.5336557,"score_fuzzy_knn_k29":0.2943479},"geometry":{"type":"Polygon","coordinates":[[[-70.7718723,-7.7745736],[-70.7637772,-7.7746074],[-70.7637546,-7.7691992],[-70.7718496,-7.7691655],[-70.7718723,-7.7745736]]]}},{"type":"Feature","id":"AC-Y752-X445","properties":{"id":"AC-Y752-X445","grid_x":445,"grid_y":752,"centroid":[-70.7597184,-7.7719201],"aggregation":"none","score_gradboost":0.2934263,"score_random_forest":0.2746307,"score_logistic_regression":0.5201327,"score_fuzzy_knn_k29":0.2623238},"geometry":{"type":"Polygon","coordinates":[[[-70.7637772,-7.7746074],[-70.7556821,-7.7746409],[-70.7556596,-7.7692327],[-70.7637546,-7.7691992],[-70.7637772,-7.7746074]]]}},{"type":"Feature","id":"AC-Y752-X446","properties":{"id":"AC-Y752-X446","grid_x":446,"grid_y":752,"centroid":[-70.7516233,-7.7719535],"aggregation":"none","score_gradboost":0.428262,"score_random_forest":0.1516332,"score_logistic_regression":0.4864569,"score_fuzzy_knn_k29":0.2612695},"geometry":{"type":"Polygon","coordinates":[[[-70.7556821,-7.7746409],[-70.747587,-7.7746743],[-70.7475646,-7.7692661],[-70.7556596,-7.7692327],[-70.7556821,-7.7746409]]]}},{"type":"Feature","id":"AC-Y752-X447","properties":{"id":"AC-Y752-X447","grid_x":447,"grid_y":752,"centroid":[-70.7435282,-7.7719869],"aggregation":"none","score_gradboost":0.2003796,"score_random_forest":0.1643489,"score_logistic_regression":0.4750577,"score_fuzzy_knn_k29":0.3349611},"geometry":{"type":"Polygon","coordinates":[[[-70.747587,-7.7746743],[-70.7394918,-7.7747076],[-70.7394695,-7.7692993],[-70.7475646,-7.7692661],[-70.747587,-7.7746743]]]}},{"type":"Feature","id":"AC-Y752-X448","properties":{"id":"AC-Y752-X448","grid_x":448,"grid_y":752,"centroid":[-70.7354331,-7.77202],"aggregation":"none","score_gradboost":0.1840612,"score_random_forest":0.1708778,"score_logistic_regression":0.4061635,"score_fuzzy_knn_k29":0.2227124},"geometry":{"type":"Polygon","coordinates":[[[-70.7394918,-7.7747076],[-70.7313966,-7.7747407],[-70.7313744,-7.7693324],[-70.7394695,-7.7692993],[-70.7394918,-7.7747076]]]}},{"type":"Feature","id":"AC-Y752-X449","properties":{"id":"AC-Y752-X449","grid_x":449,"grid_y":752,"centroid":[-70.7273379,-7.772053],"aggregation":"none","score_gradboost":0.1219563,"score_random_forest":0.1439656,"score_logistic_regression":0.4785719,"score_fuzzy_knn_k29":0.3125338},"geometry":{"type":"Polygon","coordinates":[[[-70.7313966,-7.7747407],[-70.7233013,-7.7747736],[-70.7232793,-7.7693653],[-70.7313744,-7.7693324],[-70.7313966,-7.7747407]]]}},{"type":"Feature","id":"AC-Y752-X450","properties":{"id":"AC-Y752-X450","grid_x":450,"grid_y":752,"centroid":[-70.7192427,-7.7720859],"aggregation":"none","score_gradboost":0.0559698,"score_random_forest":0.1495292,"score_logistic_regression":0.4285847,"score_fuzzy_knn_k29":0.2205754},"geometry":{"type":"Polygon","coordinates":[[[-70.7233013,-7.7747736],[-70.715206,-7.7748064],[-70.7151841,-7.7693981],[-70.7232793,-7.7693653],[-70.7233013,-7.7747736]]]}},{"type":"Feature","id":"AC-Y752-X451","properties":{"id":"AC-Y752-X451","grid_x":451,"grid_y":752,"centroid":[-70.7111474,-7.7721186],"aggregation":"none","score_gradboost":0.0617553,"score_random_forest":0.1120435,"score_logistic_regression":0.3994176,"score_fuzzy_knn_k29":0.0779661},"geometry":{"type":"Polygon","coordinates":[[[-70.715206,-7.7748064],[-70.7071107,-7.774839],[-70.7070889,-7.7694307],[-70.7151841,-7.7693981],[-70.715206,-7.7748064]]]}},{"type":"Feature","id":"AC-Y752-X452","properties":{"id":"AC-Y752-X452","grid_x":452,"grid_y":752,"centroid":[-70.7030522,-7.7721511],"aggregation":"none","score_gradboost":0.033522,"score_random_forest":0.0670789,"score_logistic_regression":0.408125,"score_fuzzy_knn_k29":0.1010044},"geometry":{"type":"Polygon","coordinates":[[[-70.7071107,-7.774839],[-70.6990154,-7.7748715],[-70.6989936,-7.7694631],[-70.7070889,-7.7694307],[-70.7071107,-7.774839]]]}},{"type":"Feature","id":"AC-Y753-X444","properties":{"id":"AC-Y753-X444","grid_x":444,"grid_y":753,"centroid":[-70.7677908,-7.7664783],"aggregation":"none","score_gradboost":0.3197509,"score_random_forest":0.2430208,"score_logistic_regression":0.5338763,"score_fuzzy_knn_k29":0.239127},"geometry":{"type":"Polygon","coordinates":[[[-70.7718496,-7.7691655],[-70.7637546,-7.7691992],[-70.763732,-7.763791],[-70.7718269,-7.7637574],[-70.7718496,-7.7691655]]]}},{"type":"Feature","id":"AC-Y753-X445","properties":{"id":"AC-Y753-X445","grid_x":445,"grid_y":753,"centroid":[-70.7596959,-7.7665119],"aggregation":"none","score_gradboost":0.3088961,"score_random_forest":0.266388,"score_logistic_regression":0.5334825,"score_fuzzy_knn_k29":0.2572375},"geometry":{"type":"Polygon","coordinates":[[[-70.7637546,-7.7691992],[-70.7556596,-7.7692327],[-70.7556372,-7.7638246],[-70.763732,-7.763791],[-70.7637546,-7.7691992]]]}},{"type":"Feature","id":"AC-Y753-X446","properties":{"id":"AC-Y753-X446","grid_x":446,"grid_y":753,"centroid":[-70.7516009,-7.7665453],"aggregation":"none","score_gradboost":0.2812866,"score_random_forest":0.3214852,"score_logistic_regression":0.5253954,"score_fuzzy_knn_k29":0.2968275},"geometry":{"type":"Polygon","coordinates":[[[-70.7556596,-7.7692327],[-70.7475646,-7.7692661],[-70.7475422,-7.7638579],[-70.7556372,-7.7638246],[-70.7556596,-7.7692327]]]}},{"type":"Feature","id":"AC-Y753-X447","properties":{"id":"AC-Y753-X447","grid_x":447,"grid_y":753,"centroid":[-70.7435059,-7.7665786],"aggregation":"none","score_gradboost":0.0643878,"score_random_forest":0.1650769,"score_logistic_regression":0.3914548,"score_fuzzy_knn_k29":0.1113945},"geometry":{"type":"Polygon","coordinates":[[[-70.7475646,-7.7692661],[-70.7394695,-7.7692993],[-70.7394473,-7.7638911],[-70.7475422,-7.7638579],[-70.7475646,-7.7692661]]]}},{"type":"Feature","id":"AC-Y755-X435","properties":{"id":"AC-Y755-X435","grid_x":435,"grid_y":755,"centroid":[-70.8405964,-7.7553532],"aggregation":"none","score_gradboost":0.0253613,"score_random_forest":0.0642532,"score_logistic_regression":0.2727172,"score_fuzzy_knn_k29":0.0},"geometry":{"type":"Polygon","coordinates":[[[-70.8446554,-7.7580396],[-70.836561,-7.7580746],[-70.8365375,-7.7526667],[-70.8446318,-7.7526317],[-70.8446554,-7.7580396]]]}},{"type":"Feature","id":"AC-Y756-X429","properties":{"id":"AC-Y756-X429","grid_x":429,"grid_y":756,"centroid":[-70.8891379,-7.7497325],"aggregation":"none","score_gradboost":0.0595219,"score_random_forest":0.0796349,"score_logistic_regression":0.5056353,"score_fuzzy_knn_k29":0.2680642},"geometry":{"type":"Polygon","coordinates":[[[-70.893197,-7.7524185],[-70.8851029,-7.7524544],[-70.8850788,-7.7470466],[-70.8931728,-7.7470107],[-70.893197,-7.7524185]]]}},{"type":"Feature","id":"AC-Y750-X427","properties":{"id":"AC-Y750-X427","grid_x":427,"grid_y":750,"centroid":[-70.9054721,-7.7821068],"aggregation":"none","score_gradboost":0.0621978,"score_random_forest":0.0301647,"score_logistic_regression":0.2982105,"score_fuzzy_knn_k29":0.0},"geometry":{"type":"Polygon","coordinates":[[[-70.9095316,-7.7847924],[-70.901437,-7.7848288],[-70.9014126,-7.7794211],[-70.9095071,-7.7793847],[-70.9095316,-7.7847924]]]}},{"type":"Feature","id":"AC-Y750-X428","properties":{"id":"AC-Y750-X428","grid_x":428,"grid_y":750,"centroid":[-70.8973775,-7.7821431],"aggregation":"none","score_gradboost":0.038689,"score_random_forest":0.0434672,"score_logistic_regression":0.1821958,"score_fuzzy_knn_k29":0.0},"geometry":{"type":"Polygon","coordinates":[[[-70.901437,-7.7848288],[-70.8933423,-7.784865],[-70.893318,-7.7794573],[-70.9014126,-7.7794211],[-70.901437,-7.7848288]]]}},{"type":"Feature","id":"AC-Y750-X429","properties":{"id":"AC-Y750-X429","grid_x":429,"grid_y":750,"centroid":[-70.8892829,-7.7821792],"aggregation":"none","score_gradboost":0.0269647,"score_random_forest":0.0340404,"score_logistic_regression":0.2320636,"score_fuzzy_knn_k29":0.0517035},"geometry":{"type":"Polygon","coordinates":[[[-70.8933423,-7.784865],[-70.8852476,-7.7849011],[-70.8852234,-7.7794933],[-70.893318,-7.7794573],[-70.8933423,-7.784865]]]}},{"type":"Feature","id":"AC-Y750-X430","properties":{"id":"AC-Y750-X430","grid_x":430,"grid_y":750,"centroid":[-70.8811882,-7.7822152],"aggregation":"none","score_gradboost":0.0763898,"score_random_forest":0.0793665,"score_logistic_regression":0.2348834,"score_fuzzy_knn_k29":0.13915},"geometry":{"type":"Polygon","coordinates":[[[-70.8852476,-7.7849011],[-70.8771529,-7.784937],[-70.8771288,-7.7795292],[-70.8852234,-7.7794933],[-70.8852476,-7.7849011]]]}},{"type":"Feature","id":"AC-Y750-X431","properties":{"id":"AC-Y750-X431","grid_x":431,"grid_y":750,"centroid":[-70.8730935,-7.782251],"aggregation":"none","score_gradboost":0.1309118,"score_random_forest":0.2387193,"score_logistic_regression":0.2523678,"score_fuzzy_knn_k29":0.2713301},"geometry":{"type":"Polygon","coordinates":[[[-70.8771529,-7.784937],[-70.8690581,-7.7849728],[-70.8690341,-7.7795649],[-70.8771288,-7.7795292],[-70.8771529,-7.784937]]]}},{"type":"Feature","id":"AC-Y750-X432","properties":{"id":"AC-Y750-X432","grid_x":432,"grid_y":750,"centroid":[-70.8649987,-7.7822867],"aggregation":"none","score_gradboost":0.12286,"score_random_forest":0.1554604,"score_logistic_regression":0.4634645,"score_fuzzy_knn_k29":0.2651903},"geometry":{"type":"Polygon","coordinates":[[[-70.8690581,-7.7849728],[-70.8609632,-7.7850084],[-70.8609394,-7.7796005],[-70.8690341,-7.7795649],[-70.8690581,-7.7849728]]]}},{"type":"Feature","id":"AC-Y750-X433","properties":{"id":"AC-Y750-X433","grid_x":433,"grid_y":750,"centroid":[-70.8569039,-7.7823222],"aggregation":"none","score_gradboost":0.2429574,"score_random_forest":0.1476101,"score_logistic_regression":0.4876568,"score_fuzzy_knn_k29":0.2644105},"geometry":{"type":"Polygon","coordinates":[[[-70.8609632,-7.7850084],[-70.8528684,-7.7850438],[-70.8528446,-7.779636],[-70.8609394,-7.7796005],[-70.8609632,-7.7850084]]]}},{"type":"Feature","id":"AC-Y750-X434","properties":{"id":"AC-Y750-X434","grid_x":434,"grid_y":750,"centroid":[-70.8488091,-7.7823576],"aggregation":"none","score_gradboost":0.3997427,"score_random_forest":0.1821097,"score_logistic_regression":0.4709668,"score_fuzzy_knn_k29":0.2565006},"geometry":{"type":"Polygon","coordinates":[[[-70.8528684,-7.7850438],[-70.8447735,-7.7850791],[-70.8447498,-7.7796712],[-70.8528446,-7.779636],[-70.8528684,-7.7850438]]]}},{"type":"Feature","id":"AC-Y750-X435","properties":{"id":"AC-Y750-X435","grid_x":435,"grid_y":750,"centroid":[-70.8407142,-7.7823928],"aggregation":"none","score_gradboost":0.3690307,"score_random_forest":0.2197617,"score_logistic_regression":0.3471509,"score_fuzzy_knn_k29":0.2231299},"geometry":{"type":"Polygon","coordinates":[[[-70.8447735,-7.7850791],[-70.8366785,-7.7851143],[-70.836655,-7.7797064],[-70.8447498,-7.7796712],[-70.8447735,-7.7850791]]]}},{"type":"Feature","id":"AC-Y750-X436","properties":{"id":"AC-Y750-X436","grid_x":436,"grid_y":750,"centroid":[-70.8326193,-7.7824278],"aggregation":"none","score_gradboost":0.2104116,"score_random_forest":0.2183228,"score_logistic_regression":0.3690024,"score_fuzzy_knn_k29":0.2666816},"geometry":{"type":"Polygon","coordinates":[[[-70.8366785,-7.7851143],[-70.8285836,-7.7851493],[-70.8285601,-7.7797413],[-70.836655,-7.7797064],[-70.8366785,-7.7851143]]]}},{"type":"Feature","id":"AC-Y751-X427","properties":{"id":"AC-Y751-X427","grid_x":427,"grid_y":751,"centroid":[-70.9054477,-7.776699],"aggregation":"none","score_gradboost":0.058766,"score_random_forest":0.0294529,"score_logistic_regression":0.3040602,"score_fuzzy_knn_k29":0.0},"geometry":{"type":"Polygon","coordinates":[[[-70.9095071,-7.7793847],[-70.9014126,-7.7794211],[-70.9013883,-7.7740133],[-70.9094827,-7.773977],[-70.9095071,-7.7793847]]]}},{"type":"Feature","id":"AC-Y751-X428","properties":{"id":"AC-Y751-X428","grid_x":428,"grid_y":751,"centroid":[-70.8973532,-7.7767353],"aggregation":"none","score_gradboost":0.1014404,"score_random_forest":0.0531858,"score_logistic_regression":0.224482,"score_fuzzy_knn_k29":0.0},"geometry":{"type":"Polygon","coordinates":[[[-70.9014126,-7.7794211],[-70.893318,-7.7794573],[-70.8932938,-7.7740495],[-70.9013883,-7.7740133],[-70.9014126,-7.7794211]]]}},{"type":"Feature","id":"AC-Y751-X429","properties":{"id":"AC-Y751-X429","grid_x":429,"grid_y":751,"centroid":[-70.8892586,-7.7767714],"aggregation":"none","score_gradboost":0.0364996,"score_random_forest":0.033067,"score_logistic_regression":0.2942399,"score_fuzzy_knn_k29":0.0485075},"geometry":{"type":"Polygon","coordinates":[[[-70.893318,-7.7794573],[-70.8852234,-7.7794933],[-70.8851993,-7.7740855],[-70.8932938,-7.7740495],[-70.893318,-7.7794573]]]}},{"type":"Feature","id":"AC-Y751-X430","properties":{"id":"AC-Y751-X430","grid_x":430,"grid_y":751,"centroid":[-70.8811641,-7.7768074],"aggregation":"none","score_gradboost":0.0897331,"score_random_forest":0.1294371,"score_logistic_regression":0.2665688,"score_fuzzy_knn_k29":0.1143674},"geometry":{"type":"Polygon","coordinates":[[[-70.8852234,-7.7794933],[-70.8771288,-7.7795292],[-70.8771047,-7.7741214],[-70.8851993,-7.7740855],[-70.8852234,-7.7794933]]]}},{"type":"Feature","id":"AC-Y751-X431","properties":{"id":"AC-Y751-X431","grid_x":431,"grid_y":751,"centroid":[-70.8730695,-7.7768432],"aggregation":"none","score_gradboost":0.081756,"score_random_forest":0.1240304,"score_logistic_regression":0.4383827,"score_fuzzy_knn_k29":0.2448448},"geometry":{"type":"Polygon","coordinates":[[[-70.8771288,-7.7795292],[-70.8690341,-7.7795649],[-70.8690102,-7.7741571],[-70.8771047,-7.7741214],[-70.8771288,-7.7795292]]]}},{"type":"Feature","id":"AC-Y751-X432","properties":{"id":"AC-Y751-X432","grid_x":432,"grid_y":751,"centroid":[-70.8649748,-7.7768788],"aggregation":"none","score_gradboost":0.4219176,"score_random_forest":0.6879876,"score_logistic_regression":0.6118496,"score_fuzzy_knn_k29":0.8380304},"geometry":{"type":"Polygon","coordinates":[[[-70.8690341,-7.7795649],[-70.8609394,-7.7796005],[-70.8609155,-7.7741927],[-70.8690102,-7.7741571],[-70.8690341,-7.7795649]]]}},{"type":"Feature","id":"AC-Y751-X433","properties":{"id":"AC-Y751-X433","grid_x":433,"grid_y":751,"centroid":[-70.8568801,-7.7769143],"aggregation":"none","score_gradboost":0.1255867,"score_random_forest":0.1813622,"score_logistic_regression":0.4250537,"score_fuzzy_knn_k29":0.2240324},"geometry":{"type":"Polygon","coordinates":[[[-70.8609394,-7.7796005],[-70.8528446,-7.779636],[-70.8528209,-7.7742281],[-70.8609155,-7.7741927],[-70.8609394,-7.7796005]]]}},{"type":"Feature","id":"AC-Y751-X434","properties":{"id":"AC-Y751-X434","grid_x":434,"grid_y":751,"centroid":[-70.8487854,-7.7769497],"aggregation":"none","score_gradboost":0.1323589,"score_random_forest":0.2088631,"score_logistic_regression":0.3651969,"score_fuzzy_knn_k29":0.2150045},"geometry":{"type":"Polygon","coordinates":[[[-70.8528446,-7.779636],[-70.8447498,-7.7796712],[-70.8447262,-7.7742633],[-70.8528209,-7.7742281],[-70.8528446,-7.779636]]]}},{"type":"Feature","id":"AC-Y751-X435","properties":{"id":"AC-Y751-X435","grid_x":435,"grid_y":751,"centroid":[-70.8406906,-7.7769849],"aggregation":"none","score_gradboost":0.1416612,"score_random_forest":0.2002181,"score_logistic_regression":0.3645019,"score_fuzzy_knn_k29":0.2390184},"geometry":{"type":"Polygon","coordinates":[[[-70.8447498,-7.7796712],[-70.836655,-7.7797064],[-70.8366315,-7.7742984],[-70.8447262,-7.7742633],[-70.8447498,-7.7796712]]]}},{"type":"Feature","id":"AC-Y751-X436","properties":{"id":"AC-Y751-X436","grid_x":436,"grid_y":751,"centroid":[-70.8325958,-7.7770199],"aggregation":"none","score_gradboost":0.1615058,"score_random_forest":0.1145629,"score_logistic_regression":0.2942417,"score_fuzzy_knn_k29":0.078267},"geometry":{"type":"Polygon","coordinates":[[[-70.836655,-7.7797064],[-70.8285601,-7.7797413],[-70.8285367,-7.7743334],[-70.8366315,-7.7742984],[-70.836655,-7.7797064]]]}},{"type":"Feature","id":"AC-Y751-X437","properties":{"id":"AC-Y751-X437","grid_x":437,"grid_y":751,"centroid":[-70.824501,-7.7770548],"aggregation":"none","score_gradboost":0.1517721,"score_random_forest":0.1681584,"score_logistic_regression":0.3853491,"score_fuzzy_knn_k29":0.2929557},"geometry":{"type":"Polygon","coordinates":[[[-70.8285601,-7.7797413],[-70.8204652,-7.7797761],[-70.8204419,-7.7743682],[-70.8285367,-7.7743334],[-70.8285601,-7.7797413]]]}},{"type":"Feature","id":"AC-Y752-X427","properties":{"id":"AC-Y752-X427","grid_x":427,"grid_y":752,"centroid":[-70.9054233,-7.7712913],"aggregation":"none","score_gradboost":0.0409914,"score_random_forest":0.0329462,"score_logistic_regression":0.282061,"score_fuzzy_knn_k29":0.0},"geometry":{"type":"Polygon","coordinates":[[[-70.9094827,-7.773977],[-70.9013883,-7.7740133],[-70.9013639,-7.7686056],[-70.9094582,-7.7685693],[-70.9094827,-7.773977]]]}},{"type":"Feature","id":"AC-Y752-X428","properties":{"id":"AC-Y752-X428","grid_x":428,"grid_y":752,"centroid":[-70.8973289,-7.7713276],"aggregation":"none","score_gradboost":0.1021547,"score_random_forest":0.0657029,"score_logistic_regression":0.2197768,"score_fuzzy_knn_k29":0.0},"geometry":{"type":"Polygon","coordinates":[[[-70.9013883,-7.7740133],[-70.8932938,-7.7740495],[-70.8932696,-7.7686417],[-70.9013639,-7.7686056],[-70.9013883,-7.7740133]]]}},{"type":"Feature","id":"AC-Y752-X429","properties":{"id":"AC-Y752-X429","grid_x":429,"grid_y":752,"centroid":[-70.8892345,-7.7713637],"aggregation":"none","score_gradboost":0.0448316,"score_random_forest":0.0329568,"score_logistic_regression":0.2581965,"score_fuzzy_knn_k29":0.0234538},"geometry":{"type":"Polygon","coordinates":[[[-70.8932938,-7.7740495],[-70.8851993,-7.7740855],[-70.8851752,-7.7686777],[-70.8932696,-7.7686417],[-70.8932938,-7.7740495]]]}},{"type":"Feature","id":"AC-Y752-X430","properties":{"id":"AC-Y752-X430","grid_x":430,"grid_y":752,"centroid":[-70.88114,-7.7713996],"aggregation":"none","score_gradboost":0.0370725,"score_random_forest":0.0503327,"score_logistic_regression":0.2928236,"score_fuzzy_knn_k29":0.0860589},"geometry":{"type":"Polygon","coordinates":[[[-70.8851993,-7.7740855],[-70.8771047,-7.7741214],[-70.8770807,-7.7687136],[-70.8851752,-7.7686777],[-70.8851993,-7.7740855]]]}},{"type":"Feature","id":"AC-Y752-X431","properties":{"id":"AC-Y752-X431","grid_x":431,"grid_y":752,"centroid":[-70.8730455,-7.7714354],"aggregation":"none","score_gradboost":0.081994,"score_random_forest":0.1245937,"score_logistic_regression":0.5099068,"score_fuzzy_knn_k29":0.4861659},"geometry":{"type":"Polygon","coordinates":[[[-70.8771047,-7.7741214],[-70.8690102,-7.7741571],[-70.8689862,-7.7687493],[-70.8770807,-7.7687136],[-70.8771047,-7.7741214]]]}},{"type":"Feature","id":"AC-Y752-X432","properties":{"id":"AC-Y752-X432","grid_x":432,"grid_y":752,"centroid":[-70.8649509,-7.771471],"aggregation":"none","score_gradboost":0.1115697,"score_random_forest":0.1526703,"score_logistic_regression":0.4000501,"score_fuzzy_knn_k29":0.1932929},"geometry":{"type":"Polygon","coordinates":[[[-70.8690102,-7.7741571],[-70.8609155,-7.7741927],[-70.8608917,-7.7687848],[-70.8689862,-7.7687493],[-70.8690102,-7.7741571]]]}},{"type":"Feature","id":"AC-Y752-X433","properties":{"id":"AC-Y752-X433","grid_x":433,"grid_y":752,"centroid":[-70.8568563,-7.7715065],"aggregation":"none","score_gradboost":0.0656099,"score_random_forest":0.1766169,"score_logistic_regression":0.3622187,"score_fuzzy_knn_k29":0.1299194},"geometry":{"type":"Polygon","coordinates":[[[-70.8609155,-7.7741927],[-70.8528209,-7.7742281],[-70.8527972,-7.7688202],[-70.8608917,-7.7687848],[-70.8609155,-7.7741927]]]}},{"type":"Feature","id":"AC-Y752-X434","properties":{"id":"AC-Y752-X434","grid_x":434,"grid_y":752,"centroid":[-70.8487617,-7.7715418],"aggregation":"none","score_gradboost":0.0858113,"score_random_forest":0.172549,"score_logistic_regression":0.3746949,"score_fuzzy_knn_k29":0.2084646},"geometry":{"type":"Polygon","coordinates":[[[-70.8528209,-7.7742281],[-70.8447262,-7.7742633],[-70.8447026,-7.7688554],[-70.8527972,-7.7688202],[-70.8528209,-7.7742281]]]}},{"type":"Feature","id":"AC-Y752-X435","properties":{"id":"AC-Y752-X435","grid_x":435,"grid_y":752,"centroid":[-70.840667,-7.7715769],"aggregation":"none","score_gradboost":0.079542,"score_random_forest":0.1540327,"score_logistic_regression":0.3274946,"score_fuzzy_knn_k29":0.1004454},"geometry":{"type":"Polygon","coordinates":[[[-70.8447262,-7.7742633],[-70.8366315,-7.7742984],[-70.8366079,-7.7688905],[-70.8447026,-7.7688554],[-70.8447262,-7.7742633]]]}},{"type":"Feature","id":"AC-Y752-X436","properties":{"id":"AC-Y752-X436","grid_x":436,"grid_y":752,"centroid":[-70.8325723,-7.7716119],"aggregation":"none","score_gradboost":0.1658983,"score_random_forest":0.167939,"score_logistic_regression":0.3982952,"score_fuzzy_knn_k29":0.2613392},"geometry":{"type":"Polygon","coordinates":[[[-70.8366315,-7.7742984],[-70.8285367,-7.7743334],[-70.8285133,-7.7689254],[-70.8366079,-7.7688905],[-70.8366315,-7.7742984]]]}},{"type":"Feature","id":"AC-Y752-X438","properties":{"id":"AC-Y752-X438","grid_x":438,"grid_y":752,"centroid":[-70.8163828,-7.7716815],"aggregation":"none","score_gradboost":0.1678185,"score_random_forest":0.1549085,"score_logistic_regression":0.4050924,"score_fuzzy_knn_k29":0.316002},"geometry":{"type":"Polygon","coordinates":[[[-70.8204419,-7.7743682],[-70.812347,-7.7744028],[-70.8123238,-7.7689948],[-70.8204186,-7.7689602],[-70.8204419,-7.7743682]]]}},{"type":"Feature","id":"AC-Y752-X439","properties":{"id":"AC-Y752-X439","grid_x":439,"grid_y":752,"centroid":[-70.808288,-7.771716],"aggregation":"none","score_gradboost":0.7188548,"score_random_forest":0.888045,"score_logistic_regression":0.5086564,"score_fuzzy_knn_k29":0.9007181},"geometry":{"type":"Polygon","coordinates":[[[-70.812347,-7.7744028],[-70.8042522,-7.7744373],[-70.8042291,-7.7690292],[-70.8123238,-7.7689948],[-70.812347,-7.7744028]]]}},{"type":"Feature","id":"AC-Y753-X427","properties":{"id":"AC-Y753-X427","grid_x":427,"grid_y":753,"centroid":[-70.9053989,-7.7658836],"aggregation":"none","score_gradboost":0.0340966,"score_random_forest":0.0345784,"score_logistic_regression":0.2395186,"score_fuzzy_knn_k29":0.0},"geometry":{"type":"Polygon","coordinates":[[[-70.9094582,-7.7685693],[-70.9013639,-7.7686056],[-70.9013396,-7.7631979],[-70.9094338,-7.7631616],[-70.9094582,-7.7685693]]]}},{"type":"Feature","id":"AC-Y753-X428","properties":{"id":"AC-Y753-X428","grid_x":428,"grid_y":753,"centroid":[-70.8973046,-7.7659198],"aggregation":"none","score_gradboost":0.0423586,"score_random_forest":0.0258291,"score_logistic_regression":0.3251105,"score_fuzzy_knn_k29":0.0},"geometry":{"type":"Polygon","coordinates":[[[-70.9013639,-7.7686056],[-70.8932696,-7.7686417],[-70.8932453,-7.763234],[-70.9013396,-7.7631979],[-70.9013639,-7.7686056]]]}},{"type":"Feature","id":"AC-Y753-X429","properties":{"id":"AC-Y753-X429","grid_x":429,"grid_y":753,"centroid":[-70.8892103,-7.7659559],"aggregation":"none","score_gradboost":0.1365559,"score_random_forest":0.0852146,"score_logistic_regression":0.4031467,"score_fuzzy_knn_k29":0.0217876},"geometry":{"type":"Polygon","coordinates":[[[-70.8932696,-7.7686417],[-70.8851752,-7.7686777],[-70.885151,-7.76327],[-70.8932453,-7.763234],[-70.8932696,-7.7686417]]]}},{"type":"Feature","id":"AC-Y753-X430","properties":{"id":"AC-Y753-X430","grid_x":430,"grid_y":753,"centroid":[-70.8811159,-7.7659918],"aggregation":"none","score_gradboost":0.0545382,"score_random_forest":0.0861031,"score_logistic_regression":0.5135698,"score_fuzzy_knn_k29":0.5140726},"geometry":{"type":"Polygon","coordinates":[[[-70.8851752,-7.7686777],[-70.8770807,-7.7687136],[-70.8770567,-7.7633058],[-70.885151,-7.76327],[-70.8851752,-7.7686777]]]}},{"type":"Feature","id":"AC-Y753-X431","properties":{"id":"AC-Y753-X431","grid_x":431,"grid_y":753,"centroid":[-70.8730215,-7.7660275],"aggregation":"none","score_gradboost":0.0602028,"score_random_forest":0.1634739,"score_logistic_regression":0.5283256,"score_fuzzy_knn_k29":0.5601823},"geometry":{"type":"Polygon","coordinates":[[[-70.8770807,-7.7687136],[-70.8689862,-7.7687493],[-70.8689623,-7.7633414],[-70.8770567,-7.7633058],[-70.8770807,-7.7687136]]]}},{"type":"Feature","id":"AC-Y753-X432","properties":{"id":"AC-Y753-X432","grid_x":432,"grid_y":753,"centroid":[-70.8649271,-7.7660631],"aggregation":"none","score_gradboost":0.0387119,"score_random_forest":0.103017,"score_logistic_regression":0.4015103,"score_fuzzy_knn_k29":0.0712856},"geometry":{"type":"Polygon","coordinates":[[[-70.8689862,-7.7687493],[-70.8608917,-7.7687848],[-70.8608679,-7.7633769],[-70.8689623,-7.7633414],[-70.8689862,-7.7687493]]]}},{"type":"Feature","id":"AC-Y753-X433","properties":{"id":"AC-Y753-X433","grid_x":433,"grid_y":753,"centroid":[-70.8568326,-7.7660986],"aggregation":"none","score_gradboost":0.057057,"score_random_forest":0.1257461,"score_logistic_regression":0.3447091,"score_fuzzy_knn_k29":0.063171},"geometry":{"type":"Polygon","coordinates":[[[-70.8608917,-7.7687848],[-70.8527972,-7.7688202],[-70.8527735,-7.7634123],[-70.8608679,-7.7633769],[-70.8608917,-7.7687848]]]}},{"type":"Feature","id":"AC-Y753-X434","properties":{"id":"AC-Y753-X434","grid_x":434,"grid_y":753,"centroid":[-70.8487381,-7.7661339],"aggregation":"none","score_gradboost":0.0430844,"score_random_forest":0.0550612,"score_logistic_regression":0.3015836,"score_fuzzy_knn_k29":0.0455763},"geometry":{"type":"Polygon","coordinates":[[[-70.8527972,-7.7688202],[-70.8447026,-7.7688554],[-70.844679,-7.7634475],[-70.8527735,-7.7634123],[-70.8527972,-7.7688202]]]}},{"type":"Feature","id":"AC-Y753-X435","properties":{"id":"AC-Y753-X435","grid_x":435,"grid_y":753,"centroid":[-70.8406435,-7.766169],"aggregation":"none","score_gradboost":0.0429559,"score_random_forest":0.0769346,"score_logistic_regression":0.2972965,"score_fuzzy_knn_k29":0.0490577},"geometry":{"type":"Polygon","coordinates":[[[-70.8447026,-7.7688554],[-70.8366079,-7.7688905],[-70.8365845,-7.7634825],[-70.844679,-7.7634475],[-70.8447026,-7.7688554]]]}},{"type":"Feature","id":"AC-Y753-X436","properties":{"id":"AC-Y753-X436","grid_x":436,"grid_y":753,"centroid":[-70.8325489,-7.766204],"aggregation":"none","score_gradboost":0.1174397,"score_random_forest":0.1861377,"score_logistic_regression":0.3438826,"score_fuzzy_knn_k29":0.1768017},"geometry":{"type":"Polygon","coordinates":[[[-70.8366079,-7.7688905],[-70.8285133,-7.7689254],[-70.8284899,-7.7635174],[-70.8365845,-7.7634825],[-70.8366079,-7.7688905]]]}},{"type":"Feature","id":"AC-Y753-X437","properties":{"id":"AC-Y753-X437","grid_x":437,"grid_y":753,"centroid":[-70.8244543,-7.7662388],"aggregation":"none","score_gradboost":0.1906557,"score_random_forest":0.1942081,"score_logistic_regression":0.3709045,"score_fuzzy_knn_k29":0.2157121},"geometry":{"type":"Polygon","coordinates":[[[-70.8285133,-7.7689254],[-70.8204186,-7.7689602],[-70.8203953,-7.7635522],[-70.8284899,-7.7635174],[-70.8285133,-7.7689254]]]}},{"type":"Feature","id":"AC-Y753-X438","properties":{"id":"AC-Y753-X438","grid_x":438,"grid_y":753,"centroid":[-70.8163596,-7.7662735],"aggregation":"none","score_gradboost":0.2468037,"score_random_forest":0.21444,"score_logistic_regression":0.3728984,"score_fuzzy_knn_k29":0.2200138},"geometry":{"type":"Polygon","coordinates":[[[-70.8204186,-7.7689602],[-70.8123238,-7.7689948],[-70.8123007,-7.7635868],[-70.8203953,-7.7635522],[-70.8204186,-7.7689602]]]}},{"type":"Feature","id":"AC-Y753-X439","properties":{"id":"AC-Y753-X439","grid_x":439,"grid_y":753,"centroid":[-70.8082649,-7.766308],"aggregation":"none","score_gradboost":0.3139381,"score_random_forest":0.2006317,"score_logistic_regression":0.3236792,"score_fuzzy_knn_k29":0.182146},"geometry":{"type":"Polygon","coordinates":[[[-70.8123238,-7.7689948],[-70.8042291,-7.7690292],[-70.804206,-7.7636212],[-70.8123007,-7.7635868],[-70.8123238,-7.7689948]]]}},{"type":"Feature","id":"AC-Y754-X427","properties":{"id":"AC-Y754-X427","grid_x":427,"grid_y":754,"centroid":[-70.9053745,-7.7604759],"aggregation":"none","score_gradboost":0.0507953,"score_random_forest":0.0661748,"score_logistic_regression":0.4591499,"score_fuzzy_knn_k29":0.2261548},"geometry":{"type":"Polygon","coordinates":[[[-70.9094338,-7.7631616],[-70.9013396,-7.7631979],[-70.9013153,-7.7577901],[-70.9094094,-7.7577539],[-70.9094338,-7.7631616]]]}},{"type":"Feature","id":"AC-Y754-X428","properties":{"id":"AC-Y754-X428","grid_x":428,"grid_y":754,"centroid":[-70.8972803,-7.7605121],"aggregation":"none","score_gradboost":0.0570952,"score_random_forest":0.0779981,"score_logistic_regression":0.4350356,"score_fuzzy_knn_k29":0.1597742},"geometry":{"type":"Polygon","coordinates":[[[-70.9013396,-7.7631979],[-70.8932453,-7.763234],[-70.8932211,-7.7578262],[-70.9013153,-7.7577901],[-70.9013396,-7.7631979]]]}},{"type":"Feature","id":"AC-Y754-X429","properties":{"id":"AC-Y754-X429","grid_x":429,"grid_y":754,"centroid":[-70.8891861,-7.7605481],"aggregation":"none","score_gradboost":0.1113694,"score_random_forest":0.0693414,"score_logistic_regression":0.4638682,"score_fuzzy_knn_k29":0.2393266},"geometry":{"type":"Polygon","coordinates":[[[-70.8932453,-7.763234],[-70.885151,-7.76327],[-70.8851269,-7.7578622],[-70.8932211,-7.7578262],[-70.8932453,-7.763234]]]}},{"type":"Feature","id":"AC-Y754-X430","properties":{"id":"AC-Y754-X430","grid_x":430,"grid_y":754,"centroid":[-70.8810919,-7.760584],"aggregation":"none","score_gradboost":0.103461,"score_random_forest":0.1440319,"score_logistic_regression":0.5512563,"score_fuzzy_knn_k29":0.5659422},"geometry":{"type":"Polygon","coordinates":[[[-70.885151,-7.76327],[-70.8770567,-7.7633058],[-70.8770327,-7.757898],[-70.8851269,-7.7578622],[-70.885151,-7.76327]]]}},{"type":"Feature","id":"AC-Y754-X431","properties":{"id":"AC-Y754-X431","grid_x":431,"grid_y":754,"centroid":[-70.8729975,-7.7606197],"aggregation":"none","score_gradboost":0.0323398,"score_random_forest":0.0444665,"score_logistic_regression":0.3413465,"score_fuzzy_knn_k29":0.009359},"geometry":{"type":"Polygon","coordinates":[[[-70.8770567,-7.7633058],[-70.8689623,-7.7633414],[-70.8689384,-7.7579336],[-70.8770327,-7.757898],[-70.8770567,-7.7633058]]]}},{"type":"Feature","id":"AC-Y754-X432","properties":{"id":"AC-Y754-X432","grid_x":432,"grid_y":754,"centroid":[-70.8649032,-7.7606553],"aggregation":"none","score_gradboost":0.0337818,"score_random_forest":0.0544672,"score_logistic_regression":0.3253603,"score_fuzzy_knn_k29":0.015611},"geometry":{"type":"Polygon","coordinates":[[[-70.8689623,-7.7633414],[-70.8608679,-7.7633769],[-70.8608441,-7.7579691],[-70.8689384,-7.7579336],[-70.8689623,-7.7633414]]]}},{"type":"Feature","id":"AC-Y754-X433","properties":{"id":"AC-Y754-X433","grid_x":433,"grid_y":754,"centroid":[-70.8568088,-7.7606907],"aggregation":"none","score_gradboost":0.0434221,"score_random_forest":0.0799504,"score_logistic_regression":0.3234251,"score_fuzzy_knn_k29":0.0222227},"geometry":{"type":"Polygon","coordinates":[[[-70.8608679,-7.7633769],[-70.8527735,-7.7634123],[-70.8527498,-7.7580044],[-70.8608441,-7.7579691],[-70.8608679,-7.7633769]]]}},{"type":"Feature","id":"AC-Y754-X434","properties":{"id":"AC-Y754-X434","grid_x":434,"grid_y":754,"centroid":[-70.8487144,-7.760726],"aggregation":"none","score_gradboost":0.0387119,"score_random_forest":0.104083,"score_logistic_regression":0.3929604,"score_fuzzy_knn_k29":0.0941519},"geometry":{"type":"Polygon","coordinates":[[[-70.8527735,-7.7634123],[-70.844679,-7.7634475],[-70.8446554,-7.7580396],[-70.8527498,-7.7580044],[-70.8527735,-7.7634123]]]}},{"type":"Feature","id":"AC-Y754-X435","properties":{"id":"AC-Y754-X435","grid_x":435,"grid_y":754,"centroid":[-70.84062,-7.7607611],"aggregation":"none","score_gradboost":0.0402115,"score_random_forest":0.0751935,"score_logistic_regression":0.2768834,"score_fuzzy_knn_k29":0.0375858},"geometry":{"type":"Polygon","coordinates":[[[-70.844679,-7.7634475],[-70.8365845,-7.7634825],[-70.836561,-7.7580746],[-70.8446554,-7.7580396],[-70.844679,-7.7634475]]]}},{"type":"Feature","id":"AC-Y754-X436","properties":{"id":"AC-Y754-X436","grid_x":436,"grid_y":754,"centroid":[-70.8325255,-7.760796],"aggregation":"none","score_gradboost":0.0317452,"score_random_forest":0.0746688,"score_logistic_regression":0.2507988,"score_fuzzy_knn_k29":0.0174532},"geometry":{"type":"Polygon","coordinates":[[[-70.8365845,-7.7634825],[-70.8284899,-7.7635174],[-70.8284665,-7.7581095],[-70.836561,-7.7580746],[-70.8365845,-7.7634825]]]}},{"type":"Feature","id":"AC-Y754-X437","properties":{"id":"AC-Y754-X437","grid_x":437,"grid_y":754,"centroid":[-70.8244309,-7.7608308],"aggregation":"none","score_gradboost":0.0343724,"score_random_forest":0.0716809,"score_logistic_regression":0.2480106,"score_fuzzy_knn_k29":0.0123715},"geometry":{"type":"Polygon","coordinates":[[[-70.8284899,-7.7635174],[-70.8203953,-7.7635522],[-70.820372,-7.7581442],[-70.8284665,-7.7581095],[-70.8284899,-7.7635174]]]}},{"type":"Feature","id":"AC-Y754-X438","properties":{"id":"AC-Y754-X438","grid_x":438,"grid_y":754,"centroid":[-70.8163364,-7.7608655],"aggregation":"none","score_gradboost":0.1003161,"score_random_forest":0.1720921,"score_logistic_regression":0.3247635,"score_fuzzy_knn_k29":0.1467244},"geometry":{"type":"Polygon","coordinates":[[[-70.8203953,-7.7635522],[-70.8123007,-7.7635868],[-70.8122775,-7.7581788],[-70.820372,-7.7581442],[-70.8203953,-7.7635522]]]}},{"type":"Feature","id":"AC-Y754-X439","properties":{"id":"AC-Y754-X439","grid_x":439,"grid_y":754,"centroid":[-70.8082418,-7.7609],"aggregation":"none","score_gradboost":0.063176,"score_random_forest":0.0962321,"score_logistic_regression":0.2830877,"score_fuzzy_knn_k29":0.0543563},"geometry":{"type":"Polygon","coordinates":[[[-70.8123007,-7.7635868],[-70.804206,-7.7636212],[-70.8041829,-7.7582132],[-70.8122775,-7.7581788],[-70.8123007,-7.7635868]]]}},{"type":"Feature","id":"AC-Y755-X427","properties":{"id":"AC-Y755-X427","grid_x":427,"grid_y":755,"centroid":[-70.9053502,-7.7550681],"aggregation":"none","score_gradboost":0.0506993,"score_random_forest":0.0649114,"score_logistic_regression":0.4626175,"score_fuzzy_knn_k29":0.2858502},"geometry":{"type":"Polygon","coordinates":[[[-70.9094094,-7.7577539],[-70.9013153,-7.7577901],[-70.901291,-7.7523824],[-70.909385,-7.7523462],[-70.9094094,-7.7577539]]]}},{"type":"Feature","id":"AC-Y755-X428","properties":{"id":"AC-Y755-X428","grid_x":428,"grid_y":755,"centroid":[-70.8972561,-7.7551043],"aggregation":"none","score_gradboost":0.0597601,"score_random_forest":0.0786449,"score_logistic_regression":0.5158192,"score_fuzzy_knn_k29":0.302904},"geometry":{"type":"Polygon","coordinates":[[[-70.9013153,-7.7577901],[-70.8932211,-7.7578262],[-70.893197,-7.7524185],[-70.901291,-7.7523824],[-70.9013153,-7.7577901]]]}},{"type":"Feature","id":"AC-Y755-X429","properties":{"id":"AC-Y755-X429","grid_x":429,"grid_y":755,"centroid":[-70.889162,-7.7551403],"aggregation":"none","score_gradboost":0.0763825,"score_random_forest":0.1286183,"score_logistic_regression":0.5307669,"score_fuzzy_knn_k29":0.4056649},"geometry":{"type":"Polygon","coordinates":[[[-70.8932211,-7.7578262],[-70.8851269,-7.7578622],[-70.8851029,-7.7524544],[-70.893197,-7.7524185],[-70.8932211,-7.7578262]]]}},{"type":"Feature","id":"AC-Y755-X430","properties":{"id":"AC-Y755-X430","grid_x":430,"grid_y":755,"centroid":[-70.8810678,-7.7551762],"aggregation":"none","score_gradboost":0.0831452,"score_random_forest":0.1302941,"score_logistic_regression":0.5931283,"score_fuzzy_knn_k29":0.6507081},"geometry":{"type":"Polygon","coordinates":[[[-70.8851269,-7.7578622],[-70.8770327,-7.757898],[-70.8770087,-7.7524901],[-70.8851029,-7.7524544],[-70.8851269,-7.7578622]]]}},{"type":"Feature","id":"AC-Y755-X431","properties":{"id":"AC-Y755-X431","grid_x":431,"grid_y":755,"centroid":[-70.8729736,-7.7552119],"aggregation":"none","score_gradboost":0.1015716,"score_random_forest":0.0391945,"score_logistic_regression":0.3766498,"score_fuzzy_knn_k29":0.018493},"geometry":{"type":"Polygon","coordinates":[[[-70.8770327,-7.757898],[-70.8689384,-7.7579336],[-70.8689146,-7.7525258],[-70.8770087,-7.7524901],[-70.8770327,-7.757898]]]}},{"type":"Feature","id":"AC-Y755-X432","properties":{"id":"AC-Y755-X432","grid_x":432,"grid_y":755,"centroid":[-70.8648794,-7.7552474],"aggregation":"none","score_gradboost":0.0410043,"score_random_forest":0.0519174,"score_logistic_regression":0.2688254,"score_fuzzy_knn_k29":0.0},"geometry":{"type":"Polygon","coordinates":[[[-70.8689384,-7.7579336],[-70.8608441,-7.7579691],[-70.8608204,-7.7525612],[-70.8689146,-7.7525258],[-70.8689384,-7.7579336]]]}},{"type":"Feature","id":"AC-Y755-X433","properties":{"id":"AC-Y755-X433","grid_x":433,"grid_y":755,"centroid":[-70.8567851,-7.7552828],"aggregation":"none","score_gradboost":0.0327664,"score_random_forest":0.040319,"score_logistic_regression":0.3280022,"score_fuzzy_knn_k29":0.0102696},"geometry":{"type":"Polygon","coordinates":[[[-70.8608441,-7.7579691],[-70.8527498,-7.7580044],[-70.8527261,-7.7525965],[-70.8608204,-7.7525612],[-70.8608441,-7.7579691]]]}},{"type":"Feature","id":"AC-Y755-X434","properties":{"id":"AC-Y755-X434","grid_x":434,"grid_y":755,"centroid":[-70.8486908,-7.7553181],"aggregation":"none","score_gradboost":0.0274481,"score_random_forest":0.0621092,"score_logistic_regression":0.2802895,"score_fuzzy_knn_k29":0.0},"geometry":{"type":"Polygon","coordinates":[[[-70.8527498,-7.7580044],[-70.8446554,-7.7580396],[-70.8446318,-7.7526317],[-70.8527261,-7.7525965],[-70.8527498,-7.7580044]]]}},{"type":"Feature","id":"AC-Y756-X427","properties":{"id":"AC-Y756-X427","grid_x":427,"grid_y":756,"centroid":[-70.9053259,-7.7496604],"aggregation":"none","score_gradboost":0.0686921,"score_random_forest":0.1517695,"score_logistic_regression":0.5816744,"score_fuzzy_knn_k29":0.5980802},"geometry":{"type":"Polygon","coordinates":[[[-70.909385,-7.7523462],[-70.901291,-7.7523824],[-70.9012667,-7.7469746],[-70.9093606,-7.7469384],[-70.909385,-7.7523462]]]}},{"type":"Feature","id":"AC-Y756-X428","properties":{"id":"AC-Y756-X428","grid_x":428,"grid_y":756,"centroid":[-70.8972319,-7.7496966],"aggregation":"none","score_gradboost":0.0515752,"score_random_forest":0.1408727,"score_logistic_regression":0.5724768,"score_fuzzy_knn_k29":0.5337921},"geometry":{"type":"Polygon","coordinates":[[[-70.901291,-7.7523824],[-70.893197,-7.7524185],[-70.8931728,-7.7470107],[-70.9012667,-7.7469746],[-70.901291,-7.7523824]]]}},{"type":"Feature","id":"AC-Y750-X441","properties":{"id":"AC-Y750-X441","grid_x":441,"grid_y":750,"centroid":[-70.7921442,-7.7826008],"aggregation":"none","score_gradboost":0.6805734,"score_random_forest":0.82754,"score_logistic_regression":0.6030271,"score_fuzzy_knn_k29":0.7981477},"geometry":{"type":"Polygon","coordinates":[[[-70.7962033,-7.7852877],[-70.7881081,-7.7853219],[-70.7880852,-7.7799138],[-70.7961802,-7.7798797],[-70.7962033,-7.7852877]]]}},{"type":"Feature","id":"AC-Y750-X442","properties":{"id":"AC-Y750-X442","grid_x":442,"grid_y":750,"centroid":[-70.7840491,-7.7826349],"aggregation":"none","score_gradboost":0.3531274,"score_random_forest":0.2693822,"score_logistic_regression":0.5093111,"score_fuzzy_knn_k29":0.25759},"geometry":{"type":"Polygon","coordinates":[[[-70.7881081,-7.7853219],[-70.7800129,-7.785356],[-70.7799901,-7.7799479],[-70.7880852,-7.7799138],[-70.7881081,-7.7853219]]]}},{"type":"Feature","id":"AC-Y750-X443","properties":{"id":"AC-Y750-X443","grid_x":443,"grid_y":750,"centroid":[-70.7759539,-7.7826689],"aggregation":"none","score_gradboost":0.3515988,"score_random_forest":0.1416783,"score_logistic_regression":0.4926526,"score_fuzzy_knn_k29":0.2550558},"geometry":{"type":"Polygon","coordinates":[[[-70.7800129,-7.785356],[-70.7719177,-7.7853899],[-70.771895,-7.7799818],[-70.7799901,-7.7799479],[-70.7800129,-7.785356]]]}},{"type":"Feature","id":"AC-Y750-X444","properties":{"id":"AC-Y750-X444","grid_x":444,"grid_y":750,"centroid":[-70.7678587,-7.7827027],"aggregation":"none","score_gradboost":0.3123756,"score_random_forest":0.2136645,"score_logistic_regression":0.3804512,"score_fuzzy_knn_k29":0.2561031},"geometry":{"type":"Polygon","coordinates":[[[-70.7719177,-7.7853899],[-70.7638224,-7.7854237],[-70.7637998,-7.7800155],[-70.771895,-7.7799818],[-70.7719177,-7.7853899]]]}},{"type":"Feature","id":"AC-Y751-X440","properties":{"id":"AC-Y751-X440","grid_x":440,"grid_y":751,"centroid":[-70.8002162,-7.7771585],"aggregation":"none","score_gradboost":0.5579393,"score_random_forest":0.6507614,"score_logistic_regression":0.6651279,"score_fuzzy_knn_k29":0.6516951},"geometry":{"type":"Polygon","coordinates":[[[-70.8042753,-7.7798453],[-70.7961802,-7.7798797],[-70.7961572,-7.7744716],[-70.8042522,-7.7744373],[-70.8042753,-7.7798453]]]}},{"type":"Feature","id":"AC-Y751-X441","properties":{"id":"AC-Y751-X441","grid_x":441,"grid_y":751,"centroid":[-70.7921212,-7.7771927],"aggregation":"none","score_gradboost":0.5349181,"score_random_forest":0.6587507,"score_logistic_regression":0.6492632,"score_fuzzy_knn_k29":0.8202447},"geometry":{"type":"Polygon","coordinates":[[[-70.7961802,-7.7798797],[-70.7880852,-7.7799138],[-70.7880623,-7.7745058],[-70.7961572,-7.7744716],[-70.7961802,-7.7798797]]]}},{"type":"Feature","id":"AC-Y751-X442","properties":{"id":"AC-Y751-X442","grid_x":442,"grid_y":751,"centroid":[-70.7840262,-7.7772268],"aggregation":"none","score_gradboost":0.3088961,"score_random_forest":0.276589,"score_logistic_regression":0.5321871,"score_fuzzy_knn_k29":0.2542348},"geometry":{"type":"Polygon","coordinates":[[[-70.7880852,-7.7799138],[-70.7799901,-7.7799479],[-70.7799673,-7.7745398],[-70.7880623,-7.7745058],[-70.7880852,-7.7799138]]]}},{"type":"Feature","id":"AC-Y751-X443","properties":{"id":"AC-Y751-X443","grid_x":443,"grid_y":751,"centroid":[-70.7759311,-7.7772608],"aggregation":"none","score_gradboost":0.2638849,"score_random_forest":0.2733987,"score_logistic_regression":0.5107206,"score_fuzzy_knn_k29":0.2588649},"geometry":{"type":"Polygon","coordinates":[[[-70.7799901,-7.7799479],[-70.771895,-7.7799818],[-70.7718723,-7.7745736],[-70.7799673,-7.7745398],[-70.7799901,-7.7799479]]]}},{"type":"Feature","id":"AC-Y752-X440","properties":{"id":"AC-Y752-X440","grid_x":440,"grid_y":752,"centroid":[-70.8001932,-7.7717504],"aggregation":"none","score_gradboost":0.2993812,"score_random_forest":0.1926324,"score_logistic_regression":0.4383977,"score_fuzzy_knn_k29":0.2338146},"geometry":{"type":"Polygon","coordinates":[[[-70.8042522,-7.7744373],[-70.7961572,-7.7744716],[-70.7961342,-7.7690635],[-70.8042291,-7.7690292],[-70.8042522,-7.7744373]]]}},{"type":"Feature","id":"AC-Y752-X441","properties":{"id":"AC-Y752-X441","grid_x":441,"grid_y":752,"centroid":[-70.7920983,-7.7717847],"aggregation":"none","score_gradboost":0.6678575,"score_random_forest":0.7354777,"score_logistic_regression":0.5520798,"score_fuzzy_knn_k29":0.7766017},"geometry":{"type":"Polygon","coordinates":[[[-70.7961572,-7.7744716],[-70.7880623,-7.7745058],[-70.7880394,-7.7690977],[-70.7961342,-7.7690635],[-70.7961572,-7.7744716]]]}},{"type":"Feature","id":"AC-Y752-X442","properties":{"id":"AC-Y752-X442","grid_x":442,"grid_y":752,"centroid":[-70.7840034,-7.7718187],"aggregation":"none","score_gradboost":0.5147747,"score_random_forest":0.6257367,"score_logistic_regression":0.6580663,"score_fuzzy_knn_k29":0.6956226},"geometry":{"type":"Polygon","coordinates":[[[-70.7880623,-7.7745058],[-70.7799673,-7.7745398],[-70.7799445,-7.7691317],[-70.7880394,-7.7690977],[-70.7880623,-7.7745058]]]}},{"type":"Feature","id":"AC-Y752-X443","properties":{"id":"AC-Y752-X443","grid_x":443,"grid_y":752,"centroid":[-70.7759084,-7.7718527],"aggregation":"none","score_gradboost":0.5980256,"score_random_forest":0.7029599,"score_logistic_regression":0.624435,"score_fuzzy_knn_k29":0.9807837},"geometry":{"type":"Polygon","coordinates":[[[-70.7799673,-7.7745398],[-70.7718723,-7.7745736],[-70.7718496,-7.7691655],[-70.7799445,-7.7691317],[-70.7799673,-7.7745398]]]}},{"type":"Feature","id":"AC-Y753-X440","properties":{"id":"AC-Y753-X440","grid_x":440,"grid_y":753,"centroid":[-70.8001701,-7.7663424],"aggregation":"none","score_gradboost":0.3045482,"score_random_forest":0.124334,"score_logistic_regression":0.4190126,"score_fuzzy_knn_k29":0.0818603},"geometry":{"type":"Polygon","coordinates":[[[-70.8042291,-7.7690292],[-70.7961342,-7.7690635],[-70.7961113,-7.7636555],[-70.804206,-7.7636212],[-70.8042291,-7.7690292]]]}},{"type":"Feature","id":"AC-Y753-X441","properties":{"id":"AC-Y753-X441","grid_x":441,"grid_y":753,"centroid":[-70.7920754,-7.7663766],"aggregation":"none","score_gradboost":0.284294,"score_random_forest":0.1824602,"score_logistic_regression":0.4399787,"score_fuzzy_knn_k29":0.242373},"geometry":{"type":"Polygon","coordinates":[[[-70.7961342,-7.7690635],[-70.7880394,-7.7690977],[-70.7880165,-7.7636896],[-70.7961113,-7.7636555],[-70.7961342,-7.7690635]]]}},{"type":"Feature","id":"AC-Y753-X442","properties":{"id":"AC-Y753-X442","grid_x":442,"grid_y":753,"centroid":[-70.7839805,-7.7664107],"aggregation":"none","score_gradboost":0.3197509,"score_random_forest":0.250427,"score_logistic_regression":0.5201294,"score_fuzzy_knn_k29":0.2755218},"geometry":{"type":"Polygon","coordinates":[[[-70.7880394,-7.7690977],[-70.7799445,-7.7691317],[-70.7799217,-7.7637236],[-70.7880165,-7.7636896],[-70.7880394,-7.7690977]]]}},{"type":"Feature","id":"AC-Y753-X443","properties":{"id":"AC-Y753-X443","grid_x":443,"grid_y":753,"centroid":[-70.7758857,-7.7664446],"aggregation":"none","score_gradboost":0.5349181,"score_random_forest":0.6395277,"score_logistic_regression":0.6414535,"score_fuzzy_knn_k29":0.8162828},"geometry":{"type":"Polygon","coordinates":[[[-70.7799445,-7.7691317],[-70.7718496,-7.7691655],[-70.7718269,-7.7637574],[-70.7799217,-7.7637236],[-70.7799445,-7.7691317]]]}},{"type":"Feature","id":"AC-Y754-X440","properties":{"id":"AC-Y754-X440","grid_x":440,"grid_y":754,"centroid":[-70.8001471,-7.7609343],"aggregation":"none","score_gradboost":0.1479886,"score_random_forest":0.15005,"score_logistic_regression":0.4390886,"score_fuzzy_knn_k29":0.3425953},"geometry":{"type":"Polygon","coordinates":[[[-70.804206,-7.7636212],[-70.7961113,-7.7636555],[-70.7960883,-7.7582474],[-70.8041829,-7.7582132],[-70.804206,-7.7636212]]]}},{"type":"Feature","id":"AC-Y754-X441","properties":{"id":"AC-Y754-X441","grid_x":441,"grid_y":754,"centroid":[-70.7920524,-7.7609685],"aggregation":"none","score_gradboost":0.0408227,"score_random_forest":0.1609772,"score_logistic_regression":0.3402092,"score_fuzzy_knn_k29":0.2096174},"geometry":{"type":"Polygon","coordinates":[[[-70.7961113,-7.7636555],[-70.7880165,-7.7636896],[-70.7879937,-7.7582815],[-70.7960883,-7.7582474],[-70.7961113,-7.7636555]]]}}]}