{"type":"FeatureCollection","features":[{"type":"Feature","id":"AC-Y280-X886","properties":{"id":"AC-Y280-X886","grid_x":886,"grid_y":280,"centroid":[-67.175851,-10.3241077],"aggregation":"none","score_gradboost":0.8927229,"score_random_forest":0.9092358,"score_logistic_regression":0.9323485,"score_fuzzy_knn_k29":0.9030152},"geometry":{"type":"Polygon","coordinates":[[[-67.1799115,-10.3268343],[-67.1717594,-10.3267882],[-67.1717906,-10.321381],[-67.1799426,-10.3214271],[-67.1799115,-10.3268343]]]}},{"type":"Feature","id":"AC-Y280-X888","properties":{"id":"AC-Y280-X888","grid_x":888,"grid_y":280,"centroid":[-67.1595471,-10.3240151],"aggregation":"none","score_gradboost":0.7351246,"score_random_forest":0.822021,"score_logistic_regression":0.8693148,"score_fuzzy_knn_k29":0.9741062},"geometry":{"type":"Polygon","coordinates":[[[-67.1636073,-10.3267419],[-67.1554553,-10.3266954],[-67.1554869,-10.3212883],[-67.1636387,-10.3213348],[-67.1636073,-10.3267419]]]}},{"type":"Feature","id":"AC-Y281-X885","properties":{"id":"AC-Y281-X885","grid_x":885,"grid_y":281,"centroid":[-67.1840341,-10.3187464],"aggregation":"none","score_gradboost":0.8976018,"score_random_forest":0.8997024,"score_logistic_regression":0.9236729,"score_fuzzy_knn_k29":0.8563886},"geometry":{"type":"Polygon","coordinates":[[[-67.1880946,-10.3214729],[-67.1799426,-10.3214271],[-67.1799737,-10.3160198],[-67.1881255,-10.3160657],[-67.1880946,-10.3214729]]]}},{"type":"Feature","id":"AC-Y281-X886","properties":{"id":"AC-Y281-X886","grid_x":886,"grid_y":281,"centroid":[-67.1758822,-10.3187005],"aggregation":"none","score_gradboost":0.8059101,"score_random_forest":0.7512957,"score_logistic_regression":0.9332218,"score_fuzzy_knn_k29":0.6989316},"geometry":{"type":"Polygon","coordinates":[[[-67.1799426,-10.3214271],[-67.1717906,-10.321381],[-67.1718219,-10.3159738],[-67.1799737,-10.3160198],[-67.1799426,-10.3214271]]]}},{"type":"Feature","id":"AC-Y281-X887","properties":{"id":"AC-Y281-X887","grid_x":887,"grid_y":281,"centroid":[-67.1677303,-10.3186543],"aggregation":"none","score_gradboost":0.7963093,"score_random_forest":0.8410117,"score_logistic_regression":0.9058499,"score_fuzzy_knn_k29":0.7440432},"geometry":{"type":"Polygon","coordinates":[[[-67.1717906,-10.321381],[-67.1636387,-10.3213348],[-67.1636701,-10.3159276],[-67.1718219,-10.3159738],[-67.1717906,-10.321381]]]}},{"type":"Feature","id":"AC-Y281-X888","properties":{"id":"AC-Y281-X888","grid_x":888,"grid_y":281,"centroid":[-67.1595785,-10.318608],"aggregation":"none","score_gradboost":0.6354697,"score_random_forest":0.668505,"score_logistic_regression":0.8799214,"score_fuzzy_knn_k29":0.8998188},"geometry":{"type":"Polygon","coordinates":[[[-67.1636387,-10.3213348],[-67.1554869,-10.3212883],[-67.1555183,-10.3158811],[-67.1636701,-10.3159276],[-67.1636387,-10.3213348]]]}},{"type":"Feature","id":"AC-Y281-X889","properties":{"id":"AC-Y281-X889","grid_x":889,"grid_y":281,"centroid":[-67.1514267,-10.3185614],"aggregation":"none","score_gradboost":0.706002,"score_random_forest":0.7578229,"score_logistic_regression":0.8632933,"score_fuzzy_knn_k29":0.9317905},"geometry":{"type":"Polygon","coordinates":[[[-67.1554869,-10.3212883],[-67.147335,-10.3212416],[-67.1473667,-10.3158345],[-67.1555183,-10.3158811],[-67.1554869,-10.3212883]]]}},{"type":"Feature","id":"AC-Y282-X884","properties":{"id":"AC-Y282-X884","grid_x":884,"grid_y":282,"centroid":[-67.1922169,-10.3133849],"aggregation":"none","score_gradboost":0.9092507,"score_random_forest":0.9150152,"score_logistic_regression":0.8772743,"score_fuzzy_knn_k29":0.851481},"geometry":{"type":"Polygon","coordinates":[[[-67.1962774,-10.3161113],[-67.1881255,-10.3160657],[-67.1881564,-10.3106584],[-67.1963082,-10.310704],[-67.1962774,-10.3161113]]]}},{"type":"Feature","id":"AC-Y282-X885","properties":{"id":"AC-Y282-X885","grid_x":885,"grid_y":282,"centroid":[-67.1840651,-10.3133392],"aggregation":"none","score_gradboost":0.8242828,"score_random_forest":0.8456264,"score_logistic_regression":0.8854202,"score_fuzzy_knn_k29":0.9138958},"geometry":{"type":"Polygon","coordinates":[[[-67.1881255,-10.3160657],[-67.1799737,-10.3160198],[-67.1800047,-10.3106126],[-67.1881564,-10.3106584],[-67.1881255,-10.3160657]]]}},{"type":"Feature","id":"AC-Y282-X886","properties":{"id":"AC-Y282-X886","grid_x":886,"grid_y":282,"centroid":[-67.1759133,-10.3132932],"aggregation":"none","score_gradboost":0.7552107,"score_random_forest":0.6294718,"score_logistic_regression":0.9322391,"score_fuzzy_knn_k29":0.6233922},"geometry":{"type":"Polygon","coordinates":[[[-67.1799737,-10.3160198],[-67.1718219,-10.3159738],[-67.1718531,-10.3105666],[-67.1800047,-10.3106126],[-67.1799737,-10.3160198]]]}},{"type":"Feature","id":"AC-Y282-X887","properties":{"id":"AC-Y282-X887","grid_x":887,"grid_y":282,"centroid":[-67.1677616,-10.3132471],"aggregation":"none","score_gradboost":0.7458761,"score_random_forest":0.7756877,"score_logistic_regression":0.8678121,"score_fuzzy_knn_k29":0.9169075},"geometry":{"type":"Polygon","coordinates":[[[-67.1718219,-10.3159738],[-67.1636701,-10.3159276],[-67.1637014,-10.3105204],[-67.1718531,-10.3105666],[-67.1718219,-10.3159738]]]}},{"type":"Feature","id":"AC-Y282-X888","properties":{"id":"AC-Y282-X888","grid_x":888,"grid_y":282,"centroid":[-67.1596099,-10.3132008],"aggregation":"none","score_gradboost":0.6435081,"score_random_forest":0.7133322,"score_logistic_regression":0.8930923,"score_fuzzy_knn_k29":0.8779481},"geometry":{"type":"Polygon","coordinates":[[[-67.1636701,-10.3159276],[-67.1555183,-10.3158811],[-67.1555498,-10.310474],[-67.1637014,-10.3105204],[-67.1636701,-10.3159276]]]}},{"type":"Feature","id":"AC-Y282-X889","properties":{"id":"AC-Y282-X889","grid_x":889,"grid_y":282,"centroid":[-67.1514583,-10.3131542],"aggregation":"none","score_gradboost":0.7350072,"score_random_forest":0.7791616,"score_logistic_regression":0.8426351,"score_fuzzy_knn_k29":0.6804073},"geometry":{"type":"Polygon","coordinates":[[[-67.1555183,-10.3158811],[-67.1473667,-10.3158345],[-67.1473983,-10.3104273],[-67.1555498,-10.310474],[-67.1555183,-10.3158811]]]}},{"type":"Feature","id":"AC-Y283-X884","properties":{"id":"AC-Y283-X884","grid_x":884,"grid_y":283,"centroid":[-67.1922477,-10.3079776],"aggregation":"none","score_gradboost":0.9075209,"score_random_forest":0.926577,"score_logistic_regression":0.921338,"score_fuzzy_knn_k29":0.8509182},"geometry":{"type":"Polygon","coordinates":[[[-67.1963082,-10.310704],[-67.1881564,-10.3106584],[-67.1881873,-10.3052511],[-67.196339,-10.3052967],[-67.1963082,-10.310704]]]}},{"type":"Feature","id":"AC-Y283-X885","properties":{"id":"AC-Y283-X885","grid_x":885,"grid_y":283,"centroid":[-67.1840961,-10.3079319],"aggregation":"none","score_gradboost":0.734435,"score_random_forest":0.6665525,"score_logistic_regression":0.9254623,"score_fuzzy_knn_k29":0.2816803},"geometry":{"type":"Polygon","coordinates":[[[-67.1881564,-10.3106584],[-67.1800047,-10.3106126],[-67.1800358,-10.3052054],[-67.1881873,-10.3052511],[-67.1881564,-10.3106584]]]}},{"type":"Feature","id":"AC-Y283-X886","properties":{"id":"AC-Y283-X886","grid_x":886,"grid_y":283,"centroid":[-67.1759444,-10.307886],"aggregation":"none","score_gradboost":0.8383421,"score_random_forest":0.8104461,"score_logistic_regression":0.9301118,"score_fuzzy_knn_k29":0.7093245},"geometry":{"type":"Polygon","coordinates":[[[-67.1800047,-10.3106126],[-67.1718531,-10.3105666],[-67.1718842,-10.3051594],[-67.1800358,-10.3052054],[-67.1800047,-10.3106126]]]}},{"type":"Feature","id":"AC-Y283-X887","properties":{"id":"AC-Y283-X887","grid_x":887,"grid_y":283,"centroid":[-67.1677929,-10.3078399],"aggregation":"none","score_gradboost":0.8248579,"score_random_forest":0.8410129,"score_logistic_regression":0.9170631,"score_fuzzy_knn_k29":0.6829778},"geometry":{"type":"Polygon","coordinates":[[[-67.1718531,-10.3105666],[-67.1637014,-10.3105204],[-67.1637327,-10.3051132],[-67.1718842,-10.3051594],[-67.1718531,-10.3105666]]]}},{"type":"Feature","id":"AC-Y283-X888","properties":{"id":"AC-Y283-X888","grid_x":888,"grid_y":283,"centroid":[-67.1596413,-10.3077936],"aggregation":"none","score_gradboost":0.6622445,"score_random_forest":0.8200102,"score_logistic_regression":0.843054,"score_fuzzy_knn_k29":0.9072931},"geometry":{"type":"Polygon","coordinates":[[[-67.1637014,-10.3105204],[-67.1555498,-10.310474],[-67.1555813,-10.3050668],[-67.1637327,-10.3051132],[-67.1637014,-10.3105204]]]}},{"type":"Feature","id":"AC-Y283-X889","properties":{"id":"AC-Y283-X889","grid_x":889,"grid_y":283,"centroid":[-67.1514898,-10.3077471],"aggregation":"none","score_gradboost":0.635284,"score_random_forest":0.7300507,"score_logistic_regression":0.8458132,"score_fuzzy_knn_k29":0.1998692},"geometry":{"type":"Polygon","coordinates":[[[-67.1555498,-10.310474],[-67.1473983,-10.3104273],[-67.1474299,-10.3050202],[-67.1555813,-10.3050668],[-67.1555498,-10.310474]]]}},{"type":"Feature","id":"AC-Y278-X885","properties":{"id":"AC-Y278-X885","grid_x":885,"grid_y":278,"centroid":[-67.183941,-10.3349682],"aggregation":"none","score_gradboost":0.6899052,"score_random_forest":0.6845952,"score_logistic_regression":0.9166963,"score_fuzzy_knn_k29":0.5647895},"geometry":{"type":"Polygon","coordinates":[[[-67.1880016,-10.3376947],[-67.1798492,-10.3376488],[-67.1798804,-10.3322416],[-67.1880326,-10.3322875],[-67.1880016,-10.3376947]]]}},{"type":"Feature","id":"AC-Y278-X886","properties":{"id":"AC-Y278-X886","grid_x":886,"grid_y":278,"centroid":[-67.1757887,-10.3349221],"aggregation":"none","score_gradboost":0.7558134,"score_random_forest":0.8140356,"score_logistic_regression":0.8866549,"score_fuzzy_knn_k29":0.8901932},"geometry":{"type":"Polygon","coordinates":[[[-67.1798492,-10.3376488],[-67.1716969,-10.3376027],[-67.1717281,-10.3321954],[-67.1798804,-10.3322416],[-67.1798492,-10.3376488]]]}},{"type":"Feature","id":"AC-Y278-X887","properties":{"id":"AC-Y278-X887","grid_x":887,"grid_y":278,"centroid":[-67.1676364,-10.3348759],"aggregation":"none","score_gradboost":0.5690397,"score_random_forest":0.6828618,"score_logistic_regression":0.8803934,"score_fuzzy_knn_k29":0.8923417},"geometry":{"type":"Polygon","coordinates":[[[-67.1716969,-10.3376027],[-67.1635445,-10.3375563],[-67.163576,-10.3321491],[-67.1717281,-10.3321954],[-67.1716969,-10.3376027]]]}},{"type":"Feature","id":"AC-Y279-X885","properties":{"id":"AC-Y279-X885","grid_x":885,"grid_y":279,"centroid":[-67.183972,-10.3295609],"aggregation":"none","score_gradboost":0.796462,"score_random_forest":0.7954932,"score_logistic_regression":0.9182555,"score_fuzzy_knn_k29":0.7887473},"geometry":{"type":"Polygon","coordinates":[[[-67.1880326,-10.3322875],[-67.1798804,-10.3322416],[-67.1799115,-10.3268343],[-67.1880636,-10.3268802],[-67.1880326,-10.3322875]]]}},{"type":"Feature","id":"AC-Y279-X886","properties":{"id":"AC-Y279-X886","grid_x":886,"grid_y":279,"centroid":[-67.1758198,-10.3295149],"aggregation":"none","score_gradboost":0.8870163,"score_random_forest":0.8841382,"score_logistic_regression":0.9217005,"score_fuzzy_knn_k29":0.8414373},"geometry":{"type":"Polygon","coordinates":[[[-67.1798804,-10.3322416],[-67.1717281,-10.3321954],[-67.1717594,-10.3267882],[-67.1799115,-10.3268343],[-67.1798804,-10.3322416]]]}},{"type":"Feature","id":"AC-Y279-X887","properties":{"id":"AC-Y279-X887","grid_x":887,"grid_y":279,"centroid":[-67.1676677,-10.3294687],"aggregation":"none","score_gradboost":0.6668547,"score_random_forest":0.70225,"score_logistic_regression":0.9298576,"score_fuzzy_knn_k29":0.701843},"geometry":{"type":"Polygon","coordinates":[[[-67.1717281,-10.3321954],[-67.163576,-10.3321491],[-67.1636073,-10.3267419],[-67.1717594,-10.3267882],[-67.1717281,-10.3321954]]]}},{"type":"Feature","id":"AC-Y280-X875","properties":{"id":"AC-Y280-X875","grid_x":875,"grid_y":280,"centroid":[-67.2655255,-10.3246021],"aggregation":"none","score_gradboost":0.8357449,"score_random_forest":0.8935829,"score_logistic_regression":0.8414444,"score_fuzzy_knn_k29":0.9294996},"geometry":{"type":"Polygon","coordinates":[[[-67.269587,-10.3273277],[-67.2614345,-10.3272839],[-67.2614642,-10.3218764],[-67.2696165,-10.3219202],[-67.269587,-10.3273277]]]}},{"type":"Feature","id":"AC-Y280-X876","properties":{"id":"AC-Y280-X876","grid_x":876,"grid_y":280,"centroid":[-67.2573731,-10.3245582],"aggregation":"none","score_gradboost":0.8371744,"score_random_forest":0.8603081,"score_logistic_regression":0.8222163,"score_fuzzy_knn_k29":0.8715713},"geometry":{"type":"Polygon","coordinates":[[[-67.2614345,-10.3272839],[-67.253282,-10.3272399],[-67.2533118,-10.3218324],[-67.2614642,-10.3218764],[-67.2614345,-10.3272839]]]}},{"type":"Feature","id":"AC-Y280-X877","properties":{"id":"AC-Y280-X877","grid_x":877,"grid_y":280,"centroid":[-67.2492207,-10.324514],"aggregation":"none","score_gradboost":0.6354697,"score_random_forest":0.6549315,"score_logistic_regression":0.8603242,"score_fuzzy_knn_k29":0.9045638},"geometry":{"type":"Polygon","coordinates":[[[-67.253282,-10.3272399],[-67.2451296,-10.3271956],[-67.2451595,-10.3217882],[-67.2533118,-10.3218324],[-67.253282,-10.3272399]]]}},{"type":"Feature","id":"AC-Y280-X884","properties":{"id":"AC-Y280-X884","grid_x":884,"grid_y":280,"centroid":[-67.1921551,-10.3241994],"aggregation":"none","score_gradboost":0.7903757,"score_random_forest":0.8635149,"score_logistic_regression":0.8767249,"score_fuzzy_knn_k29":0.9452446},"geometry":{"type":"Polygon","coordinates":[[[-67.1962158,-10.3269259],[-67.1880636,-10.3268802],[-67.1880946,-10.3214729],[-67.1962466,-10.3215186],[-67.1962158,-10.3269259]]]}},{"type":"Feature","id":"AC-Y280-X885","properties":{"id":"AC-Y280-X885","grid_x":885,"grid_y":280,"centroid":[-67.1840031,-10.3241537],"aggregation":"none","score_gradboost":0.8666069,"score_random_forest":0.8773932,"score_logistic_regression":0.9298247,"score_fuzzy_knn_k29":0.8935345},"geometry":{"type":"Polygon","coordinates":[[[-67.1880636,-10.3268802],[-67.1799115,-10.3268343],[-67.1799426,-10.3214271],[-67.1880946,-10.3214729],[-67.1880636,-10.3268802]]]}},{"type":"Feature","id":"AC-Y280-X887","properties":{"id":"AC-Y280-X887","grid_x":887,"grid_y":280,"centroid":[-67.167699,-10.3240615],"aggregation":"none","score_gradboost":0.8052122,"score_random_forest":0.7495372,"score_logistic_regression":0.9305493,"score_fuzzy_knn_k29":0.8097299},"geometry":{"type":"Polygon","coordinates":[[[-67.1717594,-10.3267882],[-67.1636073,-10.3267419],[-67.1636387,-10.3213348],[-67.1717906,-10.321381],[-67.1717594,-10.3267882]]]}},{"type":"Feature","id":"AC-Y281-X875","properties":{"id":"AC-Y281-X875","grid_x":875,"grid_y":281,"centroid":[-67.2655551,-10.3191946],"aggregation":"none","score_gradboost":0.776621,"score_random_forest":0.743636,"score_logistic_regression":0.9009162,"score_fuzzy_knn_k29":0.7362825},"geometry":{"type":"Polygon","coordinates":[[[-67.2696165,-10.3219202],[-67.2614642,-10.3218764],[-67.2614938,-10.3164689],[-67.2696461,-10.3165127],[-67.2696165,-10.3219202]]]}},{"type":"Feature","id":"AC-Y281-X876","properties":{"id":"AC-Y281-X876","grid_x":876,"grid_y":281,"centroid":[-67.2574029,-10.3191507],"aggregation":"none","score_gradboost":0.8684423,"score_random_forest":0.8904974,"score_logistic_regression":0.9156827,"score_fuzzy_knn_k29":0.8324764},"geometry":{"type":"Polygon","coordinates":[[[-67.2614642,-10.3218764],[-67.2533118,-10.3218324],[-67.2533417,-10.3164249],[-67.2614938,-10.3164689],[-67.2614642,-10.3218764]]]}},{"type":"Feature","id":"AC-Y281-X877","properties":{"id":"AC-Y281-X877","grid_x":877,"grid_y":281,"centroid":[-67.2492506,-10.3191066],"aggregation":"none","score_gradboost":0.8085614,"score_random_forest":0.8361896,"score_logistic_regression":0.874581,"score_fuzzy_knn_k29":0.6887076},"geometry":{"type":"Polygon","coordinates":[[[-67.2533118,-10.3218324],[-67.2451595,-10.3217882],[-67.2451895,-10.3163808],[-67.2533417,-10.3164249],[-67.2533118,-10.3218324]]]}},{"type":"Feature","id":"AC-Y281-X881","properties":{"id":"AC-Y281-X881","grid_x":881,"grid_y":281,"centroid":[-67.2166421,-10.3189282],"aggregation":"none","score_gradboost":0.6925059,"score_random_forest":0.685009,"score_logistic_regression":0.8521596,"score_fuzzy_knn_k29":0.8771289},"geometry":{"type":"Polygon","coordinates":[[[-67.2207029,-10.3216543],[-67.2125508,-10.3216093],[-67.2125813,-10.3162019],[-67.2207333,-10.316247],[-67.2207029,-10.3216543]]]}},{"type":"Feature","id":"AC-Y281-X882","properties":{"id":"AC-Y281-X882","grid_x":882,"grid_y":281,"centroid":[-67.20849,-10.318883],"aggregation":"none","score_gradboost":0.7822207,"score_random_forest":0.804887,"score_logistic_regression":0.9089283,"score_fuzzy_knn_k29":0.6366599},"geometry":{"type":"Polygon","coordinates":[[[-67.2125508,-10.3216093],[-67.2043987,-10.321564],[-67.2044293,-10.3161567],[-67.2125813,-10.3162019],[-67.2125508,-10.3216093]]]}},{"type":"Feature","id":"AC-Y281-X883","properties":{"id":"AC-Y281-X883","grid_x":883,"grid_y":281,"centroid":[-67.200338,-10.3188377],"aggregation":"none","score_gradboost":0.7542865,"score_random_forest":0.7329503,"score_logistic_regression":0.9170793,"score_fuzzy_knn_k29":0.732275},"geometry":{"type":"Polygon","coordinates":[[[-67.2043987,-10.321564],[-67.1962466,-10.3215186],[-67.1962774,-10.3161113],[-67.2044293,-10.3161567],[-67.2043987,-10.321564]]]}},{"type":"Feature","id":"AC-Y281-X884","properties":{"id":"AC-Y281-X884","grid_x":884,"grid_y":281,"centroid":[-67.192186,-10.3187922],"aggregation":"none","score_gradboost":0.7719449,"score_random_forest":0.8196212,"score_logistic_regression":0.8783737,"score_fuzzy_knn_k29":0.9258657},"geometry":{"type":"Polygon","coordinates":[[[-67.1962466,-10.3215186],[-67.1880946,-10.3214729],[-67.1881255,-10.3160657],[-67.1962774,-10.3161113],[-67.1962466,-10.3215186]]]}},{"type":"Feature","id":"AC-Y282-X875","properties":{"id":"AC-Y282-X875","grid_x":875,"grid_y":282,"centroid":[-67.2655848,-10.3137871],"aggregation":"none","score_gradboost":0.8857632,"score_random_forest":0.9177849,"score_logistic_regression":0.902535,"score_fuzzy_knn_k29":0.7551761},"geometry":{"type":"Polygon","coordinates":[[[-67.2696461,-10.3165127],[-67.2614938,-10.3164689],[-67.2615235,-10.3110614],[-67.2696756,-10.3111052],[-67.2696461,-10.3165127]]]}},{"type":"Feature","id":"AC-Y282-X876","properties":{"id":"AC-Y282-X876","grid_x":876,"grid_y":282,"centroid":[-67.2574326,-10.3137432],"aggregation":"none","score_gradboost":0.9434861,"score_random_forest":0.9467471,"score_logistic_regression":0.9186586,"score_fuzzy_knn_k29":0.8193695},"geometry":{"type":"Polygon","coordinates":[[[-67.2614938,-10.3164689],[-67.2533417,-10.3164249],[-67.2533715,-10.3110175],[-67.2615235,-10.3110614],[-67.2614938,-10.3164689]]]}},{"type":"Feature","id":"AC-Y282-X877","properties":{"id":"AC-Y282-X877","grid_x":877,"grid_y":282,"centroid":[-67.2492805,-10.3136992],"aggregation":"none","score_gradboost":0.8981713,"score_random_forest":0.9201058,"score_logistic_regression":0.9162107,"score_fuzzy_knn_k29":0.8434059},"geometry":{"type":"Polygon","coordinates":[[[-67.2533417,-10.3164249],[-67.2451895,-10.3163808],[-67.2452195,-10.3109733],[-67.2533715,-10.3110175],[-67.2533417,-10.3164249]]]}},{"type":"Feature","id":"AC-Y282-X878","properties":{"id":"AC-Y282-X878","grid_x":878,"grid_y":282,"centroid":[-67.2411285,-10.3136549],"aggregation":"none","score_gradboost":0.8186395,"score_random_forest":0.8678121,"score_logistic_regression":0.8906932,"score_fuzzy_knn_k29":0.8518153},"geometry":{"type":"Polygon","coordinates":[[[-67.2451895,-10.3163808],[-67.2370374,-10.3163364],[-67.2370675,-10.310929],[-67.2452195,-10.3109733],[-67.2451895,-10.3163808]]]}},{"type":"Feature","id":"AC-Y282-X879","properties":{"id":"AC-Y282-X879","grid_x":879,"grid_y":282,"centroid":[-67.2329764,-10.3136104],"aggregation":"none","score_gradboost":0.7603644,"score_random_forest":0.7261445,"score_logistic_regression":0.7721341,"score_fuzzy_knn_k29":0.6857471},"geometry":{"type":"Polygon","coordinates":[[[-67.2370374,-10.3163364],[-67.2288853,-10.3162918],[-67.2289156,-10.3108844],[-67.2370675,-10.310929],[-67.2370374,-10.3163364]]]}},{"type":"Feature","id":"AC-Y282-X880","properties":{"id":"AC-Y282-X880","grid_x":880,"grid_y":282,"centroid":[-67.2248245,-10.3135657],"aggregation":"none","score_gradboost":0.6266141,"score_random_forest":0.6677948,"score_logistic_regression":0.8946613,"score_fuzzy_knn_k29":0.8621923},"geometry":{"type":"Polygon","coordinates":[[[-67.2288853,-10.3162918],[-67.2207333,-10.316247],[-67.2207637,-10.3108396],[-67.2289156,-10.3108844],[-67.2288853,-10.3162918]]]}},{"type":"Feature","id":"AC-Y282-X881","properties":{"id":"AC-Y282-X881","grid_x":881,"grid_y":282,"centroid":[-67.2166725,-10.3135208],"aggregation":"none","score_gradboost":0.6688224,"score_random_forest":0.7471416,"score_logistic_regression":0.9033765,"score_fuzzy_knn_k29":0.8494406},"geometry":{"type":"Polygon","coordinates":[[[-67.2207333,-10.316247],[-67.2125813,-10.3162019],[-67.2126118,-10.3107946],[-67.2207637,-10.3108396],[-67.2207333,-10.316247]]]}},{"type":"Feature","id":"AC-Y282-X882","properties":{"id":"AC-Y282-X882","grid_x":882,"grid_y":282,"centroid":[-67.2085206,-10.3134757],"aggregation":"none","score_gradboost":0.8862948,"score_random_forest":0.8855697,"score_logistic_regression":0.8901102,"score_fuzzy_knn_k29":0.8052633},"geometry":{"type":"Polygon","coordinates":[[[-67.2125813,-10.3162019],[-67.2044293,-10.3161567],[-67.20446,-10.3107494],[-67.2126118,-10.3107946],[-67.2125813,-10.3162019]]]}},{"type":"Feature","id":"AC-Y282-X883","properties":{"id":"AC-Y282-X883","grid_x":883,"grid_y":282,"centroid":[-67.2003687,-10.3134304],"aggregation":"none","score_gradboost":0.9088526,"score_random_forest":0.9095794,"score_logistic_regression":0.9253218,"score_fuzzy_knn_k29":0.8722688},"geometry":{"type":"Polygon","coordinates":[[[-67.2044293,-10.3161567],[-67.1962774,-10.3161113],[-67.1963082,-10.310704],[-67.20446,-10.3107494],[-67.2044293,-10.3161567]]]}},{"type":"Feature","id":"AC-Y283-X875","properties":{"id":"AC-Y283-X875","grid_x":875,"grid_y":283,"centroid":[-67.2656144,-10.3083796],"aggregation":"none","score_gradboost":0.9240531,"score_random_forest":0.9486717,"score_logistic_regression":0.8769591,"score_fuzzy_knn_k29":0.9722737},"geometry":{"type":"Polygon","coordinates":[[[-67.2696756,-10.3111052],[-67.2615235,-10.3110614],[-67.2615532,-10.305654],[-67.2697051,-10.3056977],[-67.2696756,-10.3111052]]]}},{"type":"Feature","id":"AC-Y283-X876","properties":{"id":"AC-Y283-X876","grid_x":876,"grid_y":283,"centroid":[-67.2574624,-10.3083358],"aggregation":"none","score_gradboost":0.9544974,"score_random_forest":0.9587516,"score_logistic_regression":0.8723833,"score_fuzzy_knn_k29":0.9556361},"geometry":{"type":"Polygon","coordinates":[[[-67.2615235,-10.3110614],[-67.2533715,-10.3110175],[-67.2534013,-10.30561],[-67.2615532,-10.305654],[-67.2615235,-10.3110614]]]}},{"type":"Feature","id":"AC-Y283-X877","properties":{"id":"AC-Y283-X877","grid_x":877,"grid_y":283,"centroid":[-67.2493104,-10.3082917],"aggregation":"none","score_gradboost":0.9149556,"score_random_forest":0.9234171,"score_logistic_regression":0.8470677,"score_fuzzy_knn_k29":0.8201049},"geometry":{"type":"Polygon","coordinates":[[[-67.2533715,-10.3110175],[-67.2452195,-10.3109733],[-67.2452494,-10.3055659],[-67.2534013,-10.30561],[-67.2533715,-10.3110175]]]}},{"type":"Feature","id":"AC-Y283-X878","properties":{"id":"AC-Y283-X878","grid_x":878,"grid_y":283,"centroid":[-67.2411585,-10.3082474],"aggregation":"none","score_gradboost":0.8746066,"score_random_forest":0.8550461,"score_logistic_regression":0.8850603,"score_fuzzy_knn_k29":0.7568502},"geometry":{"type":"Polygon","coordinates":[[[-67.2452195,-10.3109733],[-67.2370675,-10.310929],[-67.2370976,-10.3055215],[-67.2452494,-10.3055659],[-67.2452195,-10.3109733]]]}},{"type":"Feature","id":"AC-Y283-X879","properties":{"id":"AC-Y283-X879","grid_x":879,"grid_y":283,"centroid":[-67.2330066,-10.308203],"aggregation":"none","score_gradboost":0.7506692,"score_random_forest":0.7396623,"score_logistic_regression":0.8991624,"score_fuzzy_knn_k29":0.6744994},"geometry":{"type":"Polygon","coordinates":[[[-67.2370675,-10.310929],[-67.2289156,-10.3108844],[-67.2289458,-10.305477],[-67.2370976,-10.3055215],[-67.2370675,-10.310929]]]}},{"type":"Feature","id":"AC-Y283-X880","properties":{"id":"AC-Y283-X880","grid_x":880,"grid_y":283,"centroid":[-67.2248547,-10.3081583],"aggregation":"none","score_gradboost":0.7820612,"score_random_forest":0.7681587,"score_logistic_regression":0.9104416,"score_fuzzy_knn_k29":0.8685506},"geometry":{"type":"Polygon","coordinates":[[[-67.2289156,-10.3108844],[-67.2207637,-10.3108396],[-67.220794,-10.3054322],[-67.2289458,-10.305477],[-67.2289156,-10.3108844]]]}},{"type":"Feature","id":"AC-Y283-X881","properties":{"id":"AC-Y283-X881","grid_x":881,"grid_y":283,"centroid":[-67.2167029,-10.3081135],"aggregation":"none","score_gradboost":0.9092507,"score_random_forest":0.9238846,"score_logistic_regression":0.8683097,"score_fuzzy_knn_k29":0.77158},"geometry":{"type":"Polygon","coordinates":[[[-67.2207637,-10.3108396],[-67.2126118,-10.3107946],[-67.2126423,-10.3053873],[-67.220794,-10.3054322],[-67.2207637,-10.3108396]]]}},{"type":"Feature","id":"AC-Y283-X882","properties":{"id":"AC-Y283-X882","grid_x":882,"grid_y":283,"centroid":[-67.2085512,-10.3080684],"aggregation":"none","score_gradboost":0.9382884,"score_random_forest":0.9075643,"score_logistic_regression":0.918803,"score_fuzzy_knn_k29":0.819634},"geometry":{"type":"Polygon","coordinates":[[[-67.2126118,-10.3107946],[-67.20446,-10.3107494],[-67.2044906,-10.3053421],[-67.2126423,-10.3053873],[-67.2126118,-10.3107946]]]}},{"type":"Feature","id":"AC-Y283-X883","properties":{"id":"AC-Y283-X883","grid_x":883,"grid_y":283,"centroid":[-67.2003994,-10.3080231],"aggregation":"none","score_gradboost":0.8694045,"score_random_forest":0.7263971,"score_logistic_regression":0.9249033,"score_fuzzy_knn_k29":0.796414},"geometry":{"type":"Polygon","coordinates":[[[-67.20446,-10.3107494],[-67.1963082,-10.310704],[-67.196339,-10.3052967],[-67.2044906,-10.3053421],[-67.20446,-10.3107494]]]}},{"type":"Feature","id":"AC-Y280-X889","properties":{"id":"AC-Y280-X889","grid_x":889,"grid_y":280,"centroid":[-67.1513951,-10.3239685],"aggregation":"none","score_gradboost":0.6211864,"score_random_forest":0.521892,"score_logistic_regression":0.916988,"score_fuzzy_knn_k29":0.6030813},"geometry":{"type":"Polygon","coordinates":[[[-67.1554553,-10.3266954],[-67.1473034,-10.3266487],[-67.147335,-10.3212416],[-67.1554869,-10.3212883],[-67.1554553,-10.3266954]]]}},{"type":"Feature","id":"AC-Y280-X890","properties":{"id":"AC-Y280-X890","grid_x":890,"grid_y":280,"centroid":[-67.1432433,-10.3239217],"aggregation":"none","score_gradboost":0.7802853,"score_random_forest":0.6493034,"score_logistic_regression":0.6067543,"score_fuzzy_knn_k29":0.6579299},"geometry":{"type":"Polygon","coordinates":[[[-67.1473034,-10.3266487],[-67.1391514,-10.3266018],[-67.1391832,-10.3211947],[-67.147335,-10.3212416],[-67.1473034,-10.3266487]]]}},{"type":"Feature","id":"AC-Y281-X890","properties":{"id":"AC-Y281-X890","grid_x":890,"grid_y":281,"centroid":[-67.143275,-10.3185146],"aggregation":"none","score_gradboost":0.7872059,"score_random_forest":0.7686031,"score_logistic_regression":0.8941836,"score_fuzzy_knn_k29":0.875813},"geometry":{"type":"Polygon","coordinates":[[[-67.147335,-10.3212416],[-67.1391832,-10.3211947],[-67.139215,-10.3157876],[-67.1473667,-10.3158345],[-67.147335,-10.3212416]]]}},{"type":"Feature","id":"AC-Y282-X890","properties":{"id":"AC-Y282-X890","grid_x":890,"grid_y":282,"centroid":[-67.1433067,-10.3131075],"aggregation":"none","score_gradboost":0.7316896,"score_random_forest":0.7777761,"score_logistic_regression":0.8770552,"score_fuzzy_knn_k29":0.9194878},"geometry":{"type":"Polygon","coordinates":[[[-67.1473667,-10.3158345],[-67.139215,-10.3157876],[-67.1392468,-10.3103805],[-67.1473983,-10.3104273],[-67.1473667,-10.3158345]]]}},{"type":"Feature","id":"AC-Y282-X891","properties":{"id":"AC-Y282-X891","grid_x":891,"grid_y":282,"centroid":[-67.1351551,-10.3130605],"aggregation":"none","score_gradboost":0.683892,"score_random_forest":0.7490766,"score_logistic_regression":0.8771767,"score_fuzzy_knn_k29":0.9199182},"geometry":{"type":"Polygon","coordinates":[[[-67.139215,-10.3157876],[-67.1310634,-10.3157405],[-67.1310953,-10.3103334],[-67.1392468,-10.3103805],[-67.139215,-10.3157876]]]}},{"type":"Feature","id":"AC-Y283-X890","properties":{"id":"AC-Y283-X890","grid_x":890,"grid_y":283,"centroid":[-67.1433383,-10.3077004],"aggregation":"none","score_gradboost":0.6440575,"score_random_forest":0.6527502,"score_logistic_regression":0.9009675,"score_fuzzy_knn_k29":0.6740753},"geometry":{"type":"Polygon","coordinates":[[[-67.1473983,-10.3104273],[-67.1392468,-10.3103805],[-67.1392785,-10.3049734],[-67.1474299,-10.3050202],[-67.1473983,-10.3104273]]]}}]}