{"type":"FeatureCollection","features":[{"type":"Feature","id":"AC-Y750-X461","properties":{"id":"AC-Y750-X461","grid_x":461,"grid_y":750,"centroid":[-70.6302349,-7.7832541],"aggregation":"none","score_gradboost":0.3111357,"score_random_forest":0.2890111,"score_logistic_regression":0.5571437,"score_fuzzy_knn_k29":0.2753444},"geometry":{"type":"Polygon","coordinates":[[[-70.6342932,-7.7859428],[-70.6261974,-7.7859739],[-70.6261765,-7.7805654],[-70.6342723,-7.7805343],[-70.6342932,-7.7859428]]]}},{"type":"Feature","id":"AC-Y750-X462","properties":{"id":"AC-Y750-X462","grid_x":462,"grid_y":750,"centroid":[-70.622139,-7.7832851],"aggregation":"none","score_gradboost":0.347093,"score_random_forest":0.1982098,"score_logistic_regression":0.5772162,"score_fuzzy_knn_k29":0.0},"geometry":{"type":"Polygon","coordinates":[[[-70.6261974,-7.7859739],[-70.6181015,-7.7860049],[-70.6180807,-7.7805963],[-70.6261765,-7.7805654],[-70.6261974,-7.7859739]]]}},{"type":"Feature","id":"AC-Y750-X463","properties":{"id":"AC-Y750-X463","grid_x":463,"grid_y":750,"centroid":[-70.6140432,-7.783316],"aggregation":"none","score_gradboost":0.5767208,"score_random_forest":0.6513419,"score_logistic_regression":0.6795106,"score_fuzzy_knn_k29":0.7156279},"geometry":{"type":"Polygon","coordinates":[[[-70.6181015,-7.7860049],[-70.6100056,-7.7860357],[-70.6099849,-7.7806271],[-70.6180807,-7.7805963],[-70.6181015,-7.7860049]]]}},{"type":"Feature","id":"AC-Y750-X464","properties":{"id":"AC-Y750-X464","grid_x":464,"grid_y":750,"centroid":[-70.6059473,-7.7833468],"aggregation":"none","score_gradboost":0.3507414,"score_random_forest":0.2389402,"score_logistic_regression":0.5702776,"score_fuzzy_knn_k29":0.0243015},"geometry":{"type":"Polygon","coordinates":[[[-70.6100056,-7.7860357],[-70.6019096,-7.7860664],[-70.601889,-7.7806578],[-70.6099849,-7.7806271],[-70.6100056,-7.7860357]]]}},{"type":"Feature","id":"AC-Y750-X465","properties":{"id":"AC-Y750-X465","grid_x":465,"grid_y":750,"centroid":[-70.5978513,-7.7833773],"aggregation":"none","score_gradboost":0.0846757,"score_random_forest":0.1817455,"score_logistic_regression":0.4132357,"score_fuzzy_knn_k29":0.2401986},"geometry":{"type":"Polygon","coordinates":[[[-70.6019096,-7.7860664],[-70.5938136,-7.7860969],[-70.5937932,-7.7806883],[-70.601889,-7.7806578],[-70.6019096,-7.7860664]]]}}]}