{"type":"FeatureCollection","features":[{"type":"Feature","id":"AC-Y434-X255","properties":{"id":"AC-Y434-X255","grid_x":255,"grid_y":434,"centroid":[-72.3118787,-9.4804311],"aggregation":"none","score_gradboost":0.0059545,"score_random_forest":0.000516,"score_logistic_regression":0.0046421,"score_fuzzy_knn_k29":0.0},"geometry":{"type":"Polygon","coordinates":[[[-72.3159655,-9.4830933],[-72.3078437,-9.4831701],[-72.3077919,-9.477769],[-72.3159136,-9.4776921],[-72.3159655,-9.4830933]]]}},{"type":"Feature","id":"AC-Y435-X254","properties":{"id":"AC-Y435-X254","grid_x":254,"grid_y":435,"centroid":[-72.3199484,-9.4749531],"aggregation":"none","score_gradboost":0.0059545,"score_random_forest":0.000516,"score_logistic_regression":0.0034393,"score_fuzzy_knn_k29":0.0},"geometry":{"type":"Polygon","coordinates":[[[-72.3240351,-9.4776151],[-72.3159136,-9.4776921],[-72.3158617,-9.472291],[-72.3239831,-9.472214],[-72.3240351,-9.4776151]]]}},{"type":"Feature","id":"AC-Y435-X255","properties":{"id":"AC-Y435-X255","grid_x":255,"grid_y":435,"centroid":[-72.3118268,-9.47503],"aggregation":"none","score_gradboost":0.0061725,"score_random_forest":0.000516,"score_logistic_regression":0.0046965,"score_fuzzy_knn_k29":0.0},"geometry":{"type":"Polygon","coordinates":[[[-72.3159136,-9.4776921],[-72.3077919,-9.477769],[-72.3077402,-9.4723678],[-72.3158617,-9.472291],[-72.3159136,-9.4776921]]]}},{"type":"Feature","id":"AC-Y436-X253","properties":{"id":"AC-Y436-X253","grid_x":253,"grid_y":436,"centroid":[-72.3280178,-9.4694749],"aggregation":"none","score_gradboost":0.0059545,"score_random_forest":0.0,"score_logistic_regression":0.0045866,"score_fuzzy_knn_k29":0.0},"geometry":{"type":"Polygon","coordinates":[[[-72.3321045,-9.4721368],[-72.3239831,-9.472214],[-72.3239311,-9.4668129],[-72.3320524,-9.4667358],[-72.3321045,-9.4721368]]]}},{"type":"Feature","id":"AC-Y436-X254","properties":{"id":"AC-Y436-X254","grid_x":254,"grid_y":436,"centroid":[-72.3198964,-9.469552],"aggregation":"none","score_gradboost":0.0067157,"score_random_forest":0.000516,"score_logistic_regression":0.0055402,"score_fuzzy_knn_k29":0.0},"geometry":{"type":"Polygon","coordinates":[[[-72.3239831,-9.472214],[-72.3158617,-9.472291],[-72.3158098,-9.4668898],[-72.3239311,-9.4668129],[-72.3239831,-9.472214]]]}},{"type":"Feature","id":"AC-Y436-X255","properties":{"id":"AC-Y436-X255","grid_x":255,"grid_y":436,"centroid":[-72.311775,-9.4696288],"aggregation":"none","score_gradboost":0.0097901,"score_random_forest":0.000516,"score_logistic_regression":0.004233,"score_fuzzy_knn_k29":0.0113875},"geometry":{"type":"Polygon","coordinates":[[[-72.3158617,-9.472291],[-72.3077402,-9.4723678],[-72.3076884,-9.4669666],[-72.3158098,-9.4668898],[-72.3158617,-9.472291]]]}},{"type":"Feature","id":"AC-Y423-X254","properties":{"id":"AC-Y423-X254","grid_x":254,"grid_y":423,"centroid":[-72.320574,-9.5397663],"aggregation":"none","score_gradboost":0.036271,"score_random_forest":0.0227149,"score_logistic_regression":0.0063043,"score_fuzzy_knn_k29":0.13975},"geometry":{"type":"Polygon","coordinates":[[[-72.3246617,-9.5424281],[-72.3165386,-9.5425057],[-72.3164864,-9.5371045],[-72.3246093,-9.537027],[-72.3246617,-9.5424281]]]}},{"type":"Feature","id":"AC-Y423-X255","properties":{"id":"AC-Y423-X255","grid_x":255,"grid_y":423,"centroid":[-72.312451,-9.5398438],"aggregation":"none","score_gradboost":0.025671,"score_random_forest":0.0210583,"score_logistic_regression":0.0046167,"score_fuzzy_knn_k29":0.0895451},"geometry":{"type":"Polygon","coordinates":[[[-72.3165386,-9.5425057],[-72.3084155,-9.542583],[-72.3083633,-9.5371819],[-72.3164864,-9.5371045],[-72.3165386,-9.5425057]]]}},{"type":"Feature","id":"AC-Y424-X253","properties":{"id":"AC-Y424-X253","grid_x":253,"grid_y":424,"centroid":[-72.3286446,-9.5342877],"aggregation":"none","score_gradboost":0.0741271,"score_random_forest":0.0260045,"score_logistic_regression":0.0086801,"score_fuzzy_knn_k29":0.1557823},"geometry":{"type":"Polygon","coordinates":[[[-72.3327322,-9.5369493],[-72.3246093,-9.537027],[-72.324557,-9.5316259],[-72.3326798,-9.5315483],[-72.3327322,-9.5369493]]]}},{"type":"Feature","id":"AC-Y424-X254","properties":{"id":"AC-Y424-X254","grid_x":254,"grid_y":424,"centroid":[-72.3205217,-9.5343653],"aggregation":"none","score_gradboost":0.0290329,"score_random_forest":0.0183667,"score_logistic_regression":0.0032459,"score_fuzzy_knn_k29":0.0201817},"geometry":{"type":"Polygon","coordinates":[[[-72.3246093,-9.537027],[-72.3164864,-9.5371045],[-72.3164341,-9.5317034],[-72.324557,-9.5316259],[-72.3246093,-9.537027]]]}},{"type":"Feature","id":"AC-Y424-X255","properties":{"id":"AC-Y424-X255","grid_x":255,"grid_y":424,"centroid":[-72.3123988,-9.5344426],"aggregation":"none","score_gradboost":0.0387713,"score_random_forest":0.0318081,"score_logistic_regression":0.00538,"score_fuzzy_knn_k29":0.1247722},"geometry":{"type":"Polygon","coordinates":[[[-72.3164864,-9.5371045],[-72.3083633,-9.5371819],[-72.3083112,-9.5317807],[-72.3164341,-9.5317034],[-72.3164864,-9.5371045]]]}},{"type":"Feature","id":"AC-Y425-X253","properties":{"id":"AC-Y425-X253","grid_x":253,"grid_y":425,"centroid":[-72.3285922,-9.5288866],"aggregation":"none","score_gradboost":0.0442652,"score_random_forest":0.0195123,"score_logistic_regression":0.0072081,"score_fuzzy_knn_k29":0.1270123},"geometry":{"type":"Polygon","coordinates":[[[-72.3326798,-9.5315483],[-72.324557,-9.5316259],[-72.3245047,-9.5262249],[-72.3326273,-9.5261473],[-72.3326798,-9.5315483]]]}},{"type":"Feature","id":"AC-Y425-X254","properties":{"id":"AC-Y425-X254","grid_x":254,"grid_y":425,"centroid":[-72.3204694,-9.5289642],"aggregation":"none","score_gradboost":0.0328497,"score_random_forest":0.0335258,"score_logistic_regression":0.004124,"score_fuzzy_knn_k29":0.0293972},"geometry":{"type":"Polygon","coordinates":[[[-72.324557,-9.5316259],[-72.3164341,-9.5317034],[-72.3163819,-9.5263023],[-72.3245047,-9.5262249],[-72.324557,-9.5316259]]]}},{"type":"Feature","id":"AC-Y425-X255","properties":{"id":"AC-Y425-X255","grid_x":255,"grid_y":425,"centroid":[-72.3123466,-9.5290415],"aggregation":"none","score_gradboost":0.0365798,"score_random_forest":0.0554001,"score_logistic_regression":0.0040973,"score_fuzzy_knn_k29":0.0331311},"geometry":{"type":"Polygon","coordinates":[[[-72.3164341,-9.5317034],[-72.3083112,-9.5317807],[-72.3082592,-9.5263795],[-72.3163819,-9.5263023],[-72.3164341,-9.5317034]]]}},{"type":"Feature","id":"AC-Y426-X253","properties":{"id":"AC-Y426-X253","grid_x":253,"grid_y":426,"centroid":[-72.3285398,-9.5234856],"aggregation":"none","score_gradboost":0.0362494,"score_random_forest":0.0185029,"score_logistic_regression":0.0071392,"score_fuzzy_knn_k29":0.1046481},"geometry":{"type":"Polygon","coordinates":[[[-72.3326273,-9.5261473],[-72.3245047,-9.5262249],[-72.3244524,-9.5208238],[-72.3325749,-9.5207462],[-72.3326273,-9.5261473]]]}},{"type":"Feature","id":"AC-Y426-X254","properties":{"id":"AC-Y426-X254","grid_x":254,"grid_y":426,"centroid":[-72.3204172,-9.5235631],"aggregation":"none","score_gradboost":0.0376467,"score_random_forest":0.0588668,"score_logistic_regression":0.0045194,"score_fuzzy_knn_k29":0.0393745},"geometry":{"type":"Polygon","coordinates":[[[-72.3245047,-9.5262249],[-72.3163819,-9.5263023],[-72.3163298,-9.5209012],[-72.3244524,-9.5208238],[-72.3245047,-9.5262249]]]}},{"type":"Feature","id":"AC-Y426-X255","properties":{"id":"AC-Y426-X255","grid_x":255,"grid_y":426,"centroid":[-72.3122945,-9.5236404],"aggregation":"none","score_gradboost":0.0313935,"score_random_forest":0.0172649,"score_logistic_regression":0.0037558,"score_fuzzy_knn_k29":0.0136183},"geometry":{"type":"Polygon","coordinates":[[[-72.3163819,-9.5263023],[-72.3082592,-9.5263795],[-72.3082071,-9.5209784],[-72.3163298,-9.5209012],[-72.3163819,-9.5263023]]]}},{"type":"Feature","id":"AC-Y427-X252","properties":{"id":"AC-Y427-X252","grid_x":252,"grid_y":427,"centroid":[-72.3366099,-9.5180069],"aggregation":"none","score_gradboost":0.046498,"score_random_forest":0.0207465,"score_logistic_regression":0.0067728,"score_fuzzy_knn_k29":0.0964552},"geometry":{"type":"Polygon","coordinates":[[[-72.3406973,-9.5206685],[-72.3325749,-9.5207462],[-72.3325225,-9.5153452],[-72.3406448,-9.5152675],[-72.3406973,-9.5206685]]]}},{"type":"Feature","id":"AC-Y427-X253","properties":{"id":"AC-Y427-X253","grid_x":253,"grid_y":427,"centroid":[-72.3284875,-9.5180845],"aggregation":"none","score_gradboost":0.0328497,"score_random_forest":0.0305825,"score_logistic_regression":0.0049671,"score_fuzzy_knn_k29":0.0481924},"geometry":{"type":"Polygon","coordinates":[[[-72.3325749,-9.5207462],[-72.3244524,-9.5208238],[-72.3244001,-9.5154227],[-72.3325225,-9.5153452],[-72.3325749,-9.5207462]]]}},{"type":"Feature","id":"AC-Y427-X254","properties":{"id":"AC-Y427-X254","grid_x":254,"grid_y":427,"centroid":[-72.320365,-9.518162],"aggregation":"none","score_gradboost":0.0316376,"score_random_forest":0.0138542,"score_logistic_regression":0.004741,"score_fuzzy_knn_k29":0.0375207},"geometry":{"type":"Polygon","coordinates":[[[-72.3244524,-9.5208238],[-72.3163298,-9.5209012],[-72.3162776,-9.5155],[-72.3244001,-9.5154227],[-72.3244524,-9.5208238]]]}},{"type":"Feature","id":"AC-Y427-X255","properties":{"id":"AC-Y427-X255","grid_x":255,"grid_y":427,"centroid":[-72.3122424,-9.5182392],"aggregation":"none","score_gradboost":0.0273539,"score_random_forest":0.0056152,"score_logistic_regression":0.0053907,"score_fuzzy_knn_k29":0.0456436},"geometry":{"type":"Polygon","coordinates":[[[-72.3163298,-9.5209012],[-72.3082071,-9.5209784],[-72.3081551,-9.5155772],[-72.3162776,-9.5155],[-72.3163298,-9.5209012]]]}},{"type":"Feature","id":"AC-Y428-X252","properties":{"id":"AC-Y428-X252","grid_x":252,"grid_y":428,"centroid":[-72.3365574,-9.5126059],"aggregation":"none","score_gradboost":0.0425099,"score_random_forest":0.0207483,"score_logistic_regression":0.0074103,"score_fuzzy_knn_k29":0.1094083},"geometry":{"type":"Polygon","coordinates":[[[-72.3406448,-9.5152675],[-72.3325225,-9.5153452],[-72.3324701,-9.5099442],[-72.3405923,-9.5098665],[-72.3406448,-9.5152675]]]}},{"type":"Feature","id":"AC-Y428-X253","properties":{"id":"AC-Y428-X253","grid_x":253,"grid_y":428,"centroid":[-72.3284352,-9.5126834],"aggregation":"none","score_gradboost":0.0341954,"score_random_forest":0.0295283,"score_logistic_regression":0.0043696,"score_fuzzy_knn_k29":0.0218432},"geometry":{"type":"Polygon","coordinates":[[[-72.3325225,-9.5153452],[-72.3244001,-9.5154227],[-72.3243479,-9.5100216],[-72.3324701,-9.5099442],[-72.3325225,-9.5153452]]]}},{"type":"Feature","id":"AC-Y428-X254","properties":{"id":"AC-Y428-X254","grid_x":254,"grid_y":428,"centroid":[-72.3203128,-9.5127609],"aggregation":"none","score_gradboost":0.0273539,"score_random_forest":0.0075308,"score_logistic_regression":0.0056675,"score_fuzzy_knn_k29":0.0437204},"geometry":{"type":"Polygon","coordinates":[[[-72.3244001,-9.5154227],[-72.3162776,-9.5155],[-72.3162255,-9.5100989],[-72.3243479,-9.5100216],[-72.3244001,-9.5154227]]]}},{"type":"Feature","id":"AC-Y428-X255","properties":{"id":"AC-Y428-X255","grid_x":255,"grid_y":428,"centroid":[-72.3121904,-9.5128381],"aggregation":"none","score_gradboost":0.0097901,"score_random_forest":0.0034416,"score_logistic_regression":0.0050712,"score_fuzzy_knn_k29":0.0240255},"geometry":{"type":"Polygon","coordinates":[[[-72.3162776,-9.5155],[-72.3081551,-9.5155772],[-72.3081031,-9.510176],[-72.3162255,-9.5100989],[-72.3162776,-9.5155]]]}},{"type":"Feature","id":"AC-Y429-X252","properties":{"id":"AC-Y429-X252","grid_x":252,"grid_y":429,"centroid":[-72.336505,-9.5072048],"aggregation":"none","score_gradboost":0.0311295,"score_random_forest":0.0209619,"score_logistic_regression":0.005792,"score_fuzzy_knn_k29":0.070749},"geometry":{"type":"Polygon","coordinates":[[[-72.3405923,-9.5098665],[-72.3324701,-9.5099442],[-72.3324178,-9.5045431],[-72.3405399,-9.5044655],[-72.3405923,-9.5098665]]]}},{"type":"Feature","id":"AC-Y429-X253","properties":{"id":"AC-Y429-X253","grid_x":253,"grid_y":429,"centroid":[-72.3283829,-9.5072824],"aggregation":"none","score_gradboost":0.0341954,"score_random_forest":0.052968,"score_logistic_regression":0.0043834,"score_fuzzy_knn_k29":0.0187427},"geometry":{"type":"Polygon","coordinates":[[[-72.3324701,-9.5099442],[-72.3243479,-9.5100216],[-72.3242957,-9.5046205],[-72.3324178,-9.5045431],[-72.3324701,-9.5099442]]]}},{"type":"Feature","id":"AC-Y429-X254","properties":{"id":"AC-Y429-X254","grid_x":254,"grid_y":429,"centroid":[-72.3202606,-9.5073597],"aggregation":"none","score_gradboost":0.0273539,"score_random_forest":0.0040122,"score_logistic_regression":0.0039465,"score_fuzzy_knn_k29":0.0132171},"geometry":{"type":"Polygon","coordinates":[[[-72.3243479,-9.5100216],[-72.3162255,-9.5100989],[-72.3161735,-9.5046978],[-72.3242957,-9.5046205],[-72.3243479,-9.5100216]]]}},{"type":"Feature","id":"AC-Y429-X255","properties":{"id":"AC-Y429-X255","grid_x":255,"grid_y":429,"centroid":[-72.3121383,-9.5074369],"aggregation":"none","score_gradboost":0.0081503,"score_random_forest":0.0,"score_logistic_regression":0.0027113,"score_fuzzy_knn_k29":0.0},"geometry":{"type":"Polygon","coordinates":[[[-72.3162255,-9.5100989],[-72.3081031,-9.510176],[-72.3080512,-9.5047748],[-72.3161735,-9.5046978],[-72.3162255,-9.5100989]]]}},{"type":"Feature","id":"AC-Y430-X251","properties":{"id":"AC-Y430-X251","grid_x":251,"grid_y":430,"centroid":[-72.3445746,-9.5017261],"aggregation":"none","score_gradboost":0.025671,"score_random_forest":0.0225083,"score_logistic_regression":0.005708,"score_fuzzy_knn_k29":0.0441765},"geometry":{"type":"Polygon","coordinates":[[[-72.3486619,-9.5043877],[-72.3405399,-9.5044655],[-72.3404874,-9.4990645],[-72.3486093,-9.4989867],[-72.3486619,-9.5043877]]]}},{"type":"Feature","id":"AC-Y430-X252","properties":{"id":"AC-Y430-X252","grid_x":252,"grid_y":430,"centroid":[-72.3364527,-9.5018038],"aggregation":"none","score_gradboost":0.0268252,"score_random_forest":0.0256393,"score_logistic_regression":0.0060513,"score_fuzzy_knn_k29":0.0702984},"geometry":{"type":"Polygon","coordinates":[[[-72.3405399,-9.5044655],[-72.3324178,-9.5045431],[-72.3323655,-9.4991421],[-72.3404874,-9.4990645],[-72.3405399,-9.5044655]]]}},{"type":"Feature","id":"AC-Y430-X253","properties":{"id":"AC-Y430-X253","grid_x":253,"grid_y":430,"centroid":[-72.3283306,-9.5018813],"aggregation":"none","score_gradboost":0.0390114,"score_random_forest":0.1036245,"score_logistic_regression":0.0058718,"score_fuzzy_knn_k29":0.0617707},"geometry":{"type":"Polygon","coordinates":[[[-72.3324178,-9.5045431],[-72.3242957,-9.5046205],[-72.3242435,-9.4992195],[-72.3323655,-9.4991421],[-72.3324178,-9.5045431]]]}},{"type":"Feature","id":"AC-Y430-X254","properties":{"id":"AC-Y430-X254","grid_x":254,"grid_y":430,"centroid":[-72.3202085,-9.5019586],"aggregation":"none","score_gradboost":0.0181452,"score_random_forest":0.0094327,"score_logistic_regression":0.0057128,"score_fuzzy_knn_k29":0.020219},"geometry":{"type":"Polygon","coordinates":[[[-72.3242957,-9.5046205],[-72.3161735,-9.5046978],[-72.3161214,-9.4992967],[-72.3242435,-9.4992195],[-72.3242957,-9.5046205]]]}},{"type":"Feature","id":"AC-Y430-X255","properties":{"id":"AC-Y430-X255","grid_x":255,"grid_y":430,"centroid":[-72.3120863,-9.5020358],"aggregation":"none","score_gradboost":0.0067157,"score_random_forest":0.0,"score_logistic_regression":0.0055576,"score_fuzzy_knn_k29":0.0108222},"geometry":{"type":"Polygon","coordinates":[[[-72.3161735,-9.5046978],[-72.3080512,-9.5047748],[-72.3079993,-9.4993737],[-72.3161214,-9.4992967],[-72.3161735,-9.5046978]]]}},{"type":"Feature","id":"AC-Y431-X250","properties":{"id":"AC-Y431-X250","grid_x":250,"grid_y":431,"centroid":[-72.3526439,-9.4962473],"aggregation":"none","score_gradboost":0.0741271,"score_random_forest":0.0257495,"score_logistic_regression":0.0114102,"score_fuzzy_knn_k29":0.1276199},"geometry":{"type":"Polygon","coordinates":[[[-72.3567311,-9.4989088],[-72.3486093,-9.4989867],[-72.3485568,-9.4935858],[-72.3566785,-9.4935079],[-72.3567311,-9.4989088]]]}},{"type":"Feature","id":"AC-Y431-X251","properties":{"id":"AC-Y431-X251","grid_x":251,"grid_y":431,"centroid":[-72.3445222,-9.4963251],"aggregation":"none","score_gradboost":0.0268252,"score_random_forest":0.0243414,"score_logistic_regression":0.0055829,"score_fuzzy_knn_k29":0.0358956},"geometry":{"type":"Polygon","coordinates":[[[-72.3486093,-9.4989867],[-72.3404874,-9.4990645],[-72.3404351,-9.4936635],[-72.3485568,-9.4935858],[-72.3486093,-9.4989867]]]}},{"type":"Feature","id":"AC-Y431-X252","properties":{"id":"AC-Y431-X252","grid_x":252,"grid_y":431,"centroid":[-72.3364003,-9.4964028],"aggregation":"none","score_gradboost":0.0341954,"score_random_forest":0.0561995,"score_logistic_regression":0.0046892,"score_fuzzy_knn_k29":0.0180431},"geometry":{"type":"Polygon","coordinates":[[[-72.3404874,-9.4990645],[-72.3323655,-9.4991421],[-72.3323132,-9.493741],[-72.3404351,-9.4936635],[-72.3404874,-9.4990645]]]}},{"type":"Feature","id":"AC-Y431-X253","properties":{"id":"AC-Y431-X253","grid_x":253,"grid_y":431,"centroid":[-72.3282784,-9.4964803],"aggregation":"none","score_gradboost":0.0289022,"score_random_forest":0.0173367,"score_logistic_regression":0.0031896,"score_fuzzy_knn_k29":0.0048347},"geometry":{"type":"Polygon","coordinates":[[[-72.3323655,-9.4991421],[-72.3242435,-9.4992195],[-72.3241914,-9.4938184],[-72.3323132,-9.493741],[-72.3323655,-9.4991421]]]}},{"type":"Feature","id":"AC-Y431-X254","properties":{"id":"AC-Y431-X254","grid_x":254,"grid_y":431,"centroid":[-72.3201564,-9.4965575],"aggregation":"none","score_gradboost":0.0097901,"score_random_forest":0.0198249,"score_logistic_regression":0.0044634,"score_fuzzy_knn_k29":0.0145444},"geometry":{"type":"Polygon","coordinates":[[[-72.3242435,-9.4992195],[-72.3161214,-9.4992967],[-72.3160694,-9.4938955],[-72.3241914,-9.4938184],[-72.3242435,-9.4992195]]]}},{"type":"Feature","id":"AC-Y431-X255","properties":{"id":"AC-Y431-X255","grid_x":255,"grid_y":431,"centroid":[-72.3120344,-9.4966346],"aggregation":"none","score_gradboost":0.0061725,"score_random_forest":0.0,"score_logistic_regression":0.0026752,"score_fuzzy_knn_k29":0.0},"geometry":{"type":"Polygon","coordinates":[[[-72.3161214,-9.4992967],[-72.3079993,-9.4993737],[-72.3079474,-9.4939725],[-72.3160694,-9.4938955],[-72.3161214,-9.4992967]]]}},{"type":"Feature","id":"AC-Y432-X250","properties":{"id":"AC-Y432-X250","grid_x":250,"grid_y":432,"centroid":[-72.3525914,-9.4908464],"aggregation":"none","score_gradboost":0.0268252,"score_random_forest":0.0225743,"score_logistic_regression":0.0050584,"score_fuzzy_knn_k29":0.005992},"geometry":{"type":"Polygon","coordinates":[[[-72.3566785,-9.4935079],[-72.3485568,-9.4935858],[-72.3485043,-9.4881848],[-72.3566259,-9.488107],[-72.3566785,-9.4935079]]]}},{"type":"Feature","id":"AC-Y432-X251","properties":{"id":"AC-Y432-X251","grid_x":251,"grid_y":432,"centroid":[-72.3444697,-9.4909242],"aggregation":"none","score_gradboost":0.0511129,"score_random_forest":0.0586102,"score_logistic_regression":0.0077443,"score_fuzzy_knn_k29":0.0388528},"geometry":{"type":"Polygon","coordinates":[[[-72.3485568,-9.4935858],[-72.3404351,-9.4936635],[-72.3403827,-9.4882625],[-72.3485043,-9.4881848],[-72.3485568,-9.4935858]]]}},{"type":"Feature","id":"AC-Y432-X252","properties":{"id":"AC-Y432-X252","grid_x":252,"grid_y":432,"centroid":[-72.336348,-9.4910018],"aggregation":"none","score_gradboost":0.0437631,"score_random_forest":0.0179233,"score_logistic_regression":0.0067191,"score_fuzzy_knn_k29":0.0513141},"geometry":{"type":"Polygon","coordinates":[[[-72.3404351,-9.4936635],[-72.3323132,-9.493741],[-72.332261,-9.48834],[-72.3403827,-9.4882625],[-72.3404351,-9.4936635]]]}},{"type":"Feature","id":"AC-Y432-X253","properties":{"id":"AC-Y432-X253","grid_x":253,"grid_y":432,"centroid":[-72.3282262,-9.4910792],"aggregation":"none","score_gradboost":0.0273539,"score_random_forest":0.0029616,"score_logistic_regression":0.0027658,"score_fuzzy_knn_k29":0.0},"geometry":{"type":"Polygon","coordinates":[[[-72.3323132,-9.493741],[-72.3241914,-9.4938184],[-72.3241393,-9.4884173],[-72.332261,-9.48834],[-72.3323132,-9.493741]]]}},{"type":"Feature","id":"AC-Y432-X254","properties":{"id":"AC-Y432-X254","grid_x":254,"grid_y":432,"centroid":[-72.3201044,-9.4911564],"aggregation":"none","score_gradboost":0.0097901,"score_random_forest":0.0,"score_logistic_regression":0.0034329,"score_fuzzy_knn_k29":0.0},"geometry":{"type":"Polygon","coordinates":[[[-72.3241914,-9.4938184],[-72.3160694,-9.4938955],[-72.3160174,-9.4884944],[-72.3241393,-9.4884173],[-72.3241914,-9.4938184]]]}},{"type":"Feature","id":"AC-Y432-X255","properties":{"id":"AC-Y432-X255","grid_x":255,"grid_y":432,"centroid":[-72.3119825,-9.4912335],"aggregation":"none","score_gradboost":0.0059545,"score_random_forest":0.0,"score_logistic_regression":0.0032628,"score_fuzzy_knn_k29":0.0},"geometry":{"type":"Polygon","coordinates":[[[-72.3160694,-9.4938955],[-72.3079474,-9.4939725],[-72.3078955,-9.4885713],[-72.3160174,-9.4884944],[-72.3160694,-9.4938955]]]}},{"type":"Feature","id":"AC-Y433-X251","properties":{"id":"AC-Y433-X251","grid_x":251,"grid_y":433,"centroid":[-72.3444173,-9.4855232],"aggregation":"none","score_gradboost":0.0313935,"score_random_forest":0.0108626,"score_logistic_regression":0.0056513,"score_fuzzy_knn_k29":0.0236914},"geometry":{"type":"Polygon","coordinates":[[[-72.3485043,-9.4881848],[-72.3403827,-9.4882625],[-72.3403304,-9.4828615],[-72.3484519,-9.4827839],[-72.3485043,-9.4881848]]]}},{"type":"Feature","id":"AC-Y433-X252","properties":{"id":"AC-Y433-X252","grid_x":252,"grid_y":433,"centroid":[-72.3362957,-9.4856008],"aggregation":"none","score_gradboost":0.0273539,"score_random_forest":0.003239,"score_logistic_regression":0.005627,"score_fuzzy_knn_k29":0.0198169},"geometry":{"type":"Polygon","coordinates":[[[-72.3403827,-9.4882625],[-72.332261,-9.48834],[-72.3322088,-9.4829389],[-72.3403304,-9.4828615],[-72.3403827,-9.4882625]]]}},{"type":"Feature","id":"AC-Y433-X253","properties":{"id":"AC-Y433-X253","grid_x":253,"grid_y":433,"centroid":[-72.3281741,-9.4856781],"aggregation":"none","score_gradboost":0.0097901,"score_random_forest":0.0029176,"score_logistic_regression":0.0038969,"score_fuzzy_knn_k29":0.0103399},"geometry":{"type":"Polygon","coordinates":[[[-72.332261,-9.48834],[-72.3241393,-9.4884173],[-72.3240872,-9.4830162],[-72.3322088,-9.4829389],[-72.332261,-9.48834]]]}},{"type":"Feature","id":"AC-Y433-X254","properties":{"id":"AC-Y433-X254","grid_x":254,"grid_y":433,"centroid":[-72.3200523,-9.4857553],"aggregation":"none","score_gradboost":0.0067157,"score_random_forest":0.000516,"score_logistic_regression":0.0050085,"score_fuzzy_knn_k29":0.0},"geometry":{"type":"Polygon","coordinates":[[[-72.3241393,-9.4884173],[-72.3160174,-9.4884944],[-72.3159655,-9.4830933],[-72.3240872,-9.4830162],[-72.3241393,-9.4884173]]]}},{"type":"Feature","id":"AC-Y433-X255","properties":{"id":"AC-Y433-X255","grid_x":255,"grid_y":433,"centroid":[-72.3119306,-9.4858323],"aggregation":"none","score_gradboost":0.0059545,"score_random_forest":0.0,"score_logistic_regression":0.0030441,"score_fuzzy_knn_k29":0.0},"geometry":{"type":"Polygon","coordinates":[[[-72.3160174,-9.4884944],[-72.3078955,-9.4885713],[-72.3078437,-9.4831701],[-72.3159655,-9.4830933],[-72.3160174,-9.4884944]]]}},{"type":"Feature","id":"AC-Y434-X251","properties":{"id":"AC-Y434-X251","grid_x":251,"grid_y":434,"centroid":[-72.3443649,-9.4801222],"aggregation":"none","score_gradboost":0.0273539,"score_random_forest":0.002723,"score_logistic_regression":0.00619,"score_fuzzy_knn_k29":0.0196106},"geometry":{"type":"Polygon","coordinates":[[[-72.3484519,-9.4827839],[-72.3403304,-9.4828615],[-72.3402781,-9.4774605],[-72.3483994,-9.4773829],[-72.3484519,-9.4827839]]]}},{"type":"Feature","id":"AC-Y434-X252","properties":{"id":"AC-Y434-X252","grid_x":252,"grid_y":434,"centroid":[-72.3362435,-9.4801997],"aggregation":"none","score_gradboost":0.0097901,"score_random_forest":0.0024016,"score_logistic_regression":0.0042021,"score_fuzzy_knn_k29":0.0094527},"geometry":{"type":"Polygon","coordinates":[[[-72.3403304,-9.4828615],[-72.3322088,-9.4829389],[-72.3321566,-9.4775379],[-72.3402781,-9.4774605],[-72.3403304,-9.4828615]]]}},{"type":"Feature","id":"AC-Y434-X253","properties":{"id":"AC-Y434-X253","grid_x":253,"grid_y":434,"centroid":[-72.3281219,-9.4802771],"aggregation":"none","score_gradboost":0.0081503,"score_random_forest":0.000516,"score_logistic_regression":0.0055883,"score_fuzzy_knn_k29":0.0},"geometry":{"type":"Polygon","coordinates":[[[-72.3322088,-9.4829389],[-72.3240872,-9.4830162],[-72.3240351,-9.4776151],[-72.3321566,-9.4775379],[-72.3322088,-9.4829389]]]}},{"type":"Feature","id":"AC-Y434-X254","properties":{"id":"AC-Y434-X254","grid_x":254,"grid_y":434,"centroid":[-72.3200004,-9.4803542],"aggregation":"none","score_gradboost":0.0059545,"score_random_forest":0.000516,"score_logistic_regression":0.0045193,"score_fuzzy_knn_k29":0.0},"geometry":{"type":"Polygon","coordinates":[[[-72.3240872,-9.4830162],[-72.3159655,-9.4830933],[-72.3159136,-9.4776921],[-72.3240351,-9.4776151],[-72.3240872,-9.4830162]]]}},{"type":"Feature","id":"AC-Y435-X251","properties":{"id":"AC-Y435-X251","grid_x":251,"grid_y":435,"centroid":[-72.3443126,-9.4747212],"aggregation":"none","score_gradboost":0.0097901,"score_random_forest":0.0024016,"score_logistic_regression":0.0066553,"score_fuzzy_knn_k29":0.0143317},"geometry":{"type":"Polygon","coordinates":[[[-72.3483994,-9.4773829],[-72.3402781,-9.4774605],[-72.3402258,-9.4720595],[-72.348347,-9.4719819],[-72.3483994,-9.4773829]]]}},{"type":"Feature","id":"AC-Y435-X252","properties":{"id":"AC-Y435-X252","grid_x":252,"grid_y":435,"centroid":[-72.3361913,-9.4747987],"aggregation":"none","score_gradboost":0.0081503,"score_random_forest":0.0014228,"score_logistic_regression":0.0069105,"score_fuzzy_knn_k29":0.0},"geometry":{"type":"Polygon","coordinates":[[[-72.3402781,-9.4774605],[-72.3321566,-9.4775379],[-72.3321045,-9.4721368],[-72.3402258,-9.4720595],[-72.3402781,-9.4774605]]]}},{"type":"Feature","id":"AC-Y435-X253","properties":{"id":"AC-Y435-X253","grid_x":253,"grid_y":435,"centroid":[-72.3280699,-9.474876],"aggregation":"none","score_gradboost":0.0059545,"score_random_forest":0.0,"score_logistic_regression":0.0070104,"score_fuzzy_knn_k29":0.0},"geometry":{"type":"Polygon","coordinates":[[[-72.3321566,-9.4775379],[-72.3240351,-9.4776151],[-72.3239831,-9.472214],[-72.3321045,-9.4721368],[-72.3321566,-9.4775379]]]}},{"type":"Feature","id":"AC-Y436-X252","properties":{"id":"AC-Y436-X252","grid_x":252,"grid_y":436,"centroid":[-72.3361391,-9.4693977],"aggregation":"none","score_gradboost":0.0059545,"score_random_forest":0.0,"score_logistic_regression":0.0068722,"score_fuzzy_knn_k29":0.0},"geometry":{"type":"Polygon","coordinates":[[[-72.3402258,-9.4720595],[-72.3321045,-9.4721368],[-72.3320524,-9.4667358],[-72.3401736,-9.4666585],[-72.3402258,-9.4720595]]]}},{"type":"Feature","id":"AC-Y432-X246","properties":{"id":"AC-Y432-X246","grid_x":246,"grid_y":432,"centroid":[-72.3850772,-9.4905333],"aggregation":"none","score_gradboost":0.0510175,"score_random_forest":0.0420963,"score_logistic_regression":0.0100145,"score_fuzzy_knn_k29":0.0733326},"geometry":{"type":"Polygon","coordinates":[[[-72.3891645,-9.4931944],[-72.3810431,-9.493273],[-72.3809901,-9.4878722],[-72.3891113,-9.4877936],[-72.3891645,-9.4931944]]]}},{"type":"Feature","id":"AC-Y432-X247","properties":{"id":"AC-Y432-X247","grid_x":247,"grid_y":432,"centroid":[-72.3769559,-9.4906119],"aggregation":"none","score_gradboost":0.0744381,"score_random_forest":0.0512589,"score_logistic_regression":0.010299,"score_fuzzy_knn_k29":0.0953129},"geometry":{"type":"Polygon","coordinates":[[[-72.3810431,-9.493273],[-72.3729216,-9.4933515],[-72.3728687,-9.4879507],[-72.3809901,-9.4878722],[-72.3810431,-9.493273]]]}},{"type":"Feature","id":"AC-Y432-X249","properties":{"id":"AC-Y432-X249","grid_x":249,"grid_y":432,"centroid":[-72.3607129,-9.4907684],"aggregation":"none","score_gradboost":0.0311295,"score_random_forest":0.0294668,"score_logistic_regression":0.0067262,"score_fuzzy_knn_k29":0.0549059},"geometry":{"type":"Polygon","coordinates":[[[-72.3648001,-9.4934298],[-72.3566785,-9.4935079],[-72.3566259,-9.488107],[-72.3647473,-9.4880289],[-72.3648001,-9.4934298]]]}},{"type":"Feature","id":"AC-Y433-X229","properties":{"id":"AC-Y433-X229","grid_x":229,"grid_y":433,"centroid":[-72.5230743,-9.4837694],"aggregation":"none","score_gradboost":0.0675013,"score_random_forest":0.0668621,"score_logistic_regression":0.0132619,"score_fuzzy_knn_k29":0.0},"geometry":{"type":"Polygon","coordinates":[[[-72.5271619,-9.4864285],[-72.5190419,-9.4865103],[-72.5189868,-9.4811103],[-72.5271067,-9.4810286],[-72.5271619,-9.4864285]]]}},{"type":"Feature","id":"AC-Y433-X230","properties":{"id":"AC-Y433-X230","grid_x":230,"grid_y":433,"centroid":[-72.5149543,-9.4838511],"aggregation":"none","score_gradboost":0.0675013,"score_random_forest":0.0548861,"score_logistic_regression":0.0151377,"score_fuzzy_knn_k29":0.0176559},"geometry":{"type":"Polygon","coordinates":[[[-72.5190419,-9.4865103],[-72.5109218,-9.4865919],[-72.5108668,-9.4811919],[-72.5189868,-9.4811103],[-72.5190419,-9.4865103]]]}},{"type":"Feature","id":"AC-Y433-X231","properties":{"id":"AC-Y433-X231","grid_x":231,"grid_y":433,"centroid":[-72.5068342,-9.4839326],"aggregation":"none","score_gradboost":0.0675013,"score_random_forest":0.0475267,"score_logistic_regression":0.0149532,"score_fuzzy_knn_k29":0.0173976},"geometry":{"type":"Polygon","coordinates":[[[-72.5109218,-9.4865919],[-72.5028016,-9.4866733],[-72.5027467,-9.4812733],[-72.5108668,-9.4811919],[-72.5109218,-9.4865919]]]}},{"type":"Feature","id":"AC-Y433-X234","properties":{"id":"AC-Y433-X234","grid_x":234,"grid_y":433,"centroid":[-72.4824735,-9.484176],"aggregation":"none","score_gradboost":0.0537741,"score_random_forest":0.060327,"score_logistic_regression":0.0164562,"score_fuzzy_knn_k29":0.0389048},"geometry":{"type":"Polygon","coordinates":[[[-72.486561,-9.4868356],[-72.4784406,-9.4869165],[-72.4783861,-9.4815163],[-72.4865064,-9.4814355],[-72.486561,-9.4868356]]]}},{"type":"Feature","id":"AC-Y433-X236","properties":{"id":"AC-Y433-X236","grid_x":236,"grid_y":433,"centroid":[-72.4662327,-9.4843373],"aggregation":"none","score_gradboost":0.0339521,"score_random_forest":0.0226865,"score_logistic_regression":0.01211,"score_fuzzy_knn_k29":0.0171883},"geometry":{"type":"Polygon","coordinates":[[[-72.4703201,-9.4869972],[-72.4621995,-9.4870777],[-72.4621453,-9.4816774],[-72.4702657,-9.4815969],[-72.4703201,-9.4869972]]]}},{"type":"Feature","id":"AC-Y433-X237","properties":{"id":"AC-Y433-X237","grid_x":237,"grid_y":433,"centroid":[-72.4581121,-9.4844177],"aggregation":"none","score_gradboost":0.0339521,"score_random_forest":0.0229651,"score_logistic_regression":0.0121524,"score_fuzzy_knn_k29":0.0510898},"geometry":{"type":"Polygon","coordinates":[[[-72.4621995,-9.4870777],[-72.4540789,-9.487158],[-72.4540248,-9.4817576],[-72.4621453,-9.4816774],[-72.4621995,-9.4870777]]]}},{"type":"Feature","id":"AC-Y433-X245","properties":{"id":"AC-Y433-X245","grid_x":245,"grid_y":433,"centroid":[-72.3931454,-9.4850539],"aggregation":"none","score_gradboost":0.0797368,"score_random_forest":0.0438387,"score_logistic_regression":0.0118726,"score_fuzzy_knn_k29":0.1005862},"geometry":{"type":"Polygon","coordinates":[[[-72.3972325,-9.4877148],[-72.3891113,-9.4877936],[-72.3890582,-9.4823929],[-72.3971793,-9.4823141],[-72.3972325,-9.4877148]]]}},{"type":"Feature","id":"AC-Y433-X246","properties":{"id":"AC-Y433-X246","grid_x":246,"grid_y":433,"centroid":[-72.3850242,-9.4851326],"aggregation":"none","score_gradboost":0.0300974,"score_random_forest":0.0458375,"score_logistic_regression":0.0070389,"score_fuzzy_knn_k29":0.0301963},"geometry":{"type":"Polygon","coordinates":[[[-72.3891113,-9.4877936],[-72.3809901,-9.4878722],[-72.3809371,-9.4824715],[-72.3890582,-9.4823929],[-72.3891113,-9.4877936]]]}},{"type":"Feature","id":"AC-Y433-X247","properties":{"id":"AC-Y433-X247","grid_x":247,"grid_y":433,"centroid":[-72.376903,-9.4852111],"aggregation":"none","score_gradboost":0.0408613,"score_random_forest":0.0501694,"score_logistic_regression":0.0092805,"score_fuzzy_knn_k29":0.0447492},"geometry":{"type":"Polygon","coordinates":[[[-72.3809901,-9.4878722],[-72.3728687,-9.4879507],[-72.3728159,-9.4825499],[-72.3809371,-9.4824715],[-72.3809901,-9.4878722]]]}},{"type":"Feature","id":"AC-Y433-X248","properties":{"id":"AC-Y433-X248","grid_x":248,"grid_y":433,"centroid":[-72.3687817,-9.4852894],"aggregation":"none","score_gradboost":0.0543797,"score_random_forest":0.0473966,"score_logistic_regression":0.0089559,"score_fuzzy_knn_k29":0.0622101},"geometry":{"type":"Polygon","coordinates":[[[-72.3728687,-9.4879507],[-72.3647473,-9.4880289],[-72.3646946,-9.482628],[-72.3728159,-9.4825499],[-72.3728687,-9.4879507]]]}},{"type":"Feature","id":"AC-Y433-X249","properties":{"id":"AC-Y433-X249","grid_x":249,"grid_y":433,"centroid":[-72.3606603,-9.4853675],"aggregation":"none","score_gradboost":0.0268252,"score_random_forest":0.0313014,"score_logistic_regression":0.0050866,"score_fuzzy_knn_k29":0.0091098},"geometry":{"type":"Polygon","coordinates":[[[-72.3647473,-9.4880289],[-72.3566259,-9.488107],[-72.3565733,-9.482706],[-72.3646946,-9.482628],[-72.3647473,-9.4880289]]]}},{"type":"Feature","id":"AC-Y433-X250","properties":{"id":"AC-Y433-X250","grid_x":250,"grid_y":433,"centroid":[-72.3525388,-9.4854454],"aggregation":"none","score_gradboost":0.0341954,"score_random_forest":0.0306531,"score_logistic_regression":0.0059921,"score_fuzzy_knn_k29":0.0304311},"geometry":{"type":"Polygon","coordinates":[[[-72.3566259,-9.488107],[-72.3485043,-9.4881848],[-72.3484519,-9.4827839],[-72.3565733,-9.482706],[-72.3566259,-9.488107]]]}},{"type":"Feature","id":"AC-Y434-X229","properties":{"id":"AC-Y434-X229","grid_x":229,"grid_y":434,"centroid":[-72.5230192,-9.4783695],"aggregation":"none","score_gradboost":0.0523603,"score_random_forest":0.0450437,"score_logistic_regression":0.0116398,"score_fuzzy_knn_k29":0.0},"geometry":{"type":"Polygon","coordinates":[[[-72.5271067,-9.4810286],[-72.5189868,-9.4811103],[-72.5189317,-9.4757103],[-72.5270515,-9.4756286],[-72.5271067,-9.4810286]]]}},{"type":"Feature","id":"AC-Y434-X230","properties":{"id":"AC-Y434-X230","grid_x":230,"grid_y":434,"centroid":[-72.5148993,-9.4784511],"aggregation":"none","score_gradboost":0.032977,"score_random_forest":0.0424473,"score_logistic_regression":0.0109481,"score_fuzzy_knn_k29":0.0159825},"geometry":{"type":"Polygon","coordinates":[[[-72.5189868,-9.4811103],[-72.5108668,-9.4811919],[-72.5108118,-9.4757918],[-72.5189317,-9.4757103],[-72.5189868,-9.4811103]]]}},{"type":"Feature","id":"AC-Y434-X231","properties":{"id":"AC-Y434-X231","grid_x":231,"grid_y":434,"centroid":[-72.5067793,-9.4785326],"aggregation":"none","score_gradboost":0.032977,"score_random_forest":0.0429121,"score_logistic_regression":0.0092307,"score_fuzzy_knn_k29":0.0175259},"geometry":{"type":"Polygon","coordinates":[[[-72.5108668,-9.4811919],[-72.5027467,-9.4812733],[-72.5026919,-9.4758732],[-72.5108118,-9.4757918],[-72.5108668,-9.4811919]]]}},{"type":"Feature","id":"AC-Y434-X232","properties":{"id":"AC-Y434-X232","grid_x":232,"grid_y":434,"centroid":[-72.4986593,-9.4786138],"aggregation":"none","score_gradboost":0.0675013,"score_random_forest":0.0490784,"score_logistic_regression":0.0147107,"score_fuzzy_knn_k29":0.0170534},"geometry":{"type":"Polygon","coordinates":[[[-72.5027467,-9.4812733],[-72.4946266,-9.4813545],[-72.4945719,-9.4759543],[-72.5026919,-9.4758732],[-72.5027467,-9.4812733]]]}},{"type":"Feature","id":"AC-Y434-X233","properties":{"id":"AC-Y434-X233","grid_x":233,"grid_y":434,"centroid":[-72.4905392,-9.4786949],"aggregation":"none","score_gradboost":0.0675013,"score_random_forest":0.0612871,"score_logistic_regression":0.0161863,"score_fuzzy_knn_k29":0.0344822},"geometry":{"type":"Polygon","coordinates":[[[-72.4946266,-9.4813545],[-72.4865064,-9.4814355],[-72.4864518,-9.4760353],[-72.4945719,-9.4759543],[-72.4946266,-9.4813545]]]}},{"type":"Feature","id":"AC-Y434-X234","properties":{"id":"AC-Y434-X234","grid_x":234,"grid_y":434,"centroid":[-72.482419,-9.4787758],"aggregation":"none","score_gradboost":0.058852,"score_random_forest":0.0436935,"score_logistic_regression":0.0116125,"score_fuzzy_knn_k29":0.0},"geometry":{"type":"Polygon","coordinates":[[[-72.4865064,-9.4814355],[-72.4783861,-9.4815163],[-72.4783316,-9.4761161],[-72.4864518,-9.4760353],[-72.4865064,-9.4814355]]]}},{"type":"Feature","id":"AC-Y434-X235","properties":{"id":"AC-Y434-X235","grid_x":235,"grid_y":434,"centroid":[-72.4742987,-9.4788565],"aggregation":"none","score_gradboost":0.0287229,"score_random_forest":0.0426754,"score_logistic_regression":0.0071789,"score_fuzzy_knn_k29":0.0204996},"geometry":{"type":"Polygon","coordinates":[[[-72.4783861,-9.4815163],[-72.4702657,-9.4815969],[-72.4702114,-9.4761966],[-72.4783316,-9.4761161],[-72.4783861,-9.4815163]]]}},{"type":"Feature","id":"AC-Y434-X236","properties":{"id":"AC-Y434-X236","grid_x":236,"grid_y":434,"centroid":[-72.4661784,-9.478937],"aggregation":"none","score_gradboost":0.0235519,"score_random_forest":0.0196462,"score_logistic_regression":0.0085771,"score_fuzzy_knn_k29":0.0172149},"geometry":{"type":"Polygon","coordinates":[[[-72.4702657,-9.4815969],[-72.4621453,-9.4816774],[-72.4620911,-9.476277],[-72.4702114,-9.4761966],[-72.4702657,-9.4815969]]]}},{"type":"Feature","id":"AC-Y434-X237","properties":{"id":"AC-Y434-X237","grid_x":237,"grid_y":434,"centroid":[-72.458058,-9.4790173],"aggregation":"none","score_gradboost":0.0235519,"score_random_forest":0.0224612,"score_logistic_regression":0.0084276,"score_fuzzy_knn_k29":0.0177608},"geometry":{"type":"Polygon","coordinates":[[[-72.4621453,-9.4816774],[-72.4540248,-9.4817576],[-72.4539707,-9.4763572],[-72.4620911,-9.476277],[-72.4621453,-9.4816774]]]}},{"type":"Feature","id":"AC-Y434-X238","properties":{"id":"AC-Y434-X238","grid_x":238,"grid_y":434,"centroid":[-72.4499375,-9.4790975],"aggregation":"none","score_gradboost":0.0551596,"score_random_forest":0.0292142,"score_logistic_regression":0.0144543,"score_fuzzy_knn_k29":0.043431},"geometry":{"type":"Polygon","coordinates":[[[-72.4540248,-9.4817576],[-72.4459042,-9.4818377],[-72.4458503,-9.4764373],[-72.4539707,-9.4763572],[-72.4540248,-9.4817576]]]}},{"type":"Feature","id":"AC-Y434-X240","properties":{"id":"AC-Y434-X240","grid_x":240,"grid_y":434,"centroid":[-72.4336964,-9.4792572],"aggregation":"none","score_gradboost":0.0443537,"score_random_forest":0.0621739,"score_logistic_regression":0.0125619,"score_fuzzy_knn_k29":0.0624924},"geometry":{"type":"Polygon","coordinates":[[[-72.4377836,-9.4819176],[-72.4296629,-9.4819973],[-72.4296092,-9.4765967],[-72.4377298,-9.4765171],[-72.4377836,-9.4819176]]]}},{"type":"Feature","id":"AC-Y434-X241","properties":{"id":"AC-Y434-X241","grid_x":241,"grid_y":434,"centroid":[-72.4255757,-9.4793368],"aggregation":"none","score_gradboost":0.0610086,"score_random_forest":0.0641998,"score_logistic_regression":0.0123787,"score_fuzzy_knn_k29":0.0635603},"geometry":{"type":"Polygon","coordinates":[[[-72.4296629,-9.4819973],[-72.4215421,-9.4820768],[-72.4214885,-9.4766762],[-72.4296092,-9.4765967],[-72.4296629,-9.4819973]]]}},{"type":"Feature","id":"AC-Y434-X242","properties":{"id":"AC-Y434-X242","grid_x":242,"grid_y":434,"centroid":[-72.4174549,-9.4794162],"aggregation":"none","score_gradboost":0.0551596,"score_random_forest":0.031796,"score_logistic_regression":0.013137,"score_fuzzy_knn_k29":0.070558},"geometry":{"type":"Polygon","coordinates":[[[-72.4215421,-9.4820768],[-72.4134212,-9.4821561],[-72.4133678,-9.4767555],[-72.4214885,-9.4766762],[-72.4215421,-9.4820768]]]}},{"type":"Feature","id":"AC-Y434-X244","properties":{"id":"AC-Y434-X244","grid_x":244,"grid_y":434,"centroid":[-72.4012132,-9.4795744],"aggregation":"none","score_gradboost":0.0401083,"score_random_forest":0.0308992,"score_logistic_regression":0.0095986,"score_fuzzy_knn_k29":0.0522769},"geometry":{"type":"Polygon","coordinates":[[[-72.4053003,-9.4822352],[-72.3971793,-9.4823141],[-72.3971261,-9.4769135],[-72.405247,-9.4768346],[-72.4053003,-9.4822352]]]}},{"type":"Feature","id":"AC-Y434-X245","properties":{"id":"AC-Y434-X245","grid_x":245,"grid_y":434,"centroid":[-72.3930922,-9.4796532],"aggregation":"none","score_gradboost":0.0262256,"score_random_forest":0.0321421,"score_logistic_regression":0.0051959,"score_fuzzy_knn_k29":0.0120972},"geometry":{"type":"Polygon","coordinates":[[[-72.3971793,-9.4823141],[-72.3890582,-9.4823929],[-72.3890052,-9.4769922],[-72.3971261,-9.4769135],[-72.3971793,-9.4823141]]]}},{"type":"Feature","id":"AC-Y434-X246","properties":{"id":"AC-Y434-X246","grid_x":246,"grid_y":434,"centroid":[-72.3849712,-9.4797318],"aggregation":"none","score_gradboost":0.0518823,"score_random_forest":0.0359308,"score_logistic_regression":0.0081703,"score_fuzzy_knn_k29":0.0380709},"geometry":{"type":"Polygon","coordinates":[[[-72.3890582,-9.4823929],[-72.3809371,-9.4824715],[-72.3808842,-9.4770707],[-72.3890052,-9.4769922],[-72.3890582,-9.4823929]]]}},{"type":"Feature","id":"AC-Y434-X247","properties":{"id":"AC-Y434-X247","grid_x":247,"grid_y":434,"centroid":[-72.3768501,-9.4798103],"aggregation":"none","score_gradboost":0.0390142,"score_random_forest":0.0770503,"score_logistic_regression":0.0051973,"score_fuzzy_knn_k29":0.0117677},"geometry":{"type":"Polygon","coordinates":[[[-72.3809371,-9.4824715],[-72.3728159,-9.4825499],[-72.3727631,-9.477149],[-72.3808842,-9.4770707],[-72.3809371,-9.4824715]]]}},{"type":"Feature","id":"AC-Y434-X248","properties":{"id":"AC-Y434-X248","grid_x":248,"grid_y":434,"centroid":[-72.3687289,-9.4798885],"aggregation":"none","score_gradboost":0.0518823,"score_random_forest":0.0579191,"score_logistic_regression":0.0073907,"score_fuzzy_knn_k29":0.0445678},"geometry":{"type":"Polygon","coordinates":[[[-72.3728159,-9.4825499],[-72.3646946,-9.482628],[-72.3646419,-9.4772272],[-72.3727631,-9.477149],[-72.3728159,-9.4825499]]]}},{"type":"Feature","id":"AC-Y434-X249","properties":{"id":"AC-Y434-X249","grid_x":249,"grid_y":434,"centroid":[-72.3606076,-9.4799666],"aggregation":"none","score_gradboost":0.0553152,"score_random_forest":0.071392,"score_logistic_regression":0.0080304,"score_fuzzy_knn_k29":0.0388609},"geometry":{"type":"Polygon","coordinates":[[[-72.3646946,-9.482628],[-72.3565733,-9.482706],[-72.3565207,-9.4773051],[-72.3646419,-9.4772272],[-72.3646946,-9.482628]]]}},{"type":"Feature","id":"AC-Y434-X250","properties":{"id":"AC-Y434-X250","grid_x":250,"grid_y":434,"centroid":[-72.3524863,-9.4800445],"aggregation":"none","score_gradboost":0.0437631,"score_random_forest":0.0130605,"score_logistic_regression":0.0073959,"score_fuzzy_knn_k29":0.0411558},"geometry":{"type":"Polygon","coordinates":[[[-72.3565733,-9.482706],[-72.3484519,-9.4827839],[-72.3483994,-9.4773829],[-72.3565207,-9.4773051],[-72.3565733,-9.482706]]]}},{"type":"Feature","id":"AC-Y435-X229","properties":{"id":"AC-Y435-X229","grid_x":229,"grid_y":435,"centroid":[-72.522964,-9.4729695],"aggregation":"none","score_gradboost":0.0413903,"score_random_forest":0.0484137,"score_logistic_regression":0.0129992,"score_fuzzy_knn_k29":0.0},"geometry":{"type":"Polygon","coordinates":[[[-72.5270515,-9.4756286],[-72.5189317,-9.4757103],[-72.5188766,-9.4703103],[-72.5269963,-9.4702287],[-72.5270515,-9.4756286]]]}},{"type":"Feature","id":"AC-Y435-X230","properties":{"id":"AC-Y435-X230","grid_x":230,"grid_y":435,"centroid":[-72.5148443,-9.4730511],"aggregation":"none","score_gradboost":0.040373,"score_random_forest":0.0862213,"score_logistic_regression":0.0099708,"score_fuzzy_knn_k29":0.0144794},"geometry":{"type":"Polygon","coordinates":[[[-72.5189317,-9.4757103],[-72.5108118,-9.4757918],[-72.5107569,-9.4703918],[-72.5188766,-9.4703103],[-72.5189317,-9.4757103]]]}},{"type":"Feature","id":"AC-Y435-X231","properties":{"id":"AC-Y435-X231","grid_x":231,"grid_y":435,"centroid":[-72.5067244,-9.4731325],"aggregation":"none","score_gradboost":0.0505745,"score_random_forest":0.0523511,"score_logistic_regression":0.0129881,"score_fuzzy_knn_k29":0.0},"geometry":{"type":"Polygon","coordinates":[[[-72.5108118,-9.4757918],[-72.5026919,-9.4758732],[-72.5026371,-9.4704731],[-72.5107569,-9.4703918],[-72.5108118,-9.4757918]]]}},{"type":"Feature","id":"AC-Y435-X232","properties":{"id":"AC-Y435-X232","grid_x":232,"grid_y":435,"centroid":[-72.4986045,-9.4732137],"aggregation":"none","score_gradboost":0.0398197,"score_random_forest":0.0494905,"score_logistic_regression":0.0114888,"score_fuzzy_knn_k29":0.0},"geometry":{"type":"Polygon","coordinates":[[[-72.5026919,-9.4758732],[-72.4945719,-9.4759543],[-72.4945172,-9.4705542],[-72.5026371,-9.4704731],[-72.5026919,-9.4758732]]]}},{"type":"Feature","id":"AC-Y435-X233","properties":{"id":"AC-Y435-X233","grid_x":233,"grid_y":435,"centroid":[-72.4904845,-9.4732947],"aggregation":"none","score_gradboost":0.032977,"score_random_forest":0.0381293,"score_logistic_regression":0.0100416,"score_fuzzy_knn_k29":0.0167738},"geometry":{"type":"Polygon","coordinates":[[[-72.4945719,-9.4759543],[-72.4864518,-9.4760353],[-72.4863972,-9.4706351],[-72.4945172,-9.4705542],[-72.4945719,-9.4759543]]]}},{"type":"Feature","id":"AC-Y435-X234","properties":{"id":"AC-Y435-X234","grid_x":234,"grid_y":435,"centroid":[-72.4823645,-9.4733756],"aggregation":"none","score_gradboost":0.0288631,"score_random_forest":0.0453761,"score_logistic_regression":0.0078602,"score_fuzzy_knn_k29":0.01782},"geometry":{"type":"Polygon","coordinates":[[[-72.4864518,-9.4760353],[-72.4783316,-9.4761161],[-72.4782772,-9.4707158],[-72.4863972,-9.4706351],[-72.4864518,-9.4760353]]]}},{"type":"Feature","id":"AC-Y435-X235","properties":{"id":"AC-Y435-X235","grid_x":235,"grid_y":435,"centroid":[-72.4742443,-9.4734562],"aggregation":"none","score_gradboost":0.0300506,"score_random_forest":0.0254698,"score_logistic_regression":0.0088233,"score_fuzzy_knn_k29":0.013852},"geometry":{"type":"Polygon","coordinates":[[[-72.4783316,-9.4761161],[-72.4702114,-9.4761966],[-72.4701571,-9.4707964],[-72.4782772,-9.4707158],[-72.4783316,-9.4761161]]]}},{"type":"Feature","id":"AC-Y435-X236","properties":{"id":"AC-Y435-X236","grid_x":236,"grid_y":435,"centroid":[-72.4661241,-9.4735367],"aggregation":"none","score_gradboost":0.0300506,"score_random_forest":0.0577511,"score_logistic_regression":0.0069519,"score_fuzzy_knn_k29":0.003691},"geometry":{"type":"Polygon","coordinates":[[[-72.4702114,-9.4761966],[-72.4620911,-9.476277],[-72.4620369,-9.4708767],[-72.4701571,-9.4707964],[-72.4702114,-9.4761966]]]}},{"type":"Feature","id":"AC-Y435-X237","properties":{"id":"AC-Y435-X237","grid_x":237,"grid_y":435,"centroid":[-72.4580039,-9.473617],"aggregation":"none","score_gradboost":0.0300506,"score_random_forest":0.0589231,"score_logistic_regression":0.0063054,"score_fuzzy_knn_k29":0.0071461},"geometry":{"type":"Polygon","coordinates":[[[-72.4620911,-9.476277],[-72.4539707,-9.4763572],[-72.4539167,-9.4709569],[-72.4620369,-9.4708767],[-72.4620911,-9.476277]]]}},{"type":"Feature","id":"AC-Y435-X238","properties":{"id":"AC-Y435-X238","grid_x":238,"grid_y":435,"centroid":[-72.4498835,-9.4736971],"aggregation":"none","score_gradboost":0.033694,"score_random_forest":0.0259338,"score_logistic_regression":0.0131153,"score_fuzzy_knn_k29":0.0336257},"geometry":{"type":"Polygon","coordinates":[[[-72.4539707,-9.4763572],[-72.4458503,-9.4764373],[-72.4457964,-9.4710369],[-72.4539167,-9.4709569],[-72.4539707,-9.4763572]]]}},{"type":"Feature","id":"AC-Y435-X239","properties":{"id":"AC-Y435-X239","grid_x":239,"grid_y":435,"centroid":[-72.4417631,-9.473777],"aggregation":"none","score_gradboost":0.0406199,"score_random_forest":0.0230399,"score_logistic_regression":0.0110332,"score_fuzzy_knn_k29":0.0144661},"geometry":{"type":"Polygon","coordinates":[[[-72.4458503,-9.4764373],[-72.4377298,-9.4765171],[-72.437676,-9.4711166],[-72.4457964,-9.4710369],[-72.4458503,-9.4764373]]]}},{"type":"Feature","id":"AC-Y435-X240","properties":{"id":"AC-Y435-X240","grid_x":240,"grid_y":435,"centroid":[-72.4336426,-9.4738567],"aggregation":"none","score_gradboost":0.0235519,"score_random_forest":0.0187467,"score_logistic_regression":0.0076328,"score_fuzzy_knn_k29":0.0181523},"geometry":{"type":"Polygon","coordinates":[[[-72.4377298,-9.4765171],[-72.4296092,-9.4765967],[-72.4295555,-9.4711962],[-72.437676,-9.4711166],[-72.4377298,-9.4765171]]]}},{"type":"Feature","id":"AC-Y435-X241","properties":{"id":"AC-Y435-X241","grid_x":241,"grid_y":435,"centroid":[-72.4255221,-9.4739362],"aggregation":"none","score_gradboost":0.0235519,"score_random_forest":0.0277076,"score_logistic_regression":0.0084207,"score_fuzzy_knn_k29":0.0204958},"geometry":{"type":"Polygon","coordinates":[[[-72.4296092,-9.4765967],[-72.4214885,-9.4766762],[-72.421435,-9.4712757],[-72.4295555,-9.4711962],[-72.4296092,-9.4765967]]]}},{"type":"Feature","id":"AC-Y435-X242","properties":{"id":"AC-Y435-X242","grid_x":242,"grid_y":435,"centroid":[-72.4174014,-9.4740156],"aggregation":"none","score_gradboost":0.0317151,"score_random_forest":0.024226,"score_logistic_regression":0.0092705,"score_fuzzy_knn_k29":0.0305267},"geometry":{"type":"Polygon","coordinates":[[[-72.4214885,-9.4766762],[-72.4133678,-9.4767555],[-72.4133144,-9.4713549],[-72.421435,-9.4712757],[-72.4214885,-9.4766762]]]}},{"type":"Feature","id":"AC-Y435-X243","properties":{"id":"AC-Y435-X243","grid_x":243,"grid_y":435,"centroid":[-72.4092807,-9.4740947],"aggregation":"none","score_gradboost":0.0499508,"score_random_forest":0.0273271,"score_logistic_regression":0.0114587,"score_fuzzy_knn_k29":0.0604646},"geometry":{"type":"Polygon","coordinates":[[[-72.4133678,-9.4767555],[-72.405247,-9.4768346],[-72.4051937,-9.4714339],[-72.4133144,-9.4713549],[-72.4133678,-9.4767555]]]}},{"type":"Feature","id":"AC-Y435-X244","properties":{"id":"AC-Y435-X244","grid_x":244,"grid_y":435,"centroid":[-72.40116,-9.4741737],"aggregation":"none","score_gradboost":0.047968,"score_random_forest":0.0287916,"score_logistic_regression":0.0091609,"score_fuzzy_knn_k29":0.0336568},"geometry":{"type":"Polygon","coordinates":[[[-72.405247,-9.4768346],[-72.3971261,-9.4769135],[-72.397073,-9.4715128],[-72.4051937,-9.4714339],[-72.405247,-9.4768346]]]}},{"type":"Feature","id":"AC-Y435-X245","properties":{"id":"AC-Y435-X245","grid_x":245,"grid_y":435,"centroid":[-72.3930391,-9.4742525],"aggregation":"none","score_gradboost":0.0334367,"score_random_forest":0.0551245,"score_logistic_regression":0.0052648,"score_fuzzy_knn_k29":0.010944},"geometry":{"type":"Polygon","coordinates":[[[-72.3971261,-9.4769135],[-72.3890052,-9.4769922],[-72.3889522,-9.4715914],[-72.397073,-9.4715128],[-72.3971261,-9.4769135]]]}},{"type":"Feature","id":"AC-Y435-X246","properties":{"id":"AC-Y435-X246","grid_x":246,"grid_y":435,"centroid":[-72.3849182,-9.4743311],"aggregation":"none","score_gradboost":0.0461201,"score_random_forest":0.0364382,"score_logistic_regression":0.0094973,"score_fuzzy_knn_k29":0.0123562},"geometry":{"type":"Polygon","coordinates":[[[-72.3890052,-9.4769922],[-72.3808842,-9.4770707],[-72.3808313,-9.4716699],[-72.3889522,-9.4715914],[-72.3890052,-9.4769922]]]}},{"type":"Feature","id":"AC-Y435-X247","properties":{"id":"AC-Y435-X247","grid_x":247,"grid_y":435,"centroid":[-72.3767972,-9.4744095],"aggregation":"none","score_gradboost":0.027475,"score_random_forest":0.0100014,"score_logistic_regression":0.0058255,"score_fuzzy_knn_k29":0.0081806},"geometry":{"type":"Polygon","coordinates":[[[-72.3808842,-9.4770707],[-72.3727631,-9.477149],[-72.3727103,-9.4717482],[-72.3808313,-9.4716699],[-72.3808842,-9.4770707]]]}},{"type":"Feature","id":"AC-Y435-X248","properties":{"id":"AC-Y435-X248","grid_x":248,"grid_y":435,"centroid":[-72.3686762,-9.4744877],"aggregation":"none","score_gradboost":0.0315319,"score_random_forest":0.0214481,"score_logistic_regression":0.0065853,"score_fuzzy_knn_k29":0.0201401},"geometry":{"type":"Polygon","coordinates":[[[-72.3727631,-9.477149],[-72.3646419,-9.4772272],[-72.3645893,-9.4718263],[-72.3727103,-9.4717482],[-72.3727631,-9.477149]]]}},{"type":"Feature","id":"AC-Y435-X249","properties":{"id":"AC-Y435-X249","grid_x":249,"grid_y":435,"centroid":[-72.360555,-9.4745657],"aggregation":"none","score_gradboost":0.02903,"score_random_forest":0.019854,"score_logistic_regression":0.0053446,"score_fuzzy_knn_k29":0.0104131},"geometry":{"type":"Polygon","coordinates":[[[-72.3646419,-9.4772272],[-72.3565207,-9.4773051],[-72.3564682,-9.4719042],[-72.3645893,-9.4718263],[-72.3646419,-9.4772272]]]}},{"type":"Feature","id":"AC-Y435-X250","properties":{"id":"AC-Y435-X250","grid_x":250,"grid_y":435,"centroid":[-72.3524339,-9.4746436],"aggregation":"none","score_gradboost":0.0248727,"score_random_forest":0.011153,"score_logistic_regression":0.0096738,"score_fuzzy_knn_k29":0.0456385},"geometry":{"type":"Polygon","coordinates":[[[-72.3565207,-9.4773051],[-72.3483994,-9.4773829],[-72.348347,-9.4719819],[-72.3564682,-9.4719042],[-72.3565207,-9.4773051]]]}},{"type":"Feature","id":"AC-Y436-X226","properties":{"id":"AC-Y436-X226","grid_x":226,"grid_y":436,"centroid":[-72.5472674,-9.4673238],"aggregation":"none","score_gradboost":0.1985208,"score_random_forest":0.1238575,"score_logistic_regression":0.0253756,"score_fuzzy_knn_k29":0.0188022},"geometry":{"type":"Polygon","coordinates":[[[-72.5513549,-9.4699826],[-72.5432354,-9.4700648],[-72.54318,-9.4646649],[-72.5512993,-9.4645828],[-72.5513549,-9.4699826]]]}},{"type":"Feature","id":"AC-Y436-X227","properties":{"id":"AC-Y436-X227","grid_x":227,"grid_y":436,"centroid":[-72.539148,-9.4674059],"aggregation":"none","score_gradboost":0.0675013,"score_random_forest":0.05618,"score_logistic_regression":0.0156107,"score_fuzzy_knn_k29":0.0165883},"geometry":{"type":"Polygon","coordinates":[[[-72.5432354,-9.4700648],[-72.5351159,-9.4701468],[-72.5350606,-9.4647469],[-72.54318,-9.4646649],[-72.5432354,-9.4700648]]]}},{"type":"Feature","id":"AC-Y436-X228","properties":{"id":"AC-Y436-X228","grid_x":228,"grid_y":436,"centroid":[-72.5310285,-9.4674878],"aggregation":"none","score_gradboost":0.0982829,"score_random_forest":0.0596673,"score_logistic_regression":0.0158932,"score_fuzzy_knn_k29":0.0},"geometry":{"type":"Polygon","coordinates":[[[-72.5351159,-9.4701468],[-72.5269963,-9.4702287],[-72.5269412,-9.4648287],[-72.5350606,-9.4647469],[-72.5351159,-9.4701468]]]}},{"type":"Feature","id":"AC-Y436-X229","properties":{"id":"AC-Y436-X229","grid_x":229,"grid_y":436,"centroid":[-72.5229089,-9.4675695],"aggregation":"none","score_gradboost":0.040373,"score_random_forest":0.0491862,"score_logistic_regression":0.0100612,"score_fuzzy_knn_k29":0.0},"geometry":{"type":"Polygon","coordinates":[[[-72.5269963,-9.4702287],[-72.5188766,-9.4703103],[-72.5188216,-9.4649103],[-72.5269412,-9.4648287],[-72.5269963,-9.4702287]]]}},{"type":"Feature","id":"AC-Y436-X230","properties":{"id":"AC-Y436-X230","grid_x":230,"grid_y":436,"centroid":[-72.5147893,-9.4676511],"aggregation":"none","score_gradboost":0.0282631,"score_random_forest":0.0197284,"score_logistic_regression":0.0111849,"score_fuzzy_knn_k29":0.0},"geometry":{"type":"Polygon","coordinates":[[[-72.5188766,-9.4703103],[-72.5107569,-9.4703918],[-72.510702,-9.4649918],[-72.5188216,-9.4649103],[-72.5188766,-9.4703103]]]}},{"type":"Feature","id":"AC-Y436-X231","properties":{"id":"AC-Y436-X231","grid_x":231,"grid_y":436,"centroid":[-72.5066696,-9.4677324],"aggregation":"none","score_gradboost":0.0260144,"score_random_forest":0.0273866,"score_logistic_regression":0.0088399,"score_fuzzy_knn_k29":0.0},"geometry":{"type":"Polygon","coordinates":[[[-72.5107569,-9.4703918],[-72.5026371,-9.4704731],[-72.5025823,-9.465073],[-72.510702,-9.4649918],[-72.5107569,-9.4703918]]]}},{"type":"Feature","id":"AC-Y436-X232","properties":{"id":"AC-Y436-X232","grid_x":232,"grid_y":436,"centroid":[-72.4985498,-9.4678136],"aggregation":"none","score_gradboost":0.0498927,"score_random_forest":0.1014161,"score_logistic_regression":0.0104603,"score_fuzzy_knn_k29":0.0138239},"geometry":{"type":"Polygon","coordinates":[[[-72.5026371,-9.4704731],[-72.4945172,-9.4705542],[-72.4944626,-9.4651541],[-72.5025823,-9.465073],[-72.5026371,-9.4704731]]]}},{"type":"Feature","id":"AC-Y436-X233","properties":{"id":"AC-Y436-X233","grid_x":233,"grid_y":436,"centroid":[-72.4904299,-9.4678946],"aggregation":"none","score_gradboost":0.043079,"score_random_forest":0.0637905,"score_logistic_regression":0.0120881,"score_fuzzy_knn_k29":0.0083523},"geometry":{"type":"Polygon","coordinates":[[[-72.4945172,-9.4705542],[-72.4863972,-9.4706351],[-72.4863427,-9.4652349],[-72.4944626,-9.4651541],[-72.4945172,-9.4705542]]]}},{"type":"Feature","id":"AC-Y436-X234","properties":{"id":"AC-Y436-X234","grid_x":234,"grid_y":436,"centroid":[-72.48231,-9.4679754],"aggregation":"none","score_gradboost":0.0901709,"score_random_forest":0.0946652,"score_logistic_regression":0.0155549,"score_fuzzy_knn_k29":0.0157219},"geometry":{"type":"Polygon","coordinates":[[[-72.4863972,-9.4706351],[-72.4782772,-9.4707158],[-72.4782228,-9.4653156],[-72.4863427,-9.4652349],[-72.4863972,-9.4706351]]]}},{"type":"Feature","id":"AC-Y436-X235","properties":{"id":"AC-Y436-X235","grid_x":235,"grid_y":436,"centroid":[-72.47419,-9.468056],"aggregation":"none","score_gradboost":0.032489,"score_random_forest":0.0128633,"score_logistic_regression":0.0129739,"score_fuzzy_knn_k29":0.0},"geometry":{"type":"Polygon","coordinates":[[[-72.4782772,-9.4707158],[-72.4701571,-9.4707964],[-72.4701029,-9.4653961],[-72.4782228,-9.4653156],[-72.4782772,-9.4707158]]]}},{"type":"Feature","id":"AC-Y436-X236","properties":{"id":"AC-Y436-X236","grid_x":236,"grid_y":436,"centroid":[-72.4660699,-9.4681364],"aggregation":"none","score_gradboost":0.026748,"score_random_forest":0.0109269,"score_logistic_regression":0.0112329,"score_fuzzy_knn_k29":0.0},"geometry":{"type":"Polygon","coordinates":[[[-72.4701571,-9.4707964],[-72.4620369,-9.4708767],[-72.4619828,-9.4654764],[-72.4701029,-9.4653961],[-72.4701571,-9.4707964]]]}},{"type":"Feature","id":"AC-Y436-X237","properties":{"id":"AC-Y436-X237","grid_x":237,"grid_y":436,"centroid":[-72.4579498,-9.4682166],"aggregation":"none","score_gradboost":0.0239395,"score_random_forest":0.0130159,"score_logistic_regression":0.0092555,"score_fuzzy_knn_k29":0.0105041},"geometry":{"type":"Polygon","coordinates":[[[-72.4620369,-9.4708767],[-72.4539167,-9.4709569],[-72.4538627,-9.4655565],[-72.4619828,-9.4654764],[-72.4620369,-9.4708767]]]}},{"type":"Feature","id":"AC-Y436-X238","properties":{"id":"AC-Y436-X238","grid_x":238,"grid_y":436,"centroid":[-72.4498296,-9.4682967],"aggregation":"none","score_gradboost":0.043079,"score_random_forest":0.0579466,"score_logistic_regression":0.011888,"score_fuzzy_knn_k29":0.0098838},"geometry":{"type":"Polygon","coordinates":[[[-72.4539167,-9.4709569],[-72.4457964,-9.4710369],[-72.4457425,-9.4656364],[-72.4538627,-9.4655565],[-72.4539167,-9.4709569]]]}},{"type":"Feature","id":"AC-Y436-X239","properties":{"id":"AC-Y436-X239","grid_x":239,"grid_y":436,"centroid":[-72.4417093,-9.4683766],"aggregation":"none","score_gradboost":0.0288631,"score_random_forest":0.0333463,"score_logistic_regression":0.0089445,"score_fuzzy_knn_k29":0.017415},"geometry":{"type":"Polygon","coordinates":[[[-72.4457964,-9.4710369],[-72.437676,-9.4711166],[-72.4376222,-9.4657162],[-72.4457425,-9.4656364],[-72.4457964,-9.4710369]]]}},{"type":"Feature","id":"AC-Y436-X240","properties":{"id":"AC-Y436-X240","grid_x":240,"grid_y":436,"centroid":[-72.4335889,-9.4684562],"aggregation":"none","score_gradboost":0.040373,"score_random_forest":0.0517721,"score_logistic_regression":0.0099535,"score_fuzzy_knn_k29":0.0141427},"geometry":{"type":"Polygon","coordinates":[[[-72.437676,-9.4711166],[-72.4295555,-9.4711962],[-72.4295019,-9.4657957],[-72.4376222,-9.4657162],[-72.437676,-9.4711166]]]}},{"type":"Feature","id":"AC-Y436-X241","properties":{"id":"AC-Y436-X241","grid_x":241,"grid_y":436,"centroid":[-72.4254685,-9.4685357],"aggregation":"none","score_gradboost":0.0481663,"score_random_forest":0.0581167,"score_logistic_regression":0.010812,"score_fuzzy_knn_k29":0.0077275},"geometry":{"type":"Polygon","coordinates":[[[-72.4295555,-9.4711962],[-72.421435,-9.4712757],[-72.4213815,-9.4658751],[-72.4295019,-9.4657957],[-72.4295555,-9.4711962]]]}},{"type":"Feature","id":"AC-Y436-X242","properties":{"id":"AC-Y436-X242","grid_x":242,"grid_y":436,"centroid":[-72.417348,-9.468615],"aggregation":"none","score_gradboost":0.0330979,"score_random_forest":0.0620748,"score_logistic_regression":0.0069447,"score_fuzzy_knn_k29":0.0110945},"geometry":{"type":"Polygon","coordinates":[[[-72.421435,-9.4712757],[-72.4133144,-9.4713549],[-72.413261,-9.4659543],[-72.4213815,-9.4658751],[-72.421435,-9.4712757]]]}},{"type":"Feature","id":"AC-Y436-X243","properties":{"id":"AC-Y436-X243","grid_x":243,"grid_y":436,"centroid":[-72.4092274,-9.4686941],"aggregation":"none","score_gradboost":0.038794,"score_random_forest":0.0326041,"score_logistic_regression":0.0096432,"score_fuzzy_knn_k29":0.0287159},"geometry":{"type":"Polygon","coordinates":[[[-72.4133144,-9.4713549],[-72.4051937,-9.4714339],[-72.4051405,-9.4660333],[-72.413261,-9.4659543],[-72.4133144,-9.4713549]]]}},{"type":"Feature","id":"AC-Y436-X244","properties":{"id":"AC-Y436-X244","grid_x":244,"grid_y":436,"centroid":[-72.4011068,-9.468773],"aggregation":"none","score_gradboost":0.0334367,"score_random_forest":0.0249485,"score_logistic_regression":0.006115,"score_fuzzy_knn_k29":0.0109742},"geometry":{"type":"Polygon","coordinates":[[[-72.4051937,-9.4714339],[-72.397073,-9.4715128],[-72.3970199,-9.4661121],[-72.4051405,-9.4660333],[-72.4051937,-9.4714339]]]}},{"type":"Feature","id":"AC-Y436-X245","properties":{"id":"AC-Y436-X245","grid_x":245,"grid_y":436,"centroid":[-72.3929861,-9.4688518],"aggregation":"none","score_gradboost":0.0461201,"score_random_forest":0.0315168,"score_logistic_regression":0.0089502,"score_fuzzy_knn_k29":0.0265928},"geometry":{"type":"Polygon","coordinates":[[[-72.397073,-9.4715128],[-72.3889522,-9.4715914],[-72.3888992,-9.4661907],[-72.3970199,-9.4661121],[-72.397073,-9.4715128]]]}},{"type":"Feature","id":"AC-Y436-X246","properties":{"id":"AC-Y436-X246","grid_x":246,"grid_y":436,"centroid":[-72.3848653,-9.4689303],"aggregation":"none","score_gradboost":0.0252248,"score_random_forest":0.0027308,"score_logistic_regression":0.0054272,"score_fuzzy_knn_k29":0.0075587},"geometry":{"type":"Polygon","coordinates":[[[-72.3889522,-9.4715914],[-72.3808313,-9.4716699],[-72.3807784,-9.4662691],[-72.3888992,-9.4661907],[-72.3889522,-9.4715914]]]}},{"type":"Feature","id":"AC-Y436-X247","properties":{"id":"AC-Y436-X247","grid_x":247,"grid_y":436,"centroid":[-72.3767444,-9.4690087],"aggregation":"none","score_gradboost":0.0182263,"score_random_forest":0.0137879,"score_logistic_regression":0.0039525,"score_fuzzy_knn_k29":0.0},"geometry":{"type":"Polygon","coordinates":[[[-72.3808313,-9.4716699],[-72.3727103,-9.4717482],[-72.3726576,-9.4663474],[-72.3807784,-9.4662691],[-72.3808313,-9.4716699]]]}},{"type":"Feature","id":"AC-Y436-X248","properties":{"id":"AC-Y436-X248","grid_x":248,"grid_y":436,"centroid":[-72.3686235,-9.4690869],"aggregation":"none","score_gradboost":0.0182263,"score_random_forest":0.0097368,"score_logistic_regression":0.005328,"score_fuzzy_knn_k29":0.0066668},"geometry":{"type":"Polygon","coordinates":[[[-72.3727103,-9.4717482],[-72.3645893,-9.4718263],[-72.3645367,-9.4664254],[-72.3726576,-9.4663474],[-72.3727103,-9.4717482]]]}},{"type":"Feature","id":"AC-Y436-X249","properties":{"id":"AC-Y436-X249","grid_x":249,"grid_y":436,"centroid":[-72.3605025,-9.4691648],"aggregation":"none","score_gradboost":0.0182263,"score_random_forest":0.0126116,"score_logistic_regression":0.0065981,"score_fuzzy_knn_k29":0.0145893},"geometry":{"type":"Polygon","coordinates":[[[-72.3645893,-9.4718263],[-72.3564682,-9.4719042],[-72.3564157,-9.4665033],[-72.3645367,-9.4664254],[-72.3645893,-9.4718263]]]}},{"type":"Feature","id":"AC-Y436-X250","properties":{"id":"AC-Y436-X250","grid_x":250,"grid_y":436,"centroid":[-72.3523814,-9.4692426],"aggregation":"none","score_gradboost":0.0127178,"score_random_forest":0.0076406,"score_logistic_regression":0.0092714,"score_fuzzy_knn_k29":0.03759},"geometry":{"type":"Polygon","coordinates":[[[-72.3564682,-9.4719042],[-72.348347,-9.4719819],[-72.3482947,-9.466581],[-72.3564157,-9.4665033],[-72.3564682,-9.4719042]]]}},{"type":"Feature","id":"AC-Y436-X251","properties":{"id":"AC-Y436-X251","grid_x":251,"grid_y":436,"centroid":[-72.3442603,-9.4693202],"aggregation":"none","score_gradboost":0.0096796,"score_random_forest":0.0025825,"score_logistic_regression":0.0078899,"score_fuzzy_knn_k29":0.0},"geometry":{"type":"Polygon","coordinates":[[[-72.348347,-9.4719819],[-72.3402258,-9.4720595],[-72.3401736,-9.4666585],[-72.3482947,-9.466581],[-72.348347,-9.4719819]]]}}]}