{"type":"FeatureCollection","features":[{"type":"Feature","id":"AC-Y492-X738","properties":{"id":"AC-Y492-X738","grid_x":738,"grid_y":492,"centroid":[-68.3847846,-9.181784],"aggregation":"none","score_gradboost":0.3341636,"score_random_forest":0.2707499,"score_logistic_regression":0.4338362,"score_fuzzy_knn_k29":0.731057},"geometry":{"type":"Polygon","coordinates":[[[-68.388844,-9.1844959],[-68.380716,-9.1844821],[-68.3807253,-9.1790721],[-68.3888533,-9.1790859],[-68.388844,-9.1844959]]]}},{"type":"Feature","id":"AC-Y492-X739","properties":{"id":"AC-Y492-X739","grid_x":739,"grid_y":492,"centroid":[-68.3766567,-9.1817701],"aggregation":"none","score_gradboost":0.1550509,"score_random_forest":0.1102528,"score_logistic_regression":0.3897672,"score_fuzzy_knn_k29":0.5673635},"geometry":{"type":"Polygon","coordinates":[[[-68.380716,-9.1844821],[-68.3725879,-9.1844681],[-68.3725974,-9.1790581],[-68.3807253,-9.1790721],[-68.380716,-9.1844821]]]}},{"type":"Feature","id":"AC-Y492-X740","properties":{"id":"AC-Y492-X740","grid_x":740,"grid_y":492,"centroid":[-68.3685287,-9.181756],"aggregation":"none","score_gradboost":0.2250155,"score_random_forest":0.2420569,"score_logistic_regression":0.4543368,"score_fuzzy_knn_k29":0.7095662},"geometry":{"type":"Polygon","coordinates":[[[-68.3725879,-9.1844681],[-68.3644599,-9.1844539],[-68.3644695,-9.1790439],[-68.3725974,-9.1790581],[-68.3725879,-9.1844681]]]}},{"type":"Feature","id":"AC-Y492-X741","properties":{"id":"AC-Y492-X741","grid_x":741,"grid_y":492,"centroid":[-68.3604007,-9.1817417],"aggregation":"none","score_gradboost":0.231106,"score_random_forest":0.2316386,"score_logistic_regression":0.4011965,"score_fuzzy_knn_k29":0.527469},"geometry":{"type":"Polygon","coordinates":[[[-68.3644599,-9.1844539],[-68.3563319,-9.1844395],[-68.3563416,-9.1790295],[-68.3644695,-9.1790439],[-68.3644599,-9.1844539]]]}},{"type":"Feature","id":"AC-Y493-X738","properties":{"id":"AC-Y493-X738","grid_x":738,"grid_y":493,"centroid":[-68.384794,-9.176374],"aggregation":"none","score_gradboost":0.2660951,"score_random_forest":0.1934194,"score_logistic_regression":0.397334,"score_fuzzy_knn_k29":0.6219183},"geometry":{"type":"Polygon","coordinates":[[[-68.3888533,-9.1790859],[-68.3807253,-9.1790721],[-68.3807347,-9.173662],[-68.3888625,-9.1736759],[-68.3888533,-9.1790859]]]}},{"type":"Feature","id":"AC-Y493-X739","properties":{"id":"AC-Y493-X739","grid_x":739,"grid_y":493,"centroid":[-68.3766661,-9.1763601],"aggregation":"none","score_gradboost":0.2748497,"score_random_forest":0.2753874,"score_logistic_regression":0.4190504,"score_fuzzy_knn_k29":0.7983075},"geometry":{"type":"Polygon","coordinates":[[[-68.3807253,-9.1790721],[-68.3725974,-9.1790581],[-68.3726069,-9.173648],[-68.3807347,-9.173662],[-68.3807253,-9.1790721]]]}},{"type":"Feature","id":"AC-Y493-X740","properties":{"id":"AC-Y493-X740","grid_x":740,"grid_y":493,"centroid":[-68.3685383,-9.176346],"aggregation":"none","score_gradboost":0.2802628,"score_random_forest":0.239573,"score_logistic_regression":0.4366211,"score_fuzzy_knn_k29":0.7635099},"geometry":{"type":"Polygon","coordinates":[[[-68.3725974,-9.1790581],[-68.3644695,-9.1790439],[-68.3644792,-9.1736338],[-68.3726069,-9.173648],[-68.3725974,-9.1790581]]]}},{"type":"Feature","id":"AC-Y494-X738","properties":{"id":"AC-Y494-X738","grid_x":738,"grid_y":494,"centroid":[-68.3848033,-9.170964],"aggregation":"none","score_gradboost":0.2998065,"score_random_forest":0.2503894,"score_logistic_regression":0.4552128,"score_fuzzy_knn_k29":0.7831115},"geometry":{"type":"Polygon","coordinates":[[[-68.3888625,-9.1736759],[-68.3807347,-9.173662],[-68.3807441,-9.168252],[-68.3888718,-9.1682658],[-68.3888625,-9.1736759]]]}}]}