{"type":"FeatureCollection","features":[{"type":"Feature","id":"AC-Y630-X115","properties":{"id":"AC-Y630-X115","grid_x":115,"grid_y":630,"centroid":[-73.4353309,-8.4106],"aggregation":"none","score_gradboost":0.0089989,"score_random_forest":0.02723,"score_logistic_regression":0.0805574,"score_fuzzy_knn_k29":0.0},"geometry":{"type":"Polygon","coordinates":[[[-73.4394053,-8.4132514],[-73.431318,-8.4133428],[-73.4312566,-8.4079485],[-73.4393438,-8.4078571],[-73.4394053,-8.4132514]]]}},{"type":"Feature","id":"AC-Y631-X114","properties":{"id":"AC-Y631-X114","grid_x":114,"grid_y":631,"centroid":[-73.4433565,-8.4051143],"aggregation":"none","score_gradboost":0.0098337,"score_random_forest":0.0226412,"score_logistic_regression":0.0597533,"score_fuzzy_knn_k29":0.0},"geometry":{"type":"Polygon","coordinates":[[[-73.4474308,-8.4077656],[-73.4393438,-8.4078571],[-73.4392823,-8.4024629],[-73.4473692,-8.4023715],[-73.4474308,-8.4077656]]]}},{"type":"Feature","id":"AC-Y631-X115","properties":{"id":"AC-Y631-X115","grid_x":115,"grid_y":631,"centroid":[-73.4352695,-8.4052057],"aggregation":"none","score_gradboost":0.0089989,"score_random_forest":0.0340146,"score_logistic_regression":0.0670465,"score_fuzzy_knn_k29":0.0},"geometry":{"type":"Polygon","coordinates":[[[-73.4393438,-8.4078571],[-73.4312566,-8.4079485],[-73.4311953,-8.4025542],[-73.4392823,-8.4024629],[-73.4393438,-8.4078571]]]}},{"type":"Feature","id":"AC-Y632-X113","properties":{"id":"AC-Y632-X113","grid_x":113,"grid_y":632,"centroid":[-73.4513819,-8.3996286],"aggregation":"none","score_gradboost":0.0098337,"score_random_forest":0.0226412,"score_logistic_regression":0.0624797,"score_fuzzy_knn_k29":0.0},"geometry":{"type":"Polygon","coordinates":[[[-73.4554561,-8.4022799],[-73.4473692,-8.4023715],[-73.4473077,-8.3969773],[-73.4553944,-8.3968857],[-73.4554561,-8.4022799]]]}},{"type":"Feature","id":"AC-Y632-X114","properties":{"id":"AC-Y632-X114","grid_x":114,"grid_y":632,"centroid":[-73.443295,-8.3997201],"aggregation":"none","score_gradboost":0.0089989,"score_random_forest":0.0299857,"score_logistic_regression":0.0739651,"score_fuzzy_knn_k29":0.0},"geometry":{"type":"Polygon","coordinates":[[[-73.4473692,-8.4023715],[-73.4392823,-8.4024629],[-73.4392209,-8.3970687],[-73.4473077,-8.3969773],[-73.4473692,-8.4023715]]]}},{"type":"Feature","id":"AC-Y632-X115","properties":{"id":"AC-Y632-X115","grid_x":115,"grid_y":632,"centroid":[-73.4352081,-8.3998114],"aggregation":"none","score_gradboost":0.0089989,"score_random_forest":0.0276009,"score_logistic_regression":0.0785124,"score_fuzzy_knn_k29":0.0},"geometry":{"type":"Polygon","coordinates":[[[-73.4392823,-8.4024629],[-73.4311953,-8.4025542],[-73.4311339,-8.3971599],[-73.4392209,-8.3970687],[-73.4392823,-8.4024629]]]}},{"type":"Feature","id":"AC-Y633-X111","properties":{"id":"AC-Y633-X111","grid_x":111,"grid_y":633,"centroid":[-73.4674935,-8.3940511],"aggregation":"none","score_gradboost":0.0070586,"score_random_forest":0.004406,"score_logistic_regression":0.0313002,"score_fuzzy_knn_k29":0.0},"geometry":{"type":"Polygon","coordinates":[[[-73.4715677,-8.3967021],[-73.4634811,-8.396794],[-73.4634194,-8.3914],[-73.4715058,-8.3913082],[-73.4715677,-8.3967021]]]}},{"type":"Feature","id":"AC-Y633-X112","properties":{"id":"AC-Y633-X112","grid_x":112,"grid_y":633,"centroid":[-73.4594069,-8.3941429],"aggregation":"none","score_gradboost":0.0098337,"score_random_forest":0.0226412,"score_logistic_regression":0.0574775,"score_fuzzy_knn_k29":0.0},"geometry":{"type":"Polygon","coordinates":[[[-73.4634811,-8.396794],[-73.4553944,-8.3968857],[-73.4553328,-8.3914916],[-73.4634194,-8.3914],[-73.4634811,-8.396794]]]}},{"type":"Feature","id":"AC-Y633-X113","properties":{"id":"AC-Y633-X113","grid_x":113,"grid_y":633,"centroid":[-73.4513203,-8.3942345],"aggregation":"none","score_gradboost":0.0098337,"score_random_forest":0.0226412,"score_logistic_regression":0.0622173,"score_fuzzy_knn_k29":0.0},"geometry":{"type":"Polygon","coordinates":[[[-73.4553944,-8.3968857],[-73.4473077,-8.3969773],[-73.4472462,-8.3915831],[-73.4553328,-8.3914916],[-73.4553944,-8.3968857]]]}},{"type":"Feature","id":"AC-Y633-X114","properties":{"id":"AC-Y633-X114","grid_x":114,"grid_y":633,"centroid":[-73.4432336,-8.3943259],"aggregation":"none","score_gradboost":0.0089989,"score_random_forest":0.0276009,"score_logistic_regression":0.0777585,"score_fuzzy_knn_k29":0.0},"geometry":{"type":"Polygon","coordinates":[[[-73.4473077,-8.3969773],[-73.4392209,-8.3970687],[-73.4391595,-8.3916744],[-73.4472462,-8.3915831],[-73.4473077,-8.3969773]]]}},{"type":"Feature","id":"AC-Y633-X115","properties":{"id":"AC-Y633-X115","grid_x":115,"grid_y":633,"centroid":[-73.4351467,-8.3944172],"aggregation":"none","score_gradboost":0.0084117,"score_random_forest":0.0276009,"score_logistic_regression":0.0782047,"score_fuzzy_knn_k29":0.0},"geometry":{"type":"Polygon","coordinates":[[[-73.4392209,-8.3970687],[-73.4311339,-8.3971599],[-73.4310726,-8.3917656],[-73.4391595,-8.3916744],[-73.4392209,-8.3970687]]]}},{"type":"Feature","id":"AC-Y634-X109","properties":{"id":"AC-Y634-X109","grid_x":109,"grid_y":634,"centroid":[-73.4836043,-8.3884732],"aggregation":"none","score_gradboost":0.0069164,"score_random_forest":0.004406,"score_logistic_regression":0.0303865,"score_fuzzy_knn_k29":0.0},"geometry":{"type":"Polygon","coordinates":[[[-73.4876784,-8.391124],[-73.4795922,-8.3912162],[-73.4795303,-8.3858222],[-73.4876164,-8.3857301],[-73.4876784,-8.391124]]]}},{"type":"Feature","id":"AC-Y634-X110","properties":{"id":"AC-Y634-X110","grid_x":110,"grid_y":634,"centroid":[-73.4755181,-8.3885652],"aggregation":"none","score_gradboost":0.0069164,"score_random_forest":0.004406,"score_logistic_regression":0.0293512,"score_fuzzy_knn_k29":0.0},"geometry":{"type":"Polygon","coordinates":[[[-73.4795922,-8.3912162],[-73.4715058,-8.3913082],[-73.471444,-8.3859142],[-73.4795303,-8.3858222],[-73.4795922,-8.3912162]]]}},{"type":"Feature","id":"AC-Y634-X111","properties":{"id":"AC-Y634-X111","grid_x":111,"grid_y":634,"centroid":[-73.4674317,-8.3886571],"aggregation":"none","score_gradboost":0.0072676,"score_random_forest":0.0026269,"score_logistic_regression":0.0336089,"score_fuzzy_knn_k29":0.0},"geometry":{"type":"Polygon","coordinates":[[[-73.4715058,-8.3913082],[-73.4634194,-8.3914],[-73.4633577,-8.3860059],[-73.471444,-8.3859142],[-73.4715058,-8.3913082]]]}},{"type":"Feature","id":"AC-Y634-X112","properties":{"id":"AC-Y634-X112","grid_x":112,"grid_y":634,"centroid":[-73.4593453,-8.3887488],"aggregation":"none","score_gradboost":0.0070063,"score_random_forest":0.0226412,"score_logistic_regression":0.0532024,"score_fuzzy_knn_k29":0.0},"geometry":{"type":"Polygon","coordinates":[[[-73.4634194,-8.3914],[-73.4553328,-8.3914916],[-73.4552712,-8.3860975],[-73.4633577,-8.3860059],[-73.4634194,-8.3914]]]}},{"type":"Feature","id":"AC-Y634-X113","properties":{"id":"AC-Y634-X113","grid_x":113,"grid_y":634,"centroid":[-73.4512588,-8.3888403],"aggregation":"none","score_gradboost":0.0098337,"score_random_forest":0.0226412,"score_logistic_regression":0.0608393,"score_fuzzy_knn_k29":0.0},"geometry":{"type":"Polygon","coordinates":[[[-73.4553328,-8.3914916],[-73.4472462,-8.3915831],[-73.4471847,-8.3861889],[-73.4552712,-8.3860975],[-73.4553328,-8.3914916]]]}},{"type":"Feature","id":"AC-Y634-X114","properties":{"id":"AC-Y634-X114","grid_x":114,"grid_y":634,"centroid":[-73.4431721,-8.3889317],"aggregation":"none","score_gradboost":0.0084117,"score_random_forest":0.0346493,"score_logistic_regression":0.0721057,"score_fuzzy_knn_k29":0.0},"geometry":{"type":"Polygon","coordinates":[[[-73.4472462,-8.3915831],[-73.4391595,-8.3916744],[-73.4390981,-8.3862802],[-73.4471847,-8.3861889],[-73.4472462,-8.3915831]]]}},{"type":"Feature","id":"AC-Y634-X115","properties":{"id":"AC-Y634-X115","grid_x":115,"grid_y":634,"centroid":[-73.4350854,-8.3890229],"aggregation":"none","score_gradboost":0.0087628,"score_random_forest":0.0391556,"score_logistic_regression":0.0913939,"score_fuzzy_knn_k29":0.0},"geometry":{"type":"Polygon","coordinates":[[[-73.4391595,-8.3916744],[-73.4310726,-8.3917656],[-73.4310114,-8.3863713],[-73.4390981,-8.3862802],[-73.4391595,-8.3916744]]]}},{"type":"Feature","id":"AC-Y635-X109","properties":{"id":"AC-Y635-X109","grid_x":109,"grid_y":635,"centroid":[-73.4835424,-8.3830793],"aggregation":"none","score_gradboost":0.0069164,"score_random_forest":0.004406,"score_logistic_regression":0.0265464,"score_fuzzy_knn_k29":0.0},"geometry":{"type":"Polygon","coordinates":[[[-73.4876164,-8.3857301],[-73.4795303,-8.3858222],[-73.4794684,-8.3804283],[-73.4875544,-8.3803363],[-73.4876164,-8.3857301]]]}},{"type":"Feature","id":"AC-Y635-X110","properties":{"id":"AC-Y635-X110","grid_x":110,"grid_y":635,"centroid":[-73.4754562,-8.3831712],"aggregation":"none","score_gradboost":0.0069164,"score_random_forest":0.0026269,"score_logistic_regression":0.0281663,"score_fuzzy_knn_k29":0.0},"geometry":{"type":"Polygon","coordinates":[[[-73.4795303,-8.3858222],[-73.471444,-8.3859142],[-73.4713823,-8.3805202],[-73.4794684,-8.3804283],[-73.4795303,-8.3858222]]]}},{"type":"Feature","id":"AC-Y635-X111","properties":{"id":"AC-Y635-X111","grid_x":111,"grid_y":635,"centroid":[-73.46737,-8.383263],"aggregation":"none","score_gradboost":0.0072676,"score_random_forest":0.0026269,"score_logistic_regression":0.0316488,"score_fuzzy_knn_k29":0.0},"geometry":{"type":"Polygon","coordinates":[[[-73.471444,-8.3859142],[-73.4633577,-8.3860059],[-73.463296,-8.3806119],[-73.4713823,-8.3805202],[-73.471444,-8.3859142]]]}},{"type":"Feature","id":"AC-Y635-X112","properties":{"id":"AC-Y635-X112","grid_x":112,"grid_y":635,"centroid":[-73.4592837,-8.3833547],"aggregation":"none","score_gradboost":0.0066491,"score_random_forest":0.0110644,"score_logistic_regression":0.0398024,"score_fuzzy_knn_k29":0.0},"geometry":{"type":"Polygon","coordinates":[[[-73.4633577,-8.3860059],[-73.4552712,-8.3860975],[-73.4552097,-8.3807034],[-73.463296,-8.3806119],[-73.4633577,-8.3860059]]]}},{"type":"Feature","id":"AC-Y635-X113","properties":{"id":"AC-Y635-X113","grid_x":113,"grid_y":635,"centroid":[-73.4511973,-8.3834462],"aggregation":"none","score_gradboost":0.0084117,"score_random_forest":0.0346493,"score_logistic_regression":0.0713122,"score_fuzzy_knn_k29":0.0},"geometry":{"type":"Polygon","coordinates":[[[-73.4552712,-8.3860975],[-73.4471847,-8.3861889],[-73.4471233,-8.3807948],[-73.4552097,-8.3807034],[-73.4552712,-8.3860975]]]}},{"type":"Feature","id":"AC-Y635-X114","properties":{"id":"AC-Y635-X114","grid_x":114,"grid_y":635,"centroid":[-73.4431107,-8.3835375],"aggregation":"none","score_gradboost":0.0084117,"score_random_forest":0.0319271,"score_logistic_regression":0.0705351,"score_fuzzy_knn_k29":0.0},"geometry":{"type":"Polygon","coordinates":[[[-73.4471847,-8.3861889],[-73.4390981,-8.3862802],[-73.4390368,-8.380886],[-73.4471233,-8.3807948],[-73.4471847,-8.3861889]]]}},{"type":"Feature","id":"AC-Y635-X115","properties":{"id":"AC-Y635-X115","grid_x":115,"grid_y":635,"centroid":[-73.4350241,-8.3836286],"aggregation":"none","score_gradboost":0.0084117,"score_random_forest":0.0319271,"score_logistic_regression":0.0709353,"score_fuzzy_knn_k29":0.0},"geometry":{"type":"Polygon","coordinates":[[[-73.4390981,-8.3862802],[-73.4310114,-8.3863713],[-73.4309502,-8.380977],[-73.4390368,-8.380886],[-73.4390981,-8.3862802]]]}},{"type":"Feature","id":"AC-Y636-X107","properties":{"id":"AC-Y636-X107","grid_x":107,"grid_y":636,"centroid":[-73.4996523,-8.377501],"aggregation":"none","score_gradboost":0.0072676,"score_random_forest":0.0073724,"score_logistic_regression":0.0318904,"score_fuzzy_knn_k29":0.0},"geometry":{"type":"Polygon","coordinates":[[[-73.5037263,-8.3801517],[-73.4956404,-8.3802441],[-73.4955784,-8.3748503],[-73.5036641,-8.374758],[-73.5037263,-8.3801517]]]}},{"type":"Feature","id":"AC-Y636-X108","properties":{"id":"AC-Y636-X108","grid_x":108,"grid_y":636,"centroid":[-73.4915664,-8.3775933],"aggregation":"none","score_gradboost":0.0066491,"score_random_forest":0.0119873,"score_logistic_regression":0.0377558,"score_fuzzy_knn_k29":0.0},"geometry":{"type":"Polygon","coordinates":[[[-73.4956404,-8.3802441],[-73.4875544,-8.3803363],[-73.4874925,-8.3749424],[-73.4955784,-8.3748503],[-73.4956404,-8.3802441]]]}},{"type":"Feature","id":"AC-Y636-X109","properties":{"id":"AC-Y636-X109","grid_x":109,"grid_y":636,"centroid":[-73.4834805,-8.3776853],"aggregation":"none","score_gradboost":0.0070586,"score_random_forest":0.0026269,"score_logistic_regression":0.0307671,"score_fuzzy_knn_k29":0.0},"geometry":{"type":"Polygon","coordinates":[[[-73.4875544,-8.3803363],[-73.4794684,-8.3804283],[-73.4794066,-8.3750344],[-73.4874925,-8.3749424],[-73.4875544,-8.3803363]]]}},{"type":"Feature","id":"AC-Y636-X110","properties":{"id":"AC-Y636-X110","grid_x":110,"grid_y":636,"centroid":[-73.4753945,-8.3777773],"aggregation":"none","score_gradboost":0.0072676,"score_random_forest":0.0026269,"score_logistic_regression":0.0314232,"score_fuzzy_knn_k29":0.0},"geometry":{"type":"Polygon","coordinates":[[[-73.4794684,-8.3804283],[-73.4713823,-8.3805202],[-73.4713205,-8.3751262],[-73.4794066,-8.3750344],[-73.4794684,-8.3804283]]]}},{"type":"Feature","id":"AC-Y636-X111","properties":{"id":"AC-Y636-X111","grid_x":111,"grid_y":636,"centroid":[-73.4673083,-8.377869],"aggregation":"none","score_gradboost":0.0072676,"score_random_forest":0.0032677,"score_logistic_regression":0.0352828,"score_fuzzy_knn_k29":0.0},"geometry":{"type":"Polygon","coordinates":[[[-73.4713823,-8.3805202],[-73.463296,-8.3806119],[-73.4632344,-8.3752178],[-73.4713206,-8.3751262],[-73.4713823,-8.3805202]]]}},{"type":"Feature","id":"AC-Y636-X112","properties":{"id":"AC-Y636-X112","grid_x":112,"grid_y":636,"centroid":[-73.4592221,-8.3779606],"aggregation":"none","score_gradboost":0.0056051,"score_random_forest":0.0070315,"score_logistic_regression":0.0427035,"score_fuzzy_knn_k29":0.0},"geometry":{"type":"Polygon","coordinates":[[[-73.463296,-8.3806119],[-73.4552097,-8.3807034],[-73.4551482,-8.3753093],[-73.4632344,-8.3752178],[-73.463296,-8.3806119]]]}},{"type":"Feature","id":"AC-Y636-X113","properties":{"id":"AC-Y636-X113","grid_x":113,"grid_y":636,"centroid":[-73.4511358,-8.378052],"aggregation":"none","score_gradboost":0.0084117,"score_random_forest":0.0304856,"score_logistic_regression":0.0685025,"score_fuzzy_knn_k29":0.0},"geometry":{"type":"Polygon","coordinates":[[[-73.4552097,-8.3807034],[-73.4471233,-8.3807948],[-73.4470619,-8.3754006],[-73.4551482,-8.3753093],[-73.4552097,-8.3807034]]]}},{"type":"Feature","id":"AC-Y636-X114","properties":{"id":"AC-Y636-X114","grid_x":114,"grid_y":636,"centroid":[-73.4430494,-8.3781433],"aggregation":"none","score_gradboost":0.0084117,"score_random_forest":0.0340146,"score_logistic_regression":0.0653317,"score_fuzzy_knn_k29":0.0},"geometry":{"type":"Polygon","coordinates":[[[-73.4471233,-8.3807948],[-73.4390368,-8.380886],[-73.4389755,-8.3754917],[-73.4470619,-8.3754006],[-73.4471233,-8.3807948]]]}},{"type":"Feature","id":"AC-Y636-X115","properties":{"id":"AC-Y636-X115","grid_x":115,"grid_y":636,"centroid":[-73.4349629,-8.3782344],"aggregation":"none","score_gradboost":0.0084117,"score_random_forest":0.0276009,"score_logistic_regression":0.0759248,"score_fuzzy_knn_k29":0.0},"geometry":{"type":"Polygon","coordinates":[[[-73.4390368,-8.380886],[-73.4309502,-8.380977],[-73.430889,-8.3755827],[-73.4389755,-8.3754917],[-73.4390368,-8.380886]]]}},{"type":"Feature","id":"AC-Y637-X106","properties":{"id":"AC-Y637-X106","grid_x":106,"grid_y":637,"centroid":[-73.5076759,-8.3720149],"aggregation":"none","score_gradboost":0.0072676,"score_random_forest":0.0073724,"score_logistic_regression":0.0324475,"score_fuzzy_knn_k29":0.0},"geometry":{"type":"Polygon","coordinates":[[[-73.5117498,-8.3746655],[-73.5036641,-8.374758],[-73.503602,-8.3693642],[-73.5116875,-8.3692718],[-73.5117498,-8.3746655]]]}},{"type":"Feature","id":"AC-Y637-X107","properties":{"id":"AC-Y637-X107","grid_x":107,"grid_y":637,"centroid":[-73.4995902,-8.3721072],"aggregation":"none","score_gradboost":0.0072676,"score_random_forest":0.0050468,"score_logistic_regression":0.0349443,"score_fuzzy_knn_k29":0.0},"geometry":{"type":"Polygon","coordinates":[[[-73.5036641,-8.374758],[-73.4955784,-8.3748503],[-73.4955163,-8.3694564],[-73.503602,-8.3693642],[-73.5036641,-8.374758]]]}},{"type":"Feature","id":"AC-Y637-X108","properties":{"id":"AC-Y637-X108","grid_x":108,"grid_y":637,"centroid":[-73.4915045,-8.3721994],"aggregation":"none","score_gradboost":0.0066491,"score_random_forest":0.0121943,"score_logistic_regression":0.0390879,"score_fuzzy_knn_k29":0.0},"geometry":{"type":"Polygon","coordinates":[[[-73.4955784,-8.3748503],[-73.4874925,-8.3749424],[-73.4874306,-8.3695485],[-73.4955163,-8.3694564],[-73.4955784,-8.3748503]]]}},{"type":"Feature","id":"AC-Y637-X109","properties":{"id":"AC-Y637-X109","grid_x":109,"grid_y":637,"centroid":[-73.4834186,-8.3722914],"aggregation":"none","score_gradboost":0.0066491,"score_random_forest":0.0168812,"score_logistic_regression":0.0398601,"score_fuzzy_knn_k29":0.0},"geometry":{"type":"Polygon","coordinates":[[[-73.4874925,-8.3749424],[-73.4794066,-8.3750344],[-73.4793448,-8.3696404],[-73.4874306,-8.3695485],[-73.4874925,-8.3749424]]]}},{"type":"Feature","id":"AC-Y637-X110","properties":{"id":"AC-Y637-X110","grid_x":110,"grid_y":637,"centroid":[-73.4753327,-8.3723833],"aggregation":"none","score_gradboost":0.0072676,"score_random_forest":0.0026269,"score_logistic_regression":0.0337583,"score_fuzzy_knn_k29":0.0},"geometry":{"type":"Polygon","coordinates":[[[-73.4794066,-8.3750344],[-73.4713205,-8.3751262],[-73.4712589,-8.3697322],[-73.4793448,-8.3696404],[-73.4794066,-8.3750344]]]}},{"type":"Feature","id":"AC-Y637-X111","properties":{"id":"AC-Y637-X111","grid_x":111,"grid_y":637,"centroid":[-73.4672467,-8.372475],"aggregation":"none","score_gradboost":0.0056051,"score_random_forest":0.0097107,"score_logistic_regression":0.041577,"score_fuzzy_knn_k29":0.0},"geometry":{"type":"Polygon","coordinates":[[[-73.4713206,-8.3751262],[-73.4632344,-8.3752178],[-73.4631729,-8.3698237],[-73.4712589,-8.3697322],[-73.4713206,-8.3751262]]]}},{"type":"Feature","id":"AC-Y637-X112","properties":{"id":"AC-Y637-X112","grid_x":112,"grid_y":637,"centroid":[-73.4591606,-8.3725665],"aggregation":"none","score_gradboost":0.0056051,"score_random_forest":0.0113761,"score_logistic_regression":0.0373382,"score_fuzzy_knn_k29":0.0},"geometry":{"type":"Polygon","coordinates":[[[-73.4632344,-8.3752178],[-73.4551482,-8.3753093],[-73.4550868,-8.3699151],[-73.4631729,-8.3698237],[-73.4632344,-8.3752178]]]}},{"type":"Feature","id":"AC-Y637-X113","properties":{"id":"AC-Y637-X113","grid_x":113,"grid_y":637,"centroid":[-73.4510744,-8.3726579],"aggregation":"none","score_gradboost":0.0084117,"score_random_forest":0.0340146,"score_logistic_regression":0.0646157,"score_fuzzy_knn_k29":0.0},"geometry":{"type":"Polygon","coordinates":[[[-73.4551482,-8.3753093],[-73.4470619,-8.3754006],[-73.4470006,-8.3700064],[-73.4550868,-8.3699151],[-73.4551482,-8.3753093]]]}},{"type":"Feature","id":"AC-Y637-X114","properties":{"id":"AC-Y637-X114","grid_x":114,"grid_y":637,"centroid":[-73.4429881,-8.3727491],"aggregation":"none","score_gradboost":0.0084117,"score_random_forest":0.0276009,"score_logistic_regression":0.0765015,"score_fuzzy_knn_k29":0.0},"geometry":{"type":"Polygon","coordinates":[[[-73.4470619,-8.3754006],[-73.4389755,-8.3754917],[-73.4389143,-8.3700975],[-73.4470006,-8.3700064],[-73.4470619,-8.3754006]]]}},{"type":"Feature","id":"AC-Y637-X115","properties":{"id":"AC-Y637-X115","grid_x":115,"grid_y":637,"centroid":[-73.4349017,-8.3728401],"aggregation":"none","score_gradboost":0.0084117,"score_random_forest":0.0322388,"score_logistic_regression":0.066674,"score_fuzzy_knn_k29":0.0},"geometry":{"type":"Polygon","coordinates":[[[-73.4389755,-8.3754917],[-73.430889,-8.3755827],[-73.4308279,-8.3701884],[-73.4389143,-8.3700975],[-73.4389755,-8.3754917]]]}},{"type":"Feature","id":"AC-Y638-X105","properties":{"id":"AC-Y638-X105","grid_x":105,"grid_y":638,"centroid":[-73.5156992,-8.3665287],"aggregation":"none","score_gradboost":0.0066491,"score_random_forest":0.0169398,"score_logistic_regression":0.0391289,"score_fuzzy_knn_k29":0.0},"geometry":{"type":"Polygon","coordinates":[[[-73.519773,-8.3691792],[-73.5116875,-8.3692718],[-73.5116254,-8.3638781],[-73.5197107,-8.3637856],[-73.519773,-8.3691792]]]}},{"type":"Feature","id":"AC-Y638-X106","properties":{"id":"AC-Y638-X106","grid_x":106,"grid_y":638,"centroid":[-73.5076137,-8.3666211],"aggregation":"none","score_gradboost":0.0072676,"score_random_forest":0.004406,"score_logistic_regression":0.0311989,"score_fuzzy_knn_k29":0.0},"geometry":{"type":"Polygon","coordinates":[[[-73.5116875,-8.3692718],[-73.503602,-8.3693642],[-73.5035399,-8.3639704],[-73.5116254,-8.3638781],[-73.5116875,-8.3692718]]]}},{"type":"Feature","id":"AC-Y638-X107","properties":{"id":"AC-Y638-X107","grid_x":107,"grid_y":638,"centroid":[-73.4995282,-8.3667134],"aggregation":"none","score_gradboost":0.0066491,"score_random_forest":0.0133475,"score_logistic_regression":0.040486,"score_fuzzy_knn_k29":0.0},"geometry":{"type":"Polygon","coordinates":[[[-73.503602,-8.3693642],[-73.4955163,-8.3694564],[-73.4954544,-8.3640626],[-73.5035399,-8.3639704],[-73.503602,-8.3693642]]]}},{"type":"Feature","id":"AC-Y638-X108","properties":{"id":"AC-Y638-X108","grid_x":108,"grid_y":638,"centroid":[-73.4914425,-8.3668056],"aggregation":"none","score_gradboost":0.0073945,"score_random_forest":0.0299112,"score_logistic_regression":0.0355171,"score_fuzzy_knn_k29":0.0},"geometry":{"type":"Polygon","coordinates":[[[-73.4955163,-8.3694564],[-73.4874306,-8.3695485],[-73.4873688,-8.3641546],[-73.4954544,-8.3640626],[-73.4955163,-8.3694564]]]}},{"type":"Feature","id":"AC-Y638-X109","properties":{"id":"AC-Y638-X109","grid_x":109,"grid_y":638,"centroid":[-73.4833568,-8.3668975],"aggregation":"none","score_gradboost":0.0066491,"score_random_forest":0.0150265,"score_logistic_regression":0.0362075,"score_fuzzy_knn_k29":0.0},"geometry":{"type":"Polygon","coordinates":[[[-73.4874306,-8.3695485],[-73.4793448,-8.3696404],[-73.479283,-8.3642465],[-73.4873688,-8.3641546],[-73.4874306,-8.3695485]]]}},{"type":"Feature","id":"AC-Y638-X110","properties":{"id":"AC-Y638-X110","grid_x":110,"grid_y":638,"centroid":[-73.475271,-8.3669893],"aggregation":"none","score_gradboost":0.0074199,"score_random_forest":0.0026269,"score_logistic_regression":0.0324108,"score_fuzzy_knn_k29":0.0},"geometry":{"type":"Polygon","coordinates":[[[-73.4793448,-8.3696404],[-73.4712589,-8.3697322],[-73.4711972,-8.3643381],[-73.479283,-8.3642465],[-73.4793448,-8.3696404]]]}},{"type":"Feature","id":"AC-Y638-X111","properties":{"id":"AC-Y638-X111","grid_x":111,"grid_y":638,"centroid":[-73.4671851,-8.3670809],"aggregation":"none","score_gradboost":0.0100392,"score_random_forest":0.0226412,"score_logistic_regression":0.05718,"score_fuzzy_knn_k29":0.0},"geometry":{"type":"Polygon","coordinates":[[[-73.4712589,-8.3697322],[-73.4631729,-8.3698237],[-73.4631113,-8.3644297],[-73.4711972,-8.3643381],[-73.4712589,-8.3697322]]]}},{"type":"Feature","id":"AC-Y638-X112","properties":{"id":"AC-Y638-X112","grid_x":112,"grid_y":638,"centroid":[-73.4590991,-8.3671724],"aggregation":"none","score_gradboost":0.0084117,"score_random_forest":0.029941,"score_logistic_regression":0.0663904,"score_fuzzy_knn_k29":0.0},"geometry":{"type":"Polygon","coordinates":[[[-73.4631729,-8.3698237],[-73.4550868,-8.3699151],[-73.4550254,-8.364521],[-73.4631113,-8.3644297],[-73.4631729,-8.3698237]]]}},{"type":"Feature","id":"AC-Y638-X113","properties":{"id":"AC-Y638-X113","grid_x":113,"grid_y":638,"centroid":[-73.451013,-8.3672637],"aggregation":"none","score_gradboost":0.0084117,"score_random_forest":0.02723,"score_logistic_regression":0.0770602,"score_fuzzy_knn_k29":0.0},"geometry":{"type":"Polygon","coordinates":[[[-73.4550868,-8.3699151],[-73.4470006,-8.3700064],[-73.4469393,-8.3646122],[-73.4550254,-8.364521],[-73.4550868,-8.3699151]]]}},{"type":"Feature","id":"AC-Y638-X114","properties":{"id":"AC-Y638-X114","grid_x":114,"grid_y":638,"centroid":[-73.4429268,-8.3673549],"aggregation":"none","score_gradboost":0.0084117,"score_random_forest":0.0283356,"score_logistic_regression":0.0734901,"score_fuzzy_knn_k29":0.0166518},"geometry":{"type":"Polygon","coordinates":[[[-73.4470006,-8.3700064],[-73.4389143,-8.3700975],[-73.4388531,-8.3647032],[-73.4469393,-8.3646122],[-73.4470006,-8.3700064]]]}},{"type":"Feature","id":"AC-Y638-X115","properties":{"id":"AC-Y638-X115","grid_x":115,"grid_y":638,"centroid":[-73.4348405,-8.3674458],"aggregation":"none","score_gradboost":0.0084117,"score_random_forest":0.0299857,"score_logistic_regression":0.0726873,"score_fuzzy_knn_k29":0.0333432},"geometry":{"type":"Polygon","coordinates":[[[-73.4389143,-8.3700975],[-73.4308279,-8.3701884],[-73.4307668,-8.3647941],[-73.4388531,-8.3647032],[-73.4389143,-8.3700975]]]}},{"type":"Feature","id":"AC-Y639-X106","properties":{"id":"AC-Y639-X106","grid_x":106,"grid_y":639,"centroid":[-73.5075516,-8.3612274],"aggregation":"none","score_gradboost":0.0066491,"score_random_forest":0.0074751,"score_logistic_regression":0.0460874,"score_fuzzy_knn_k29":0.0},"geometry":{"type":"Polygon","coordinates":[[[-73.5116254,-8.3638781],[-73.5035399,-8.3639704],[-73.5034779,-8.3585767],[-73.5115632,-8.3584844],[-73.5116254,-8.3638781]]]}},{"type":"Feature","id":"AC-Y639-X107","properties":{"id":"AC-Y639-X107","grid_x":107,"grid_y":639,"centroid":[-73.4994662,-8.3613196],"aggregation":"none","score_gradboost":0.006935,"score_random_forest":0.0074682,"score_logistic_regression":0.0468727,"score_fuzzy_knn_k29":0.0},"geometry":{"type":"Polygon","coordinates":[[[-73.5035399,-8.3639704],[-73.4954544,-8.3640626],[-73.4953925,-8.3586688],[-73.5034779,-8.3585767],[-73.5035399,-8.3639704]]]}},{"type":"Feature","id":"AC-Y639-X108","properties":{"id":"AC-Y639-X108","grid_x":108,"grid_y":639,"centroid":[-73.4913806,-8.3614117],"aggregation":"none","score_gradboost":0.0066491,"score_random_forest":0.0090783,"score_logistic_regression":0.0374784,"score_fuzzy_knn_k29":0.0},"geometry":{"type":"Polygon","coordinates":[[[-73.4954544,-8.3640626],[-73.4873688,-8.3641546],[-73.487307,-8.3587607],[-73.4953925,-8.3586688],[-73.4954544,-8.3640626]]]}},{"type":"Feature","id":"AC-Y639-X109","properties":{"id":"AC-Y639-X109","grid_x":109,"grid_y":639,"centroid":[-73.483295,-8.3615036],"aggregation":"none","score_gradboost":0.0056051,"score_random_forest":0.0070315,"score_logistic_regression":0.0419147,"score_fuzzy_knn_k29":0.0},"geometry":{"type":"Polygon","coordinates":[[[-73.4873688,-8.3641546],[-73.479283,-8.3642465],[-73.4792213,-8.3588525],[-73.487307,-8.3587607],[-73.4873688,-8.3641546]]]}},{"type":"Feature","id":"AC-Y639-X110","properties":{"id":"AC-Y639-X110","grid_x":110,"grid_y":639,"centroid":[-73.4752093,-8.3615953],"aggregation":"none","score_gradboost":0.0058463,"score_random_forest":0.0055862,"score_logistic_regression":0.0495678,"score_fuzzy_knn_k29":0.0},"geometry":{"type":"Polygon","coordinates":[[[-73.479283,-8.3642465],[-73.4711972,-8.3643381],[-73.4711357,-8.3589441],[-73.4792213,-8.3588525],[-73.479283,-8.3642465]]]}},{"type":"Feature","id":"AC-Y639-X111","properties":{"id":"AC-Y639-X111","grid_x":111,"grid_y":639,"centroid":[-73.4671235,-8.3616869],"aggregation":"none","score_gradboost":0.0084117,"score_random_forest":0.0319271,"score_logistic_regression":0.068345,"score_fuzzy_knn_k29":0.0},"geometry":{"type":"Polygon","coordinates":[[[-73.4711972,-8.3643381],[-73.4631113,-8.3644297],[-73.4630499,-8.3590356],[-73.4711357,-8.3589441],[-73.4711972,-8.3643381]]]}},{"type":"Feature","id":"AC-Y639-X112","properties":{"id":"AC-Y639-X112","grid_x":112,"grid_y":639,"centroid":[-73.4590376,-8.3617783],"aggregation":"none","score_gradboost":0.0084117,"score_random_forest":0.0304856,"score_logistic_regression":0.0673514,"score_fuzzy_knn_k29":0.0},"geometry":{"type":"Polygon","coordinates":[[[-73.4631113,-8.3644297],[-73.4550254,-8.364521],[-73.454964,-8.3591269],[-73.4630499,-8.3590356],[-73.4631113,-8.3644297]]]}},{"type":"Feature","id":"AC-Y639-X113","properties":{"id":"AC-Y639-X113","grid_x":113,"grid_y":639,"centroid":[-73.4509517,-8.3618696],"aggregation":"none","score_gradboost":0.0084117,"score_random_forest":0.0340146,"score_logistic_regression":0.064092,"score_fuzzy_knn_k29":0.0},"geometry":{"type":"Polygon","coordinates":[[[-73.4550254,-8.364521],[-73.4469393,-8.3646122],[-73.446878,-8.359218],[-73.454964,-8.3591269],[-73.4550254,-8.364521]]]}},{"type":"Feature","id":"AC-Y639-X114","properties":{"id":"AC-Y639-X114","grid_x":114,"grid_y":639,"centroid":[-73.4428656,-8.3619606],"aggregation":"none","score_gradboost":0.0084117,"score_random_forest":0.0299857,"score_logistic_regression":0.0718723,"score_fuzzy_knn_k29":0.0329345},"geometry":{"type":"Polygon","coordinates":[[[-73.4469393,-8.3646122],[-73.4388531,-8.3647032],[-73.438792,-8.359309],[-73.446878,-8.359218],[-73.4469393,-8.3646122]]]}},{"type":"Feature","id":"AC-Y639-X115","properties":{"id":"AC-Y639-X115","grid_x":115,"grid_y":639,"centroid":[-73.4347794,-8.3620516],"aggregation":"none","score_gradboost":0.0084117,"score_random_forest":0.0346493,"score_logistic_regression":0.0711102,"score_fuzzy_knn_k29":0.0341726},"geometry":{"type":"Polygon","coordinates":[[[-73.4388531,-8.3647032],[-73.4307668,-8.3647941],[-73.4307058,-8.3593998],[-73.438792,-8.359309],[-73.4388531,-8.3647032]]]}},{"type":"Feature","id":"AC-Y640-X106","properties":{"id":"AC-Y640-X106","grid_x":106,"grid_y":640,"centroid":[-73.5074895,-8.3558337],"aggregation":"none","score_gradboost":0.008227,"score_random_forest":0.0122579,"score_logistic_regression":0.0563568,"score_fuzzy_knn_k29":0.0},"geometry":{"type":"Polygon","coordinates":[[[-73.5115632,-8.3584844],[-73.5034779,-8.3585767],[-73.5034159,-8.3531829],[-73.5115011,-8.3530907],[-73.5115632,-8.3584844]]]}},{"type":"Feature","id":"AC-Y640-X107","properties":{"id":"AC-Y640-X107","grid_x":107,"grid_y":640,"centroid":[-73.4994042,-8.3559258],"aggregation":"none","score_gradboost":0.0066491,"score_random_forest":0.0096229,"score_logistic_regression":0.0381499,"score_fuzzy_knn_k29":0.0},"geometry":{"type":"Polygon","coordinates":[[[-73.5034779,-8.3585767],[-73.4953925,-8.3586688],[-73.4953306,-8.3532749],[-73.5034159,-8.3531829],[-73.5034779,-8.3585767]]]}},{"type":"Feature","id":"AC-Y640-X108","properties":{"id":"AC-Y640-X108","grid_x":108,"grid_y":640,"centroid":[-73.4913188,-8.3560178],"aggregation":"none","score_gradboost":0.0058463,"score_random_forest":0.0074682,"score_logistic_regression":0.0467392,"score_fuzzy_knn_k29":0.0},"geometry":{"type":"Polygon","coordinates":[[[-73.4953925,-8.3586688],[-73.487307,-8.3587607],[-73.4872452,-8.3533668],[-73.4953306,-8.3532749],[-73.4953925,-8.3586688]]]}},{"type":"Feature","id":"AC-Y640-X109","properties":{"id":"AC-Y640-X109","grid_x":109,"grid_y":640,"centroid":[-73.4832333,-8.3561097],"aggregation":"none","score_gradboost":0.0056051,"score_random_forest":0.0150265,"score_logistic_regression":0.0360181,"score_fuzzy_knn_k29":0.0},"geometry":{"type":"Polygon","coordinates":[[[-73.487307,-8.3587607],[-73.4792213,-8.3588525],[-73.4791597,-8.3534586],[-73.4872452,-8.3533668],[-73.487307,-8.3587607]]]}},{"type":"Feature","id":"AC-Y640-X110","properties":{"id":"AC-Y640-X110","grid_x":110,"grid_y":640,"centroid":[-73.4751477,-8.3562014],"aggregation":"none","score_gradboost":0.0275586,"score_random_forest":0.0413652,"score_logistic_regression":0.0627033,"score_fuzzy_knn_k29":0.0},"geometry":{"type":"Polygon","coordinates":[[[-73.4792213,-8.3588525],[-73.4711357,-8.3589441],[-73.4710741,-8.3535501],[-73.4791597,-8.3534586],[-73.4792213,-8.3588525]]]}},{"type":"Feature","id":"AC-Y640-X111","properties":{"id":"AC-Y640-X111","grid_x":111,"grid_y":640,"centroid":[-73.467062,-8.3562929],"aggregation":"none","score_gradboost":0.0087628,"score_random_forest":0.0391556,"score_logistic_regression":0.0875087,"score_fuzzy_knn_k29":0.0221219},"geometry":{"type":"Polygon","coordinates":[[[-73.4711357,-8.3589441],[-73.4630499,-8.3590356],[-73.4629884,-8.3536415],[-73.4710741,-8.3535501],[-73.4711357,-8.3589441]]]}},{"type":"Feature","id":"AC-Y640-X112","properties":{"id":"AC-Y640-X112","grid_x":112,"grid_y":640,"centroid":[-73.4589762,-8.3563842],"aggregation":"none","score_gradboost":0.0084117,"score_random_forest":0.0328297,"score_logistic_regression":0.0803124,"score_fuzzy_knn_k29":0.0239213},"geometry":{"type":"Polygon","coordinates":[[[-73.4630499,-8.3590356],[-73.454964,-8.3591269],[-73.4549027,-8.3537328],[-73.4629884,-8.3536415],[-73.4630499,-8.3590356]]]}},{"type":"Feature","id":"AC-Y640-X113","properties":{"id":"AC-Y640-X113","grid_x":113,"grid_y":640,"centroid":[-73.4508904,-8.3564754],"aggregation":"none","score_gradboost":0.0084117,"score_random_forest":0.0299857,"score_logistic_regression":0.0711519,"score_fuzzy_knn_k29":0.0329923},"geometry":{"type":"Polygon","coordinates":[[[-73.454964,-8.3591269],[-73.446878,-8.359218],[-73.4468168,-8.3538238],[-73.4549027,-8.3537328],[-73.454964,-8.3591269]]]}},{"type":"Feature","id":"AC-Y640-X114","properties":{"id":"AC-Y640-X114","grid_x":114,"grid_y":640,"centroid":[-73.4428044,-8.3565664],"aggregation":"none","score_gradboost":0.010712,"score_random_forest":0.0319271,"score_logistic_regression":0.0690326,"score_fuzzy_knn_k29":0.035808},"geometry":{"type":"Polygon","coordinates":[[[-73.446878,-8.359218],[-73.438792,-8.359309],[-73.4387308,-8.3539147],[-73.4468168,-8.3538238],[-73.446878,-8.359218]]]}},{"type":"Feature","id":"AC-Y640-X115","properties":{"id":"AC-Y640-X115","grid_x":115,"grid_y":640,"centroid":[-73.4347184,-8.3566573],"aggregation":"none","score_gradboost":0.0130267,"score_random_forest":0.0482061,"score_logistic_regression":0.0635265,"score_fuzzy_knn_k29":0.0406455},"geometry":{"type":"Polygon","coordinates":[[[-73.438792,-8.359309],[-73.4307058,-8.3593998],[-73.4306448,-8.3540055],[-73.4387308,-8.3539147],[-73.438792,-8.359309]]]}},{"type":"Feature","id":"AC-Y641-X106","properties":{"id":"AC-Y641-X106","grid_x":106,"grid_y":641,"centroid":[-73.5074275,-8.3504399],"aggregation":"none","score_gradboost":0.008227,"score_random_forest":0.0089626,"score_logistic_regression":0.0594732,"score_fuzzy_knn_k29":0.0},"geometry":{"type":"Polygon","coordinates":[[[-73.5115011,-8.3530907],[-73.5034159,-8.3531829],[-73.5033539,-8.3477891],[-73.511439,-8.347697],[-73.5115011,-8.3530907]]]}},{"type":"Feature","id":"AC-Y641-X107","properties":{"id":"AC-Y641-X107","grid_x":107,"grid_y":641,"centroid":[-73.4993423,-8.350532],"aggregation":"none","score_gradboost":0.0058463,"score_random_forest":0.0074682,"score_logistic_regression":0.0467284,"score_fuzzy_knn_k29":0.0},"geometry":{"type":"Polygon","coordinates":[[[-73.5034159,-8.3531829],[-73.4953306,-8.3532749],[-73.4952687,-8.3478811],[-73.5033539,-8.3477891],[-73.5034159,-8.3531829]]]}},{"type":"Feature","id":"AC-Y641-X108","properties":{"id":"AC-Y641-X108","grid_x":108,"grid_y":641,"centroid":[-73.491257,-8.350624],"aggregation":"none","score_gradboost":0.0056051,"score_random_forest":0.0122176,"score_logistic_regression":0.0402182,"score_fuzzy_knn_k29":0.0},"geometry":{"type":"Polygon","coordinates":[[[-73.4953306,-8.3532749],[-73.4872452,-8.3533668],[-73.4871834,-8.347973],[-73.4952687,-8.3478811],[-73.4953306,-8.3532749]]]}},{"type":"Feature","id":"AC-Y641-X109","properties":{"id":"AC-Y641-X109","grid_x":109,"grid_y":641,"centroid":[-73.4831716,-8.3507158],"aggregation":"none","score_gradboost":0.0058463,"score_random_forest":0.0074682,"score_logistic_regression":0.0466177,"score_fuzzy_knn_k29":0.0},"geometry":{"type":"Polygon","coordinates":[[[-73.4872452,-8.3533668],[-73.4791597,-8.3534586],[-73.4790981,-8.3480646],[-73.4871834,-8.347973],[-73.4872452,-8.3533668]]]}},{"type":"Feature","id":"AC-Y641-X110","properties":{"id":"AC-Y641-X110","grid_x":110,"grid_y":641,"centroid":[-73.4750861,-8.3508074],"aggregation":"none","score_gradboost":0.0058463,"score_random_forest":0.0052327,"score_logistic_regression":0.0483861,"score_fuzzy_knn_k29":0.0},"geometry":{"type":"Polygon","coordinates":[[[-73.4791597,-8.3534586],[-73.4710741,-8.3535501],[-73.4710126,-8.3481561],[-73.4790981,-8.3480646],[-73.4791597,-8.3534586]]]}},{"type":"Feature","id":"AC-Y641-X111","properties":{"id":"AC-Y641-X111","grid_x":111,"grid_y":641,"centroid":[-73.4670005,-8.3508988],"aggregation":"none","score_gradboost":0.0056051,"score_random_forest":0.0074751,"score_logistic_regression":0.0458431,"score_fuzzy_knn_k29":0.0},"geometry":{"type":"Polygon","coordinates":[[[-73.4710741,-8.3535501],[-73.4629884,-8.3536415],[-73.462927,-8.3482475],[-73.4710126,-8.3481561],[-73.4710741,-8.3535501]]]}},{"type":"Feature","id":"AC-Y641-X112","properties":{"id":"AC-Y641-X112","grid_x":112,"grid_y":641,"centroid":[-73.4589149,-8.3509901],"aggregation":"none","score_gradboost":0.0071434,"score_random_forest":0.0070315,"score_logistic_regression":0.0418983,"score_fuzzy_knn_k29":0.0},"geometry":{"type":"Polygon","coordinates":[[[-73.4629884,-8.3536415],[-73.4549027,-8.3537328],[-73.4548414,-8.3483386],[-73.462927,-8.3482475],[-73.4629884,-8.3536415]]]}},{"type":"Feature","id":"AC-Y641-X113","properties":{"id":"AC-Y641-X113","grid_x":113,"grid_y":641,"centroid":[-73.4508291,-8.3510812],"aggregation":"none","score_gradboost":0.0074419,"score_random_forest":0.0132316,"score_logistic_regression":0.050618,"score_fuzzy_knn_k29":0.0},"geometry":{"type":"Polygon","coordinates":[[[-73.4549027,-8.3537328],[-73.4468168,-8.3538238],[-73.4467556,-8.3484297],[-73.4548414,-8.3483386],[-73.4549027,-8.3537328]]]}},{"type":"Feature","id":"AC-Y641-X114","properties":{"id":"AC-Y641-X114","grid_x":114,"grid_y":641,"centroid":[-73.4427433,-8.3511722],"aggregation":"none","score_gradboost":0.0118136,"score_random_forest":0.0306949,"score_logistic_regression":0.083715,"score_fuzzy_knn_k29":0.025234},"geometry":{"type":"Polygon","coordinates":[[[-73.4468168,-8.3538238],[-73.4387308,-8.3539147],[-73.4386698,-8.3485205],[-73.4467556,-8.3484297],[-73.4468168,-8.3538238]]]}},{"type":"Feature","id":"AC-Y641-X115","properties":{"id":"AC-Y641-X115","grid_x":115,"grid_y":641,"centroid":[-73.4346573,-8.351263],"aggregation":"none","score_gradboost":0.0118003,"score_random_forest":0.0400936,"score_logistic_regression":0.0889029,"score_fuzzy_knn_k29":0.024727},"geometry":{"type":"Polygon","coordinates":[[[-73.4387308,-8.3539147],[-73.4306448,-8.3540055],[-73.4305838,-8.3486112],[-73.4386698,-8.3485205],[-73.4387308,-8.3539147]]]}},{"type":"Feature","id":"AC-Y642-X109","properties":{"id":"AC-Y642-X109","grid_x":109,"grid_y":642,"centroid":[-73.4831099,-8.3453218],"aggregation":"none","score_gradboost":0.0058397,"score_random_forest":0.0132316,"score_logistic_regression":0.0500828,"score_fuzzy_knn_k29":0.0},"geometry":{"type":"Polygon","coordinates":[[[-73.4871834,-8.347973],[-73.4790981,-8.3480646],[-73.4790365,-8.3426707],[-73.4871218,-8.3425791],[-73.4871834,-8.347973]]]}},{"type":"Feature","id":"AC-Y642-X110","properties":{"id":"AC-Y642-X110","grid_x":110,"grid_y":642,"centroid":[-73.4750246,-8.3454134],"aggregation":"none","score_gradboost":0.0061715,"score_random_forest":0.0140866,"score_logistic_regression":0.0510043,"score_fuzzy_knn_k29":0.0},"geometry":{"type":"Polygon","coordinates":[[[-73.4790981,-8.3480646],[-73.4710126,-8.3481561],[-73.4709511,-8.3427621],[-73.4790365,-8.3426707],[-73.4790981,-8.3480646]]]}},{"type":"Feature","id":"AC-Y642-X111","properties":{"id":"AC-Y642-X111","grid_x":111,"grid_y":642,"centroid":[-73.4669391,-8.3455048],"aggregation":"none","score_gradboost":0.0074503,"score_random_forest":0.0074682,"score_logistic_regression":0.0465562,"score_fuzzy_knn_k29":0.0},"geometry":{"type":"Polygon","coordinates":[[[-73.4710126,-8.3481561],[-73.462927,-8.3482475],[-73.4628657,-8.3428534],[-73.4709511,-8.3427621],[-73.4710126,-8.3481561]]]}},{"type":"Feature","id":"AC-Y642-X112","properties":{"id":"AC-Y642-X112","grid_x":112,"grid_y":642,"centroid":[-73.4588536,-8.345596],"aggregation":"none","score_gradboost":0.0352715,"score_random_forest":0.0255491,"score_logistic_regression":0.0660725,"score_fuzzy_knn_k29":0.0},"geometry":{"type":"Polygon","coordinates":[[[-73.462927,-8.3482475],[-73.4548414,-8.3483386],[-73.4547801,-8.3429445],[-73.4628657,-8.3428534],[-73.462927,-8.3482475]]]}},{"type":"Feature","id":"AC-Y642-X113","properties":{"id":"AC-Y642-X113","grid_x":113,"grid_y":642,"centroid":[-73.4507679,-8.3456871],"aggregation":"none","score_gradboost":0.0106556,"score_random_forest":0.0095317,"score_logistic_regression":0.0594623,"score_fuzzy_knn_k29":0.0},"geometry":{"type":"Polygon","coordinates":[[[-73.4548414,-8.3483386],[-73.4467556,-8.3484297],[-73.4466945,-8.3430355],[-73.4547801,-8.3429445],[-73.4548414,-8.3483386]]]}},{"type":"Feature","id":"AC-Y642-X114","properties":{"id":"AC-Y642-X114","grid_x":114,"grid_y":642,"centroid":[-73.4426822,-8.345778],"aggregation":"none","score_gradboost":0.0078809,"score_random_forest":0.0051028,"score_logistic_regression":0.0488521,"score_fuzzy_knn_k29":0.0},"geometry":{"type":"Polygon","coordinates":[[[-73.4467556,-8.3484297],[-73.4386698,-8.3485205],[-73.4386088,-8.3431262],[-73.4466945,-8.3430355],[-73.4467556,-8.3484297]]]}},{"type":"Feature","id":"AC-Y642-X115","properties":{"id":"AC-Y642-X115","grid_x":115,"grid_y":642,"centroid":[-73.4345963,-8.3458687],"aggregation":"none","score_gradboost":0.0078809,"score_random_forest":0.0024797,"score_logistic_regression":0.0482939,"score_fuzzy_knn_k29":0.0},"geometry":{"type":"Polygon","coordinates":[[[-73.4386698,-8.3485205],[-73.4305838,-8.3486112],[-73.4305229,-8.3432169],[-73.4386088,-8.3431262],[-73.4386698,-8.3485205]]]}},{"type":"Feature","id":"AC-Y639-X105","properties":{"id":"AC-Y639-X105","grid_x":105,"grid_y":639,"centroid":[-73.5156369,-8.361135],"aggregation":"none","score_gradboost":0.0066491,"score_random_forest":0.0099406,"score_logistic_regression":0.0420971,"score_fuzzy_knn_k29":0.0},"geometry":{"type":"Polygon","coordinates":[[[-73.5197107,-8.3637856],[-73.5116254,-8.3638781],[-73.5115632,-8.3584844],[-73.5196484,-8.3583919],[-73.5197107,-8.3637856]]]}},{"type":"Feature","id":"AC-Y640-X104","properties":{"id":"AC-Y640-X104","grid_x":104,"grid_y":640,"centroid":[-73.5236599,-8.3556488],"aggregation":"none","score_gradboost":0.0066491,"score_random_forest":0.0099406,"score_logistic_regression":0.0421621,"score_fuzzy_knn_k29":0.0},"geometry":{"type":"Polygon","coordinates":[[[-73.5277336,-8.3582993],[-73.5196484,-8.3583919],[-73.5195862,-8.3529983],[-73.5276713,-8.3529057],[-73.5277336,-8.3582993]]]}},{"type":"Feature","id":"AC-Y640-X105","properties":{"id":"AC-Y640-X105","grid_x":105,"grid_y":640,"centroid":[-73.5155748,-8.3557413],"aggregation":"none","score_gradboost":0.0066491,"score_random_forest":0.0133475,"score_logistic_regression":0.0403174,"score_fuzzy_knn_k29":0.0},"geometry":{"type":"Polygon","coordinates":[[[-73.5196484,-8.3583919],[-73.5115632,-8.3584844],[-73.5115011,-8.3530907],[-73.5195862,-8.3529983],[-73.5196484,-8.3583919]]]}},{"type":"Feature","id":"AC-Y641-X104","properties":{"id":"AC-Y641-X104","grid_x":104,"grid_y":641,"centroid":[-73.5235976,-8.3502552],"aggregation":"none","score_gradboost":0.0066491,"score_random_forest":0.0197902,"score_logistic_regression":0.0389087,"score_fuzzy_knn_k29":0.0},"geometry":{"type":"Polygon","coordinates":[[[-73.5276713,-8.3529057],[-73.5195862,-8.3529983],[-73.5195241,-8.3476046],[-73.527609,-8.3475122],[-73.5276713,-8.3529057]]]}},{"type":"Feature","id":"AC-Y641-X105","properties":{"id":"AC-Y641-X105","grid_x":105,"grid_y":641,"centroid":[-73.5155126,-8.3503477],"aggregation":"none","score_gradboost":0.0066491,"score_random_forest":0.0110644,"score_logistic_regression":0.0386089,"score_fuzzy_knn_k29":0.0},"geometry":{"type":"Polygon","coordinates":[[[-73.5195862,-8.3529983],[-73.5115011,-8.3530907],[-73.511439,-8.347697],[-73.5195241,-8.3476046],[-73.5195862,-8.3529983]]]}}]}