{"type":"FeatureCollection","features":[{"type":"Feature","id":"AC-Y344-X944","properties":{"id":"AC-Y344-X944","grid_x":944,"grid_y":344,"centroid":[-66.7055704,-9.9751266],"aggregation":"none","score_gradboost":0.3652319,"score_random_forest":0.574068,"score_logistic_regression":0.8291266,"score_fuzzy_knn_k29":0.7751663},"geometry":{"type":"Polygon","coordinates":[[[-66.7096219,-9.9778575],[-66.7014811,-9.9778015],[-66.701519,-9.9723957],[-66.7096597,-9.9724517],[-66.7096219,-9.9778575]]]}},{"type":"Feature","id":"AC-Y345-X944","properties":{"id":"AC-Y345-X944","grid_x":944,"grid_y":345,"centroid":[-66.7056082,-9.9697209],"aggregation":"none","score_gradboost":0.5089711,"score_random_forest":0.6343234,"score_logistic_regression":0.7759964,"score_fuzzy_knn_k29":0.7663263},"geometry":{"type":"Polygon","coordinates":[[[-66.7096597,-9.9724517],[-66.701519,-9.9723957],[-66.7015569,-9.96699],[-66.7096974,-9.967046],[-66.7096597,-9.9724517]]]}},{"type":"Feature","id":"AC-Y345-X945","properties":{"id":"AC-Y345-X945","grid_x":945,"grid_y":345,"centroid":[-66.6974676,-9.9696648],"aggregation":"none","score_gradboost":0.1556406,"score_random_forest":0.1456395,"score_logistic_regression":0.8215294,"score_fuzzy_knn_k29":0.7741939},"geometry":{"type":"Polygon","coordinates":[[[-66.701519,-9.9723957],[-66.6933783,-9.9723395],[-66.6934163,-9.9669339],[-66.7015569,-9.96699],[-66.701519,-9.9723957]]]}},{"type":"Feature","id":"AC-Y346-X944","properties":{"id":"AC-Y346-X944","grid_x":944,"grid_y":346,"centroid":[-66.705646,-9.9643152],"aggregation":"none","score_gradboost":0.388458,"score_random_forest":0.5613353,"score_logistic_regression":0.7811606,"score_fuzzy_knn_k29":0.7759911},"geometry":{"type":"Polygon","coordinates":[[[-66.7096974,-9.967046],[-66.7015569,-9.96699],[-66.7015947,-9.9615843],[-66.7097352,-9.9616402],[-66.7096974,-9.967046]]]}},{"type":"Feature","id":"AC-Y346-X945","properties":{"id":"AC-Y346-X945","grid_x":945,"grid_y":346,"centroid":[-66.6975056,-9.9642591],"aggregation":"none","score_gradboost":0.2259849,"score_random_forest":0.1337644,"score_logistic_regression":0.7321417,"score_fuzzy_knn_k29":0.5853483},"geometry":{"type":"Polygon","coordinates":[[[-66.7015569,-9.96699],[-66.6934163,-9.9669339],[-66.6934543,-9.9615282],[-66.7015947,-9.9615843],[-66.7015569,-9.96699]]]}},{"type":"Feature","id":"AC-Y346-X946","properties":{"id":"AC-Y346-X946","grid_x":946,"grid_y":346,"centroid":[-66.6893651,-9.9642029],"aggregation":"none","score_gradboost":0.097619,"score_random_forest":0.0913953,"score_logistic_regression":0.807443,"score_fuzzy_knn_k29":0.750245},"geometry":{"type":"Polygon","coordinates":[[[-66.6934163,-9.9669339],[-66.6852759,-9.9668775],[-66.685314,-9.9614718],[-66.6934543,-9.9615282],[-66.6934163,-9.9669339]]]}},{"type":"Feature","id":"AC-Y346-X947","properties":{"id":"AC-Y346-X947","grid_x":947,"grid_y":346,"centroid":[-66.6812247,-9.9641464],"aggregation":"none","score_gradboost":0.0813478,"score_random_forest":0.0962941,"score_logistic_regression":0.8059406,"score_fuzzy_knn_k29":0.7492021},"geometry":{"type":"Polygon","coordinates":[[[-66.6852759,-9.9668775],[-66.6771354,-9.9668209],[-66.6771737,-9.9614153],[-66.685314,-9.9614718],[-66.6852759,-9.9668775]]]}},{"type":"Feature","id":"AC-Y347-X944","properties":{"id":"AC-Y347-X944","grid_x":944,"grid_y":347,"centroid":[-66.7056838,-9.9589094],"aggregation":"none","score_gradboost":0.2524465,"score_random_forest":0.2119747,"score_logistic_regression":0.7981775,"score_fuzzy_knn_k29":0.8092372},"geometry":{"type":"Polygon","coordinates":[[[-66.7097352,-9.9616402],[-66.7015947,-9.9615843],[-66.7016326,-9.9561786],[-66.7097729,-9.9562345],[-66.7097352,-9.9616402]]]}},{"type":"Feature","id":"AC-Y347-X945","properties":{"id":"AC-Y347-X945","grid_x":945,"grid_y":347,"centroid":[-66.6975435,-9.9588534],"aggregation":"none","score_gradboost":0.1886187,"score_random_forest":0.0994757,"score_logistic_regression":0.7493794,"score_fuzzy_knn_k29":0.7409782},"geometry":{"type":"Polygon","coordinates":[[[-66.7015947,-9.9615843],[-66.6934543,-9.9615282],[-66.6934923,-9.9561225],[-66.7016326,-9.9561786],[-66.7015947,-9.9615843]]]}},{"type":"Feature","id":"AC-Y347-X946","properties":{"id":"AC-Y347-X946","grid_x":946,"grid_y":347,"centroid":[-66.6894032,-9.9587972],"aggregation":"none","score_gradboost":0.0810217,"score_random_forest":0.0819871,"score_logistic_regression":0.7470591,"score_fuzzy_knn_k29":0.7342417},"geometry":{"type":"Polygon","coordinates":[[[-66.6934543,-9.9615282],[-66.685314,-9.9614718],[-66.6853521,-9.9560662],[-66.6934923,-9.9561225],[-66.6934543,-9.9615282]]]}},{"type":"Feature","id":"AC-Y347-X947","properties":{"id":"AC-Y347-X947","grid_x":947,"grid_y":347,"centroid":[-66.6812629,-9.9587408],"aggregation":"none","score_gradboost":0.1224709,"score_random_forest":0.1001036,"score_logistic_regression":0.7953442,"score_fuzzy_knn_k29":0.7521006},"geometry":{"type":"Polygon","coordinates":[[[-66.685314,-9.9614718],[-66.6771737,-9.9614153],[-66.6772119,-9.9560097],[-66.6853521,-9.9560662],[-66.685314,-9.9614718]]]}},{"type":"Feature","id":"AC-Y348-X944","properties":{"id":"AC-Y348-X944","grid_x":944,"grid_y":348,"centroid":[-66.7057216,-9.9535037],"aggregation":"none","score_gradboost":0.4512267,"score_random_forest":0.3977113,"score_logistic_regression":0.8211772,"score_fuzzy_knn_k29":0.9073309},"geometry":{"type":"Polygon","coordinates":[[[-66.7097729,-9.9562345],[-66.7016326,-9.9561786],[-66.7016704,-9.9507728],[-66.7098106,-9.9508287],[-66.7097729,-9.9562345]]]}},{"type":"Feature","id":"AC-Y348-X945","properties":{"id":"AC-Y348-X945","grid_x":945,"grid_y":348,"centroid":[-66.6975814,-9.9534477],"aggregation":"none","score_gradboost":0.1842391,"score_random_forest":0.151801,"score_logistic_regression":0.7252867,"score_fuzzy_knn_k29":0.7898494},"geometry":{"type":"Polygon","coordinates":[[[-66.7016326,-9.9561786],[-66.6934923,-9.9561225],[-66.6935303,-9.9507168],[-66.7016704,-9.9507728],[-66.7016326,-9.9561786]]]}},{"type":"Feature","id":"AC-Y348-X946","properties":{"id":"AC-Y348-X946","grid_x":946,"grid_y":348,"centroid":[-66.6894412,-9.9533915],"aggregation":"none","score_gradboost":0.1597454,"score_random_forest":0.122596,"score_logistic_regression":0.7820963,"score_fuzzy_knn_k29":0.8032642},"geometry":{"type":"Polygon","coordinates":[[[-66.6934923,-9.9561225],[-66.6853521,-9.9560662],[-66.6853902,-9.9506605],[-66.6935303,-9.9507168],[-66.6934923,-9.9561225]]]}},{"type":"Feature","id":"AC-Y348-X947","properties":{"id":"AC-Y348-X947","grid_x":947,"grid_y":348,"centroid":[-66.6813011,-9.9533351],"aggregation":"none","score_gradboost":0.1894881,"score_random_forest":0.1326434,"score_logistic_regression":0.7564212,"score_fuzzy_knn_k29":0.7489279},"geometry":{"type":"Polygon","coordinates":[[[-66.6853521,-9.9560662],[-66.6772119,-9.9560097],[-66.6772502,-9.950604],[-66.6853902,-9.9506605],[-66.6853521,-9.9560662]]]}},{"type":"Feature","id":"AC-Y348-X948","properties":{"id":"AC-Y348-X948","grid_x":948,"grid_y":348,"centroid":[-66.673161,-9.9532785],"aggregation":"none","score_gradboost":0.2596526,"score_random_forest":0.1596223,"score_logistic_regression":0.8295565,"score_fuzzy_knn_k29":0.7774086},"geometry":{"type":"Polygon","coordinates":[[[-66.677212,-9.9560097],[-66.6690718,-9.955953],[-66.6691102,-9.9505474],[-66.6772502,-9.950604],[-66.677212,-9.9560097]]]}},{"type":"Feature","id":"AC-Y349-X944","properties":{"id":"AC-Y349-X944","grid_x":944,"grid_y":349,"centroid":[-66.7057594,-9.9480979],"aggregation":"none","score_gradboost":0.4955395,"score_random_forest":0.3832513,"score_logistic_regression":0.8073519,"score_fuzzy_knn_k29":0.891803},"geometry":{"type":"Polygon","coordinates":[[[-66.7098106,-9.9508287],[-66.7016704,-9.9507728],[-66.7017082,-9.9453671],[-66.7098483,-9.945423],[-66.7098106,-9.9508287]]]}},{"type":"Feature","id":"AC-Y349-X945","properties":{"id":"AC-Y349-X945","grid_x":945,"grid_y":349,"centroid":[-66.6976193,-9.948042],"aggregation":"none","score_gradboost":0.1587471,"score_random_forest":0.154578,"score_logistic_regression":0.7207051,"score_fuzzy_knn_k29":0.8401825},"geometry":{"type":"Polygon","coordinates":[[[-66.7016704,-9.9507728],[-66.6935303,-9.9507168],[-66.6935682,-9.9453111],[-66.7017082,-9.9453671],[-66.7016704,-9.9507728]]]}},{"type":"Feature","id":"AC-Y349-X946","properties":{"id":"AC-Y349-X946","grid_x":946,"grid_y":349,"centroid":[-66.6894792,-9.9479858],"aggregation":"none","score_gradboost":0.2511461,"score_random_forest":0.181132,"score_logistic_regression":0.7563834,"score_fuzzy_knn_k29":0.8259067},"geometry":{"type":"Polygon","coordinates":[[[-66.6935303,-9.9507168],[-66.6853902,-9.9506605],[-66.6854283,-9.9452548],[-66.6935682,-9.9453111],[-66.6935303,-9.9507168]]]}},{"type":"Feature","id":"AC-Y349-X947","properties":{"id":"AC-Y349-X947","grid_x":947,"grid_y":349,"centroid":[-66.6813393,-9.9479295],"aggregation":"none","score_gradboost":0.1483274,"score_random_forest":0.1811713,"score_logistic_regression":0.7484416,"score_fuzzy_knn_k29":0.7689984},"geometry":{"type":"Polygon","coordinates":[[[-66.6853902,-9.9506605],[-66.6772502,-9.950604],[-66.6772884,-9.9451984],[-66.6854283,-9.9452548],[-66.6853902,-9.9506605]]]}},{"type":"Feature","id":"AC-Y349-X948","properties":{"id":"AC-Y349-X948","grid_x":948,"grid_y":349,"centroid":[-66.6731993,-9.9478729],"aggregation":"none","score_gradboost":0.4921409,"score_random_forest":0.5322968,"score_logistic_regression":0.9249559,"score_fuzzy_knn_k29":0.7457714},"geometry":{"type":"Polygon","coordinates":[[[-66.6772502,-9.950604],[-66.6691102,-9.9505474],[-66.6691485,-9.9451418],[-66.6772884,-9.9451984],[-66.6772502,-9.950604]]]}},{"type":"Feature","id":"AC-Y349-X949","properties":{"id":"AC-Y349-X949","grid_x":949,"grid_y":349,"centroid":[-66.6650594,-9.9478162],"aggregation":"none","score_gradboost":0.7468165,"score_random_forest":0.6599212,"score_logistic_regression":0.7049002,"score_fuzzy_knn_k29":0.5911272},"geometry":{"type":"Polygon","coordinates":[[[-66.6691102,-9.9505474],[-66.6609703,-9.9504905],[-66.6610087,-9.945085],[-66.6691485,-9.9451418],[-66.6691102,-9.9505474]]]}},{"type":"Feature","id":"AC-Y349-X952","properties":{"id":"AC-Y349-X952","grid_x":952,"grid_y":349,"centroid":[-66.6406401,-9.9476448],"aggregation":"none","score_gradboost":0.3652319,"score_random_forest":0.5439408,"score_logistic_regression":0.8387869,"score_fuzzy_knn_k29":0.7775313},"geometry":{"type":"Polygon","coordinates":[[[-66.6446906,-9.9503762],[-66.6365508,-9.9503188],[-66.6365896,-9.9449133],[-66.6447293,-9.9449707],[-66.6446906,-9.9503762]]]}},{"type":"Feature","id":"AC-Y350-X944","properties":{"id":"AC-Y350-X944","grid_x":944,"grid_y":350,"centroid":[-66.7057971,-9.9426922],"aggregation":"none","score_gradboost":0.400166,"score_random_forest":0.3669211,"score_logistic_regression":0.817063,"score_fuzzy_knn_k29":0.9198503},"geometry":{"type":"Polygon","coordinates":[[[-66.7098483,-9.945423],[-66.7017082,-9.9453671],[-66.701746,-9.9399614],[-66.7098859,-9.9400172],[-66.7098483,-9.945423]]]}},{"type":"Feature","id":"AC-Y350-X945","properties":{"id":"AC-Y350-X945","grid_x":945,"grid_y":350,"centroid":[-66.6976571,-9.9426363],"aggregation":"none","score_gradboost":0.2920951,"score_random_forest":0.1595461,"score_logistic_regression":0.7040859,"score_fuzzy_knn_k29":0.9216333},"geometry":{"type":"Polygon","coordinates":[[[-66.7017082,-9.9453671],[-66.6935682,-9.9453111],[-66.6936061,-9.9399054],[-66.701746,-9.9399614],[-66.7017082,-9.9453671]]]}},{"type":"Feature","id":"AC-Y350-X946","properties":{"id":"AC-Y350-X946","grid_x":946,"grid_y":350,"centroid":[-66.6895172,-9.9425801],"aggregation":"none","score_gradboost":0.2270409,"score_random_forest":0.2008083,"score_logistic_regression":0.7546835,"score_fuzzy_knn_k29":0.8651629},"geometry":{"type":"Polygon","coordinates":[[[-66.6935682,-9.9453111],[-66.6854283,-9.9452548],[-66.6854663,-9.9398492],[-66.6936061,-9.9399054],[-66.6935682,-9.9453111]]]}},{"type":"Feature","id":"AC-Y350-X947","properties":{"id":"AC-Y350-X947","grid_x":947,"grid_y":350,"centroid":[-66.6813774,-9.9425238],"aggregation":"none","score_gradboost":0.4362826,"score_random_forest":0.6339805,"score_logistic_regression":0.7554444,"score_fuzzy_knn_k29":0.8292994},"geometry":{"type":"Polygon","coordinates":[[[-66.6854283,-9.9452548],[-66.6772884,-9.9451984],[-66.6773266,-9.9397928],[-66.6854663,-9.9398492],[-66.6854283,-9.9452548]]]}},{"type":"Feature","id":"AC-Y350-X948","properties":{"id":"AC-Y350-X948","grid_x":948,"grid_y":350,"centroid":[-66.6732376,-9.9424673],"aggregation":"none","score_gradboost":0.5852539,"score_random_forest":0.7237205,"score_logistic_regression":0.7872937,"score_fuzzy_knn_k29":0.7761031},"geometry":{"type":"Polygon","coordinates":[[[-66.6772884,-9.9451984],[-66.6691485,-9.9451418],[-66.6691869,-9.9397362],[-66.6773266,-9.9397928],[-66.6772884,-9.9451984]]]}},{"type":"Feature","id":"AC-Y350-X951","properties":{"id":"AC-Y350-X951","grid_x":951,"grid_y":350,"centroid":[-66.6488185,-9.9422966],"aggregation":"none","score_gradboost":0.548393,"score_random_forest":0.6615815,"score_logistic_regression":0.8245521,"score_fuzzy_knn_k29":0.7529717},"geometry":{"type":"Polygon","coordinates":[[[-66.652869,-9.9450279],[-66.6447293,-9.9449707],[-66.644768,-9.9395652],[-66.6529076,-9.9396224],[-66.652869,-9.9450279]]]}},{"type":"Feature","id":"AC-Y350-X952","properties":{"id":"AC-Y350-X952","grid_x":952,"grid_y":350,"centroid":[-66.6406789,-9.9422393],"aggregation":"none","score_gradboost":0.6513191,"score_random_forest":0.7404392,"score_logistic_regression":0.8185951,"score_fuzzy_knn_k29":0.7761448},"geometry":{"type":"Polygon","coordinates":[[[-66.6447293,-9.9449707],[-66.6365896,-9.9449133],[-66.6366285,-9.9395078],[-66.644768,-9.9395652],[-66.6447293,-9.9449707]]]}},{"type":"Feature","id":"AC-Y351-X944","properties":{"id":"AC-Y351-X944","grid_x":944,"grid_y":351,"centroid":[-66.7058348,-9.9372864],"aggregation":"none","score_gradboost":0.3898648,"score_random_forest":0.3800192,"score_logistic_regression":0.838619,"score_fuzzy_knn_k29":0.8796259},"geometry":{"type":"Polygon","coordinates":[[[-66.7098859,-9.9400172],[-66.701746,-9.9399614],[-66.7017838,-9.9345557],[-66.7099235,-9.9346114],[-66.7098859,-9.9400172]]]}},{"type":"Feature","id":"AC-Y351-X945","properties":{"id":"AC-Y351-X945","grid_x":945,"grid_y":351,"centroid":[-66.697695,-9.9372306],"aggregation":"none","score_gradboost":0.5699603,"score_random_forest":0.454381,"score_logistic_regression":0.8245281,"score_fuzzy_knn_k29":0.9431249},"geometry":{"type":"Polygon","coordinates":[[[-66.701746,-9.9399614],[-66.6936061,-9.9399054],[-66.693644,-9.9344997],[-66.7017838,-9.9345557],[-66.701746,-9.9399614]]]}},{"type":"Feature","id":"AC-Y351-X946","properties":{"id":"AC-Y351-X946","grid_x":946,"grid_y":351,"centroid":[-66.6895552,-9.9371745],"aggregation":"none","score_gradboost":0.6566634,"score_random_forest":0.6568513,"score_logistic_regression":0.8464285,"score_fuzzy_knn_k29":0.9104114},"geometry":{"type":"Polygon","coordinates":[[[-66.6936061,-9.9399054],[-66.6854663,-9.9398492],[-66.6855044,-9.9344435],[-66.693644,-9.9344997],[-66.6936061,-9.9399054]]]}},{"type":"Feature","id":"AC-Y351-X947","properties":{"id":"AC-Y351-X947","grid_x":947,"grid_y":351,"centroid":[-66.6814155,-9.9371182],"aggregation":"none","score_gradboost":0.6555866,"score_random_forest":0.7147348,"score_logistic_regression":0.7867747,"score_fuzzy_knn_k29":0.8282818},"geometry":{"type":"Polygon","coordinates":[[[-66.6854663,-9.9398492],[-66.6773266,-9.9397928],[-66.6773647,-9.9343871],[-66.6855044,-9.9344435],[-66.6854663,-9.9398492]]]}},{"type":"Feature","id":"AC-Y351-X948","properties":{"id":"AC-Y351-X948","grid_x":948,"grid_y":351,"centroid":[-66.6732758,-9.9370617],"aggregation":"none","score_gradboost":0.5872928,"score_random_forest":0.7862461,"score_logistic_regression":0.750304,"score_fuzzy_knn_k29":0.7698023},"geometry":{"type":"Polygon","coordinates":[[[-66.6773266,-9.9397928],[-66.6691869,-9.9397362],[-66.6692252,-9.9343306],[-66.6773647,-9.9343871],[-66.6773266,-9.9397928]]]}},{"type":"Feature","id":"AC-Y351-X949","properties":{"id":"AC-Y351-X949","grid_x":949,"grid_y":351,"centroid":[-66.6651362,-9.937005],"aggregation":"none","score_gradboost":0.5638679,"score_random_forest":0.6812368,"score_logistic_regression":0.8303595,"score_fuzzy_knn_k29":0.7540145},"geometry":{"type":"Polygon","coordinates":[[[-66.6691869,-9.9397362],[-66.6610472,-9.9396794],[-66.6610856,-9.9342738],[-66.6692252,-9.9343306],[-66.6691869,-9.9397362]]]}},{"type":"Feature","id":"AC-Y351-X951","properties":{"id":"AC-Y351-X951","grid_x":951,"grid_y":351,"centroid":[-66.6488571,-9.9368911],"aggregation":"none","score_gradboost":0.5541367,"score_random_forest":0.501128,"score_logistic_regression":0.9174994,"score_fuzzy_knn_k29":0.5799201},"geometry":{"type":"Polygon","coordinates":[[[-66.6529076,-9.9396224],[-66.644768,-9.9395652],[-66.6448067,-9.9341597],[-66.6529461,-9.9342168],[-66.6529076,-9.9396224]]]}},{"type":"Feature","id":"AC-Y351-X952","properties":{"id":"AC-Y351-X952","grid_x":952,"grid_y":351,"centroid":[-66.6407176,-9.9368338],"aggregation":"none","score_gradboost":0.6235858,"score_random_forest":0.7549448,"score_logistic_regression":0.8391001,"score_fuzzy_knn_k29":0.805388},"geometry":{"type":"Polygon","coordinates":[[[-66.644768,-9.9395652],[-66.6366285,-9.9395078],[-66.6366673,-9.9341023],[-66.6448067,-9.9341597],[-66.644768,-9.9395652]]]}},{"type":"Feature","id":"AC-Y352-X944","properties":{"id":"AC-Y352-X944","grid_x":944,"grid_y":352,"centroid":[-66.7058725,-9.9318807],"aggregation":"none","score_gradboost":0.6000489,"score_random_forest":0.441866,"score_logistic_regression":0.7925759,"score_fuzzy_knn_k29":0.9470332},"geometry":{"type":"Polygon","coordinates":[[[-66.7099235,-9.9346114],[-66.7017838,-9.9345557],[-66.7018215,-9.9291499],[-66.7099611,-9.9292057],[-66.7099235,-9.9346114]]]}},{"type":"Feature","id":"AC-Y352-X945","properties":{"id":"AC-Y352-X945","grid_x":945,"grid_y":352,"centroid":[-66.6977328,-9.9318248],"aggregation":"none","score_gradboost":0.4863821,"score_random_forest":0.4643254,"score_logistic_regression":0.8466948,"score_fuzzy_knn_k29":0.8930942},"geometry":{"type":"Polygon","coordinates":[[[-66.7017838,-9.9345557],[-66.693644,-9.9344997],[-66.6936819,-9.929094],[-66.7018215,-9.9291499],[-66.7017838,-9.9345557]]]}},{"type":"Feature","id":"AC-Y352-X946","properties":{"id":"AC-Y352-X946","grid_x":946,"grid_y":352,"centroid":[-66.6895932,-9.9317688],"aggregation":"none","score_gradboost":0.765806,"score_random_forest":0.8268282,"score_logistic_regression":0.8169194,"score_fuzzy_knn_k29":0.9372333},"geometry":{"type":"Polygon","coordinates":[[[-66.693644,-9.9344997],[-66.6855044,-9.9344435],[-66.6855424,-9.9290378],[-66.6936819,-9.929094],[-66.693644,-9.9344997]]]}},{"type":"Feature","id":"AC-Y352-X947","properties":{"id":"AC-Y352-X947","grid_x":947,"grid_y":352,"centroid":[-66.6814536,-9.9317125],"aggregation":"none","score_gradboost":0.8505162,"score_random_forest":0.743251,"score_logistic_regression":0.8917162,"score_fuzzy_knn_k29":0.9741729},"geometry":{"type":"Polygon","coordinates":[[[-66.6855044,-9.9344435],[-66.6773647,-9.9343871],[-66.6774029,-9.9289815],[-66.6855424,-9.9290378],[-66.6855044,-9.9344435]]]}},{"type":"Feature","id":"AC-Y352-X948","properties":{"id":"AC-Y352-X948","grid_x":948,"grid_y":352,"centroid":[-66.673314,-9.9316561],"aggregation":"none","score_gradboost":0.6620103,"score_random_forest":0.8108845,"score_logistic_regression":0.7368674,"score_fuzzy_knn_k29":0.8386524},"geometry":{"type":"Polygon","coordinates":[[[-66.6773647,-9.9343871],[-66.6692252,-9.9343306],[-66.6692634,-9.928925],[-66.6774029,-9.9289815],[-66.6773647,-9.9343871]]]}},{"type":"Feature","id":"AC-Y352-X949","properties":{"id":"AC-Y352-X949","grid_x":949,"grid_y":352,"centroid":[-66.6651746,-9.9315994],"aggregation":"none","score_gradboost":0.7928956,"score_random_forest":0.829445,"score_logistic_regression":0.7787378,"score_fuzzy_knn_k29":0.7664851},"geometry":{"type":"Polygon","coordinates":[[[-66.6692252,-9.9343306],[-66.6610856,-9.9342738],[-66.661124,-9.9288682],[-66.6692634,-9.928925],[-66.6692252,-9.9343306]]]}},{"type":"Feature","id":"AC-Y352-X950","properties":{"id":"AC-Y352-X950","grid_x":950,"grid_y":352,"centroid":[-66.6570351,-9.9315426],"aggregation":"none","score_gradboost":0.8328637,"score_random_forest":0.8152184,"score_logistic_regression":0.7814289,"score_fuzzy_knn_k29":0.7975546},"geometry":{"type":"Polygon","coordinates":[[[-66.6610856,-9.9342738],[-66.6529461,-9.9342168],[-66.6529847,-9.9288113],[-66.661124,-9.9288682],[-66.6610856,-9.9342738]]]}},{"type":"Feature","id":"AC-Y352-X951","properties":{"id":"AC-Y352-X951","grid_x":951,"grid_y":352,"centroid":[-66.6488957,-9.9314855],"aggregation":"none","score_gradboost":0.7302895,"score_random_forest":0.7130436,"score_logistic_regression":0.9075729,"score_fuzzy_knn_k29":0.8293768},"geometry":{"type":"Polygon","coordinates":[[[-66.6529461,-9.9342168],[-66.6448067,-9.9341597],[-66.6448454,-9.9287542],[-66.6529847,-9.9288113],[-66.6529461,-9.9342168]]]}},{"type":"Feature","id":"AC-Y352-X952","properties":{"id":"AC-Y352-X952","grid_x":952,"grid_y":352,"centroid":[-66.6407564,-9.9314283],"aggregation":"none","score_gradboost":0.6425495,"score_random_forest":0.7809576,"score_logistic_regression":0.8415428,"score_fuzzy_knn_k29":0.8063513},"geometry":{"type":"Polygon","coordinates":[[[-66.6448067,-9.9341597],[-66.6366673,-9.9341023],[-66.6367061,-9.9286968],[-66.6448454,-9.9287542],[-66.6448067,-9.9341597]]]}},{"type":"Feature","id":"AC-Y352-X953","properties":{"id":"AC-Y352-X953","grid_x":953,"grid_y":352,"centroid":[-66.6326171,-9.9313708],"aggregation":"none","score_gradboost":0.6554707,"score_random_forest":0.7446611,"score_logistic_regression":0.8163694,"score_fuzzy_knn_k29":0.7543623},"geometry":{"type":"Polygon","coordinates":[[[-66.6366673,-9.9341023],[-66.628528,-9.9340448],[-66.6285669,-9.9286393],[-66.6367061,-9.9286968],[-66.6366673,-9.9341023]]]}},{"type":"Feature","id":"AC-Y353-X944","properties":{"id":"AC-Y353-X944","grid_x":944,"grid_y":353,"centroid":[-66.7059101,-9.926475],"aggregation":"none","score_gradboost":0.4819276,"score_random_forest":0.4697886,"score_logistic_regression":0.8201876,"score_fuzzy_knn_k29":0.9221783},"geometry":{"type":"Polygon","coordinates":[[[-66.7099611,-9.9292057],[-66.7018215,-9.9291499],[-66.7018592,-9.9237442],[-66.7099987,-9.9237999],[-66.7099611,-9.9292057]]]}},{"type":"Feature","id":"AC-Y353-X945","properties":{"id":"AC-Y353-X945","grid_x":945,"grid_y":353,"centroid":[-66.6977706,-9.9264191],"aggregation":"none","score_gradboost":0.5340679,"score_random_forest":0.584433,"score_logistic_regression":0.8180367,"score_fuzzy_knn_k29":0.9152},"geometry":{"type":"Polygon","coordinates":[[[-66.7018215,-9.9291499],[-66.6936819,-9.929094],[-66.6937198,-9.9236883],[-66.7018592,-9.9237442],[-66.7018215,-9.9291499]]]}},{"type":"Feature","id":"AC-Y353-X946","properties":{"id":"AC-Y353-X946","grid_x":946,"grid_y":353,"centroid":[-66.6896311,-9.9263631],"aggregation":"none","score_gradboost":0.8006408,"score_random_forest":0.8075814,"score_logistic_regression":0.8386886,"score_fuzzy_knn_k29":0.9199885},"geometry":{"type":"Polygon","coordinates":[[[-66.6936819,-9.929094],[-66.6855424,-9.9290378],[-66.6855804,-9.9236322],[-66.6937198,-9.9236883],[-66.6936819,-9.929094]]]}},{"type":"Feature","id":"AC-Y353-X947","properties":{"id":"AC-Y353-X947","grid_x":947,"grid_y":353,"centroid":[-66.6814916,-9.9263069],"aggregation":"none","score_gradboost":0.7666682,"score_random_forest":0.839311,"score_logistic_regression":0.7192816,"score_fuzzy_knn_k29":0.9240259},"geometry":{"type":"Polygon","coordinates":[[[-66.6855424,-9.9290378],[-66.6774029,-9.9289815],[-66.677441,-9.9235759],[-66.6855804,-9.9236322],[-66.6855424,-9.9290378]]]}},{"type":"Feature","id":"AC-Y353-X948","properties":{"id":"AC-Y353-X948","grid_x":948,"grid_y":353,"centroid":[-66.6733522,-9.9262504],"aggregation":"none","score_gradboost":0.7980495,"score_random_forest":0.8771138,"score_logistic_regression":0.7037113,"score_fuzzy_knn_k29":0.8647732},"geometry":{"type":"Polygon","coordinates":[[[-66.6774029,-9.9289815],[-66.6692634,-9.928925],[-66.6693017,-9.9235194],[-66.677441,-9.9235759],[-66.6774029,-9.9289815]]]}},{"type":"Feature","id":"AC-Y353-X949","properties":{"id":"AC-Y353-X949","grid_x":949,"grid_y":353,"centroid":[-66.6652129,-9.9261938],"aggregation":"none","score_gradboost":0.9022428,"score_random_forest":0.9006718,"score_logistic_regression":0.9130745,"score_fuzzy_knn_k29":0.9053513},"geometry":{"type":"Polygon","coordinates":[[[-66.6692634,-9.928925],[-66.661124,-9.9288682],[-66.6611624,-9.9234627],[-66.6693017,-9.9235194],[-66.6692634,-9.928925]]]}},{"type":"Feature","id":"AC-Y353-X950","properties":{"id":"AC-Y353-X950","grid_x":950,"grid_y":353,"centroid":[-66.6570736,-9.926137],"aggregation":"none","score_gradboost":0.8167206,"score_random_forest":0.8592656,"score_logistic_regression":0.7857037,"score_fuzzy_knn_k29":0.780131},"geometry":{"type":"Polygon","coordinates":[[[-66.661124,-9.9288682],[-66.6529847,-9.9288113],[-66.6530232,-9.9234058],[-66.6611624,-9.9234627],[-66.661124,-9.9288682]]]}},{"type":"Feature","id":"AC-Y353-X951","properties":{"id":"AC-Y353-X951","grid_x":951,"grid_y":353,"centroid":[-66.6489343,-9.92608],"aggregation":"none","score_gradboost":0.8128545,"score_random_forest":0.8679906,"score_logistic_regression":0.8181132,"score_fuzzy_knn_k29":0.7850257},"geometry":{"type":"Polygon","coordinates":[[[-66.6529847,-9.9288113],[-66.6448454,-9.9287542],[-66.644884,-9.9233487],[-66.6530232,-9.9234058],[-66.6529847,-9.9288113]]]}},{"type":"Feature","id":"AC-Y353-X952","properties":{"id":"AC-Y353-X952","grid_x":952,"grid_y":353,"centroid":[-66.6407951,-9.9260228],"aggregation":"none","score_gradboost":0.6799921,"score_random_forest":0.801432,"score_logistic_regression":0.8121389,"score_fuzzy_knn_k29":0.778258},"geometry":{"type":"Polygon","coordinates":[[[-66.6448454,-9.9287542],[-66.6367061,-9.9286968],[-66.6367449,-9.9232914],[-66.644884,-9.9233487],[-66.6448454,-9.9287542]]]}},{"type":"Feature","id":"AC-Y354-X944","properties":{"id":"AC-Y354-X944","grid_x":944,"grid_y":354,"centroid":[-66.7059478,-9.9210692],"aggregation":"none","score_gradboost":0.5930579,"score_random_forest":0.7172076,"score_logistic_regression":0.7983332,"score_fuzzy_knn_k29":0.8598229},"geometry":{"type":"Polygon","coordinates":[[[-66.7099987,-9.9237999],[-66.7018592,-9.9237442],[-66.7018969,-9.9183385],[-66.7100363,-9.9183941],[-66.7099987,-9.9237999]]]}},{"type":"Feature","id":"AC-Y354-X945","properties":{"id":"AC-Y354-X945","grid_x":945,"grid_y":354,"centroid":[-66.6978084,-9.9210134],"aggregation":"none","score_gradboost":0.7908292,"score_random_forest":0.8026342,"score_logistic_regression":0.8413267,"score_fuzzy_knn_k29":0.911934},"geometry":{"type":"Polygon","coordinates":[[[-66.7018592,-9.9237442],[-66.6937198,-9.9236883],[-66.6937576,-9.9182826],[-66.7018969,-9.9183385],[-66.7018592,-9.9237442]]]}},{"type":"Feature","id":"AC-Y354-X946","properties":{"id":"AC-Y354-X946","grid_x":946,"grid_y":354,"centroid":[-66.689669,-9.9209574],"aggregation":"none","score_gradboost":0.8828656,"score_random_forest":0.8250463,"score_logistic_regression":0.8363858,"score_fuzzy_knn_k29":0.9325238},"geometry":{"type":"Polygon","coordinates":[[[-66.6937198,-9.9236883],[-66.6855804,-9.9236322],[-66.6856183,-9.9182265],[-66.6937576,-9.9182826],[-66.6937198,-9.9236883]]]}},{"type":"Feature","id":"AC-Y354-X947","properties":{"id":"AC-Y354-X947","grid_x":947,"grid_y":354,"centroid":[-66.6815297,-9.9209012],"aggregation":"none","score_gradboost":0.7496557,"score_random_forest":0.8392861,"score_logistic_regression":0.7425289,"score_fuzzy_knn_k29":0.9430674},"geometry":{"type":"Polygon","coordinates":[[[-66.6855804,-9.9236322],[-66.677441,-9.9235759],[-66.6774791,-9.9181702],[-66.6856183,-9.9182265],[-66.6855804,-9.9236322]]]}},{"type":"Feature","id":"AC-Y354-X948","properties":{"id":"AC-Y354-X948","grid_x":948,"grid_y":354,"centroid":[-66.6733904,-9.9208448],"aggregation":"none","score_gradboost":0.8323173,"score_random_forest":0.8753269,"score_logistic_regression":0.7551101,"score_fuzzy_knn_k29":0.959689},"geometry":{"type":"Polygon","coordinates":[[[-66.677441,-9.9235759],[-66.6693017,-9.9235194],[-66.6693399,-9.9181137],[-66.6774791,-9.9181702],[-66.677441,-9.9235759]]]}},{"type":"Feature","id":"AC-Y354-X949","properties":{"id":"AC-Y354-X949","grid_x":949,"grid_y":354,"centroid":[-66.6652512,-9.9207882],"aggregation":"none","score_gradboost":0.9310451,"score_random_forest":0.9444837,"score_logistic_regression":0.8905268,"score_fuzzy_knn_k29":0.9667324},"geometry":{"type":"Polygon","coordinates":[[[-66.6693017,-9.9235194],[-66.6611624,-9.9234627],[-66.6612008,-9.9180571],[-66.6693399,-9.9181137],[-66.6693017,-9.9235194]]]}},{"type":"Feature","id":"AC-Y354-X950","properties":{"id":"AC-Y354-X950","grid_x":950,"grid_y":354,"centroid":[-66.657112,-9.9207314],"aggregation":"none","score_gradboost":0.9250148,"score_random_forest":0.961121,"score_logistic_regression":0.9089033,"score_fuzzy_knn_k29":0.80261},"geometry":{"type":"Polygon","coordinates":[[[-66.6611624,-9.9234627],[-66.6530232,-9.9234058],[-66.6530617,-9.9180002],[-66.6612008,-9.9180571],[-66.6611624,-9.9234627]]]}},{"type":"Feature","id":"AC-Y354-X951","properties":{"id":"AC-Y354-X951","grid_x":951,"grid_y":354,"centroid":[-66.6489729,-9.9206745],"aggregation":"none","score_gradboost":0.8658519,"score_random_forest":0.896711,"score_logistic_regression":0.7902928,"score_fuzzy_knn_k29":0.8252187},"geometry":{"type":"Polygon","coordinates":[[[-66.6530232,-9.9234058],[-66.644884,-9.9233487],[-66.6449227,-9.9179431],[-66.6530617,-9.9180002],[-66.6530232,-9.9234058]]]}},{"type":"Feature","id":"AC-Y354-X952","properties":{"id":"AC-Y354-X952","grid_x":952,"grid_y":354,"centroid":[-66.6408338,-9.9206173],"aggregation":"none","score_gradboost":0.7595416,"score_random_forest":0.8094949,"score_logistic_regression":0.8055575,"score_fuzzy_knn_k29":0.7796278},"geometry":{"type":"Polygon","coordinates":[[[-66.644884,-9.9233487],[-66.6367449,-9.9232914],[-66.6367837,-9.9178859],[-66.6449227,-9.9179431],[-66.644884,-9.9233487]]]}},{"type":"Feature","id":"AC-Y355-X944","properties":{"id":"AC-Y355-X944","grid_x":944,"grid_y":355,"centroid":[-66.7059854,-9.9156634],"aggregation":"none","score_gradboost":0.5929256,"score_random_forest":0.7537154,"score_logistic_regression":0.8425793,"score_fuzzy_knn_k29":0.8594229},"geometry":{"type":"Polygon","coordinates":[[[-66.7100363,-9.9183941],[-66.7018969,-9.9183385],[-66.7019346,-9.9129327],[-66.7100738,-9.9129884],[-66.7100363,-9.9183941]]]}},{"type":"Feature","id":"AC-Y355-X945","properties":{"id":"AC-Y355-X945","grid_x":945,"grid_y":355,"centroid":[-66.6978461,-9.9156077],"aggregation":"none","score_gradboost":0.8410995,"score_random_forest":0.8048736,"score_logistic_regression":0.852911,"score_fuzzy_knn_k29":0.9047458},"geometry":{"type":"Polygon","coordinates":[[[-66.7018969,-9.9183385],[-66.6937576,-9.9182826],[-66.6937954,-9.9128769],[-66.7019346,-9.9129327],[-66.7018969,-9.9183385]]]}},{"type":"Feature","id":"AC-Y355-X946","properties":{"id":"AC-Y355-X946","grid_x":946,"grid_y":355,"centroid":[-66.6897069,-9.9155517],"aggregation":"none","score_gradboost":0.8366147,"score_random_forest":0.8221524,"score_logistic_regression":0.8559064,"score_fuzzy_knn_k29":0.9096622},"geometry":{"type":"Polygon","coordinates":[[[-66.6937576,-9.9182826],[-66.6856183,-9.9182265],[-66.6856563,-9.9128208],[-66.6937954,-9.9128769],[-66.6937576,-9.9182826]]]}},{"type":"Feature","id":"AC-Y355-X947","properties":{"id":"AC-Y355-X947","grid_x":947,"grid_y":355,"centroid":[-66.6815677,-9.9154955],"aggregation":"none","score_gradboost":0.7794243,"score_random_forest":0.7721733,"score_logistic_regression":0.8924725,"score_fuzzy_knn_k29":0.8502705},"geometry":{"type":"Polygon","coordinates":[[[-66.6856183,-9.9182265],[-66.6774791,-9.9181702],[-66.6775172,-9.9127646],[-66.6856563,-9.9128208],[-66.6856183,-9.9182265]]]}},{"type":"Feature","id":"AC-Y355-X948","properties":{"id":"AC-Y355-X948","grid_x":948,"grid_y":355,"centroid":[-66.6734286,-9.9154392],"aggregation":"none","score_gradboost":0.8974877,"score_random_forest":0.9078115,"score_logistic_regression":0.8354283,"score_fuzzy_knn_k29":0.9409732},"geometry":{"type":"Polygon","coordinates":[[[-66.6774791,-9.9181702],[-66.6693399,-9.9181137],[-66.6693781,-9.9127081],[-66.6775172,-9.9127646],[-66.6774791,-9.9181702]]]}},{"type":"Feature","id":"AC-Y355-X949","properties":{"id":"AC-Y355-X949","grid_x":949,"grid_y":355,"centroid":[-66.6652895,-9.9153826],"aggregation":"none","score_gradboost":0.9019724,"score_random_forest":0.9292554,"score_logistic_regression":0.8714297,"score_fuzzy_knn_k29":0.9143216},"geometry":{"type":"Polygon","coordinates":[[[-66.6693399,-9.9181137],[-66.6612008,-9.9180571],[-66.6612391,-9.9126515],[-66.6693781,-9.9127081],[-66.6693399,-9.9181137]]]}},{"type":"Feature","id":"AC-Y355-X950","properties":{"id":"AC-Y355-X950","grid_x":950,"grid_y":355,"centroid":[-66.6571504,-9.9153259],"aggregation":"none","score_gradboost":0.5841578,"score_random_forest":0.5106292,"score_logistic_regression":0.9077551,"score_fuzzy_knn_k29":0.9853208},"geometry":{"type":"Polygon","coordinates":[[[-66.6612008,-9.9180571],[-66.6530617,-9.9180002],[-66.6531002,-9.9125947],[-66.6612391,-9.9126515],[-66.6612008,-9.9180571]]]}},{"type":"Feature","id":"AC-Y355-X951","properties":{"id":"AC-Y355-X951","grid_x":951,"grid_y":355,"centroid":[-66.6490115,-9.9152689],"aggregation":"none","score_gradboost":0.9202447,"score_random_forest":0.9176131,"score_logistic_regression":0.9162633,"score_fuzzy_knn_k29":0.7594982},"geometry":{"type":"Polygon","coordinates":[[[-66.6530617,-9.9180002],[-66.6449227,-9.9179431],[-66.6449613,-9.9125376],[-66.6531002,-9.9125947],[-66.6530617,-9.9180002]]]}},{"type":"Feature","id":"AC-Y355-X952","properties":{"id":"AC-Y355-X952","grid_x":952,"grid_y":355,"centroid":[-66.6408725,-9.9152118],"aggregation":"none","score_gradboost":0.783888,"score_random_forest":0.7470535,"score_logistic_regression":0.91489,"score_fuzzy_knn_k29":0.7781864},"geometry":{"type":"Polygon","coordinates":[[[-66.6449227,-9.9179431],[-66.6367837,-9.9178859],[-66.6368224,-9.9124804],[-66.6449613,-9.9125376],[-66.6449227,-9.9179431]]]}},{"type":"Feature","id":"AC-Y355-X953","properties":{"id":"AC-Y355-X953","grid_x":953,"grid_y":355,"centroid":[-66.6327336,-9.9151544],"aggregation":"none","score_gradboost":0.6165494,"score_random_forest":0.6235859,"score_logistic_regression":0.9115184,"score_fuzzy_knn_k29":0.8482167},"geometry":{"type":"Polygon","coordinates":[[[-66.6367837,-9.9178859],[-66.6286448,-9.9178284],[-66.6286836,-9.912423],[-66.6368224,-9.9124804],[-66.6367837,-9.9178859]]]}},{"type":"Feature","id":"AC-Y356-X944","properties":{"id":"AC-Y356-X944","grid_x":944,"grid_y":356,"centroid":[-66.706023,-9.9102577],"aggregation":"none","score_gradboost":0.8126859,"score_random_forest":0.8416655,"score_logistic_regression":0.8565463,"score_fuzzy_knn_k29":0.9202205},"geometry":{"type":"Polygon","coordinates":[[[-66.7100738,-9.9129884],[-66.7019346,-9.9129327],[-66.7019722,-9.907527],[-66.7101114,-9.9075826],[-66.7100738,-9.9129884]]]}},{"type":"Feature","id":"AC-Y356-X945","properties":{"id":"AC-Y356-X945","grid_x":945,"grid_y":356,"centroid":[-66.6978839,-9.910202],"aggregation":"none","score_gradboost":0.8245497,"score_random_forest":0.7951502,"score_logistic_regression":0.8791928,"score_fuzzy_knn_k29":0.7013726},"geometry":{"type":"Polygon","coordinates":[[[-66.7019346,-9.9129327],[-66.6937954,-9.9128769],[-66.6938332,-9.9074712],[-66.7019722,-9.907527],[-66.7019346,-9.9129327]]]}},{"type":"Feature","id":"AC-Y356-X946","properties":{"id":"AC-Y356-X946","grid_x":946,"grid_y":356,"centroid":[-66.6897448,-9.910146],"aggregation":"none","score_gradboost":0.800731,"score_random_forest":0.7080181,"score_logistic_regression":0.9194656,"score_fuzzy_knn_k29":0.9602932},"geometry":{"type":"Polygon","coordinates":[[[-66.6937954,-9.9128769],[-66.6856563,-9.9128208],[-66.6856942,-9.9074151],[-66.6938332,-9.9074712],[-66.6937954,-9.9128769]]]}},{"type":"Feature","id":"AC-Y356-X947","properties":{"id":"AC-Y356-X947","grid_x":947,"grid_y":356,"centroid":[-66.6816057,-9.9100899],"aggregation":"none","score_gradboost":0.8727119,"score_random_forest":0.836881,"score_logistic_regression":0.8683018,"score_fuzzy_knn_k29":0.8831649},"geometry":{"type":"Polygon","coordinates":[[[-66.6856563,-9.9128208],[-66.6775172,-9.9127646],[-66.6775552,-9.9073589],[-66.6856942,-9.9074151],[-66.6856563,-9.9128208]]]}},{"type":"Feature","id":"AC-Y356-X948","properties":{"id":"AC-Y356-X948","grid_x":948,"grid_y":356,"centroid":[-66.6734667,-9.9100336],"aggregation":"none","score_gradboost":0.8331307,"score_random_forest":0.8436707,"score_logistic_regression":0.8515809,"score_fuzzy_knn_k29":0.9330574},"geometry":{"type":"Polygon","coordinates":[[[-66.6775172,-9.9127646],[-66.6693781,-9.9127081],[-66.6694163,-9.9073025],[-66.6775552,-9.9073589],[-66.6775172,-9.9127646]]]}},{"type":"Feature","id":"AC-Y356-X949","properties":{"id":"AC-Y356-X949","grid_x":949,"grid_y":356,"centroid":[-66.6653277,-9.909977],"aggregation":"none","score_gradboost":0.9460432,"score_random_forest":0.9226266,"score_logistic_regression":0.8797252,"score_fuzzy_knn_k29":0.90657},"geometry":{"type":"Polygon","coordinates":[[[-66.6693781,-9.9127081],[-66.6612391,-9.9126515],[-66.6612774,-9.9072459],[-66.6694163,-9.9073025],[-66.6693781,-9.9127081]]]}},{"type":"Feature","id":"AC-Y356-X950","properties":{"id":"AC-Y356-X950","grid_x":950,"grid_y":356,"centroid":[-66.6571888,-9.9099203],"aggregation":"none","score_gradboost":0.9658907,"score_random_forest":0.948769,"score_logistic_regression":0.8658826,"score_fuzzy_knn_k29":0.9352896},"geometry":{"type":"Polygon","coordinates":[[[-66.6612391,-9.9126515],[-66.6531002,-9.9125947],[-66.6531386,-9.9071891],[-66.6612774,-9.9072459],[-66.6612391,-9.9126515]]]}},{"type":"Feature","id":"AC-Y356-X951","properties":{"id":"AC-Y356-X951","grid_x":951,"grid_y":356,"centroid":[-66.64905,-9.9098634],"aggregation":"none","score_gradboost":0.9439803,"score_random_forest":0.9679552,"score_logistic_regression":0.9110788,"score_fuzzy_knn_k29":0.8169035},"geometry":{"type":"Polygon","coordinates":[[[-66.6531002,-9.9125947],[-66.6449613,-9.9125376],[-66.6449999,-9.9071321],[-66.6531386,-9.9071891],[-66.6531002,-9.9125947]]]}},{"type":"Feature","id":"AC-Y356-X952","properties":{"id":"AC-Y356-X952","grid_x":952,"grid_y":356,"centroid":[-66.6409112,-9.9098063],"aggregation":"none","score_gradboost":0.7502393,"score_random_forest":0.7560272,"score_logistic_regression":0.9203886,"score_fuzzy_knn_k29":0.8064753},"geometry":{"type":"Polygon","coordinates":[[[-66.6449613,-9.9125376],[-66.6368224,-9.9124804],[-66.6368611,-9.9070749],[-66.6449999,-9.9071321],[-66.6449613,-9.9125376]]]}},{"type":"Feature","id":"AC-Y357-X944","properties":{"id":"AC-Y357-X944","grid_x":944,"grid_y":357,"centroid":[-66.7060606,-9.9048519],"aggregation":"none","score_gradboost":0.7589837,"score_random_forest":0.8349967,"score_logistic_regression":0.8605934,"score_fuzzy_knn_k29":0.9468504},"geometry":{"type":"Polygon","coordinates":[[[-66.7101114,-9.9075826],[-66.7019722,-9.907527],[-66.7020099,-9.9021212],[-66.7101489,-9.9021768],[-66.7101114,-9.9075826]]]}},{"type":"Feature","id":"AC-Y357-X945","properties":{"id":"AC-Y357-X945","grid_x":945,"grid_y":357,"centroid":[-66.6979216,-9.9047962],"aggregation":"none","score_gradboost":0.6597169,"score_random_forest":0.7765192,"score_logistic_regression":0.8467808,"score_fuzzy_knn_k29":0.8552927},"geometry":{"type":"Polygon","coordinates":[[[-66.7019722,-9.907527],[-66.6938332,-9.9074712],[-66.693871,-9.9020654],[-66.7020099,-9.9021212],[-66.7019722,-9.907527]]]}},{"type":"Feature","id":"AC-Y357-X946","properties":{"id":"AC-Y357-X946","grid_x":946,"grid_y":357,"centroid":[-66.6897826,-9.9047403],"aggregation":"none","score_gradboost":0.8667505,"score_random_forest":0.8494504,"score_logistic_regression":0.8669344,"score_fuzzy_knn_k29":0.9168876},"geometry":{"type":"Polygon","coordinates":[[[-66.6938332,-9.9074712],[-66.6856942,-9.9074151],[-66.6857321,-9.9020095],[-66.693871,-9.9020654],[-66.6938332,-9.9074712]]]}},{"type":"Feature","id":"AC-Y357-X947","properties":{"id":"AC-Y357-X947","grid_x":947,"grid_y":357,"centroid":[-66.6816437,-9.9046842],"aggregation":"none","score_gradboost":0.9441349,"score_random_forest":0.9178727,"score_logistic_regression":0.8790845,"score_fuzzy_knn_k29":0.8741152},"geometry":{"type":"Polygon","coordinates":[[[-66.6856942,-9.9074151],[-66.6775552,-9.9073589],[-66.6775933,-9.9019533],[-66.6857321,-9.9020095],[-66.6856942,-9.9074151]]]}},{"type":"Feature","id":"AC-Y357-X948","properties":{"id":"AC-Y357-X948","grid_x":948,"grid_y":357,"centroid":[-66.6735048,-9.9046279],"aggregation":"none","score_gradboost":0.9181423,"score_random_forest":0.9248293,"score_logistic_regression":0.861301,"score_fuzzy_knn_k29":0.9193106},"geometry":{"type":"Polygon","coordinates":[[[-66.6775552,-9.9073589],[-66.6694163,-9.9073025],[-66.6694545,-9.9018969],[-66.6775933,-9.9019533],[-66.6775552,-9.9073589]]]}},{"type":"Feature","id":"AC-Y357-X949","properties":{"id":"AC-Y357-X949","grid_x":949,"grid_y":357,"centroid":[-66.665366,-9.9045714],"aggregation":"none","score_gradboost":0.9134286,"score_random_forest":0.9272641,"score_logistic_regression":0.8726062,"score_fuzzy_knn_k29":0.8927672},"geometry":{"type":"Polygon","coordinates":[[[-66.6694163,-9.9073025],[-66.6612774,-9.9072459],[-66.6613157,-9.9018403],[-66.6694545,-9.9018969],[-66.6694163,-9.9073025]]]}},{"type":"Feature","id":"AC-Y357-X950","properties":{"id":"AC-Y357-X950","grid_x":950,"grid_y":357,"centroid":[-66.6572272,-9.9045147],"aggregation":"none","score_gradboost":0.9539873,"score_random_forest":0.9177324,"score_logistic_regression":0.9344472,"score_fuzzy_knn_k29":0.7815132},"geometry":{"type":"Polygon","coordinates":[[[-66.6612774,-9.9072459],[-66.6531386,-9.9071891],[-66.6531771,-9.9017835],[-66.6613157,-9.9018403],[-66.6612774,-9.9072459]]]}},{"type":"Feature","id":"AC-Y357-X951","properties":{"id":"AC-Y357-X951","grid_x":951,"grid_y":357,"centroid":[-66.6490885,-9.9044579],"aggregation":"none","score_gradboost":0.7874813,"score_random_forest":0.7250216,"score_logistic_regression":0.9095137,"score_fuzzy_knn_k29":0.8982076},"geometry":{"type":"Polygon","coordinates":[[[-66.6531386,-9.9071891],[-66.6449999,-9.9071321],[-66.6450384,-9.9017266],[-66.6531771,-9.9017835],[-66.6531386,-9.9071891]]]}},{"type":"Feature","id":"AC-Y357-X952","properties":{"id":"AC-Y357-X952","grid_x":952,"grid_y":357,"centroid":[-66.6409498,-9.9044008],"aggregation":"none","score_gradboost":0.8953052,"score_random_forest":0.9017962,"score_logistic_regression":0.8797674,"score_fuzzy_knn_k29":0.8841068},"geometry":{"type":"Polygon","coordinates":[[[-66.6449999,-9.9071321],[-66.6368611,-9.9070749],[-66.6368998,-9.9016694],[-66.6450384,-9.9017266],[-66.6449999,-9.9071321]]]}},{"type":"Feature","id":"AC-Y357-X953","properties":{"id":"AC-Y357-X953","grid_x":953,"grid_y":357,"centroid":[-66.6328112,-9.9043435],"aggregation":"none","score_gradboost":0.8156304,"score_random_forest":0.8096748,"score_logistic_regression":0.9092884,"score_fuzzy_knn_k29":0.9152668},"geometry":{"type":"Polygon","coordinates":[[[-66.6368611,-9.9070749],[-66.6287225,-9.9070175],[-66.6287613,-9.901612],[-66.6368998,-9.9016694],[-66.6368611,-9.9070749]]]}},{"type":"Feature","id":"AC-Y357-X954","properties":{"id":"AC-Y357-X954","grid_x":954,"grid_y":357,"centroid":[-66.6246726,-9.904286],"aggregation":"none","score_gradboost":0.6654836,"score_random_forest":0.7072659,"score_logistic_regression":0.9188422,"score_fuzzy_knn_k29":0.808643},"geometry":{"type":"Polygon","coordinates":[[[-66.6287225,-9.9070175],[-66.6205839,-9.9069599],[-66.6206228,-9.9015545],[-66.6287613,-9.901612],[-66.6287225,-9.9070175]]]}},{"type":"Feature","id":"AC-Y358-X944","properties":{"id":"AC-Y358-X944","grid_x":944,"grid_y":358,"centroid":[-66.7060981,-9.8994462],"aggregation":"none","score_gradboost":0.9082161,"score_random_forest":0.8599994,"score_logistic_regression":0.8691651,"score_fuzzy_knn_k29":0.9409799},"geometry":{"type":"Polygon","coordinates":[[[-66.7101489,-9.9021768],[-66.7020099,-9.9021212],[-66.7020475,-9.8967155],[-66.7101863,-9.8967711],[-66.7101489,-9.9021768]]]}},{"type":"Feature","id":"AC-Y358-X945","properties":{"id":"AC-Y358-X945","grid_x":945,"grid_y":358,"centroid":[-66.6979593,-9.8993905],"aggregation":"none","score_gradboost":0.7781519,"score_random_forest":0.8519631,"score_logistic_regression":0.8700362,"score_fuzzy_knn_k29":0.9418146},"geometry":{"type":"Polygon","coordinates":[[[-66.7020099,-9.9021212],[-66.693871,-9.9020654],[-66.6939087,-9.8966597],[-66.7020475,-9.8967155],[-66.7020099,-9.9021212]]]}},{"type":"Feature","id":"AC-Y358-X946","properties":{"id":"AC-Y358-X946","grid_x":946,"grid_y":358,"centroid":[-66.6898204,-9.8993346],"aggregation":"none","score_gradboost":0.8901229,"score_random_forest":0.8858432,"score_logistic_regression":0.8646051,"score_fuzzy_knn_k29":0.8695636},"geometry":{"type":"Polygon","coordinates":[[[-66.693871,-9.9020654],[-66.6857321,-9.9020095],[-66.68577,-9.8966038],[-66.6939087,-9.8966597],[-66.693871,-9.9020654]]]}},{"type":"Feature","id":"AC-Y358-X947","properties":{"id":"AC-Y358-X947","grid_x":947,"grid_y":358,"centroid":[-66.6816816,-9.8992786],"aggregation":"none","score_gradboost":0.8518454,"score_random_forest":0.8582684,"score_logistic_regression":0.9245644,"score_fuzzy_knn_k29":0.9658364},"geometry":{"type":"Polygon","coordinates":[[[-66.6857321,-9.9020095],[-66.6775933,-9.9019533],[-66.6776313,-9.8965476],[-66.68577,-9.8966038],[-66.6857321,-9.9020095]]]}},{"type":"Feature","id":"AC-Y358-X948","properties":{"id":"AC-Y358-X948","grid_x":948,"grid_y":358,"centroid":[-66.6735429,-9.8992223],"aggregation":"none","score_gradboost":0.9081368,"score_random_forest":0.8899017,"score_logistic_regression":0.9444713,"score_fuzzy_knn_k29":0.8894901},"geometry":{"type":"Polygon","coordinates":[[[-66.6775933,-9.9019533],[-66.6694545,-9.9018969],[-66.6694926,-9.8964913],[-66.6776313,-9.8965476],[-66.6775933,-9.9019533]]]}},{"type":"Feature","id":"AC-Y358-X949","properties":{"id":"AC-Y358-X949","grid_x":949,"grid_y":358,"centroid":[-66.6654042,-9.8991658],"aggregation":"none","score_gradboost":0.953407,"score_random_forest":0.9064842,"score_logistic_regression":0.9180796,"score_fuzzy_knn_k29":0.8821398},"geometry":{"type":"Polygon","coordinates":[[[-66.6694545,-9.9018969],[-66.6613157,-9.9018403],[-66.661354,-9.8964347],[-66.6694926,-9.8964913],[-66.6694545,-9.9018969]]]}},{"type":"Feature","id":"AC-Y358-X950","properties":{"id":"AC-Y358-X950","grid_x":950,"grid_y":358,"centroid":[-66.6572656,-9.8991092],"aggregation":"none","score_gradboost":0.8913877,"score_random_forest":0.8591543,"score_logistic_regression":0.9200729,"score_fuzzy_knn_k29":0.9414391},"geometry":{"type":"Polygon","coordinates":[[[-66.6613157,-9.9018403],[-66.6531771,-9.9017835],[-66.6532155,-9.896378],[-66.661354,-9.8964347],[-66.6613157,-9.9018403]]]}},{"type":"Feature","id":"AC-Y358-X951","properties":{"id":"AC-Y358-X951","grid_x":951,"grid_y":358,"centroid":[-66.649127,-9.8990523],"aggregation":"none","score_gradboost":0.8783262,"score_random_forest":0.9264719,"score_logistic_regression":0.8804749,"score_fuzzy_knn_k29":0.8813793},"geometry":{"type":"Polygon","coordinates":[[[-66.6531771,-9.9017835],[-66.6450384,-9.9017266],[-66.645077,-9.8963211],[-66.6532155,-9.896378],[-66.6531771,-9.9017835]]]}},{"type":"Feature","id":"AC-Y358-X952","properties":{"id":"AC-Y358-X952","grid_x":952,"grid_y":358,"centroid":[-66.6409884,-9.8989953],"aggregation":"none","score_gradboost":0.935127,"score_random_forest":0.9481966,"score_logistic_regression":0.9077188,"score_fuzzy_knn_k29":0.7060952},"geometry":{"type":"Polygon","coordinates":[[[-66.6450384,-9.9017266],[-66.6368998,-9.9016694],[-66.6369385,-9.8962639],[-66.645077,-9.8963211],[-66.6450384,-9.9017266]]]}},{"type":"Feature","id":"AC-Y358-X953","properties":{"id":"AC-Y358-X953","grid_x":953,"grid_y":358,"centroid":[-66.6328499,-9.898938],"aggregation":"none","score_gradboost":0.7994218,"score_random_forest":0.8031662,"score_logistic_regression":0.9134122,"score_fuzzy_knn_k29":0.8089447},"geometry":{"type":"Polygon","coordinates":[[[-66.6368998,-9.9016694],[-66.6287613,-9.901612],[-66.6288001,-9.8962066],[-66.6369385,-9.8962639],[-66.6368998,-9.9016694]]]}},{"type":"Feature","id":"AC-Y359-X944","properties":{"id":"AC-Y359-X944","grid_x":944,"grid_y":359,"centroid":[-66.7061357,-9.8940404],"aggregation":"none","score_gradboost":0.9469788,"score_random_forest":0.8881595,"score_logistic_regression":0.885516,"score_fuzzy_knn_k29":0.8838418},"geometry":{"type":"Polygon","coordinates":[[[-66.7101863,-9.8967711],[-66.7020475,-9.8967155],[-66.7020851,-9.8913097],[-66.7102238,-9.8913653],[-66.7101863,-9.8967711]]]}},{"type":"Feature","id":"AC-Y359-X945","properties":{"id":"AC-Y359-X945","grid_x":945,"grid_y":359,"centroid":[-66.6979969,-9.8939848],"aggregation":"none","score_gradboost":0.949775,"score_random_forest":0.9124168,"score_logistic_regression":0.8825147,"score_fuzzy_knn_k29":0.917674},"geometry":{"type":"Polygon","coordinates":[[[-66.7020475,-9.8967155],[-66.6939087,-9.8966597],[-66.6939464,-9.891254],[-66.7020851,-9.8913097],[-66.7020475,-9.8967155]]]}},{"type":"Feature","id":"AC-Y359-X946","properties":{"id":"AC-Y359-X946","grid_x":946,"grid_y":359,"centroid":[-66.6898582,-9.8939289],"aggregation":"none","score_gradboost":0.8614262,"score_random_forest":0.8632417,"score_logistic_regression":0.8837884,"score_fuzzy_knn_k29":0.9616311},"geometry":{"type":"Polygon","coordinates":[[[-66.6939087,-9.8966597],[-66.68577,-9.8966038],[-66.6858078,-9.8911981],[-66.6939464,-9.891254],[-66.6939087,-9.8966597]]]}},{"type":"Feature","id":"AC-Y359-X947","properties":{"id":"AC-Y359-X947","grid_x":947,"grid_y":359,"centroid":[-66.6817196,-9.8938729],"aggregation":"none","score_gradboost":0.8912229,"score_random_forest":0.8617971,"score_logistic_regression":0.9415631,"score_fuzzy_knn_k29":0.9219224},"geometry":{"type":"Polygon","coordinates":[[[-66.68577,-9.8966038],[-66.6776313,-9.8965476],[-66.6776693,-9.891142],[-66.6858078,-9.8911981],[-66.68577,-9.8966038]]]}},{"type":"Feature","id":"AC-Y359-X948","properties":{"id":"AC-Y359-X948","grid_x":948,"grid_y":359,"centroid":[-66.673581,-9.8938167],"aggregation":"none","score_gradboost":0.7588536,"score_random_forest":0.6137831,"score_logistic_regression":0.9255358,"score_fuzzy_knn_k29":0.9820157},"geometry":{"type":"Polygon","coordinates":[[[-66.6776313,-9.8965476],[-66.6694926,-9.8964913],[-66.6695307,-9.8910857],[-66.6776693,-9.891142],[-66.6776313,-9.8965476]]]}},{"type":"Feature","id":"AC-Y359-X949","properties":{"id":"AC-Y359-X949","grid_x":949,"grid_y":359,"centroid":[-66.6654424,-9.8937602],"aggregation":"none","score_gradboost":0.9550103,"score_random_forest":0.9304953,"score_logistic_regression":0.8902566,"score_fuzzy_knn_k29":0.8710817},"geometry":{"type":"Polygon","coordinates":[[[-66.6694926,-9.8964913],[-66.661354,-9.8964347],[-66.6613923,-9.8910291],[-66.6695307,-9.8910857],[-66.6694926,-9.8964913]]]}},{"type":"Feature","id":"AC-Y359-X950","properties":{"id":"AC-Y359-X950","grid_x":950,"grid_y":359,"centroid":[-66.6573039,-9.8937036],"aggregation":"none","score_gradboost":0.9234577,"score_random_forest":0.8940354,"score_logistic_regression":0.8955215,"score_fuzzy_knn_k29":0.892789},"geometry":{"type":"Polygon","coordinates":[[[-66.661354,-9.8964347],[-66.6532155,-9.896378],[-66.6532539,-9.8909724],[-66.6613923,-9.8910291],[-66.661354,-9.8964347]]]}},{"type":"Feature","id":"AC-Y359-X951","properties":{"id":"AC-Y359-X951","grid_x":951,"grid_y":359,"centroid":[-66.6491654,-9.8936468],"aggregation":"none","score_gradboost":0.946491,"score_random_forest":0.9200631,"score_logistic_regression":0.9325922,"score_fuzzy_knn_k29":0.7526674},"geometry":{"type":"Polygon","coordinates":[[[-66.6532155,-9.896378],[-66.645077,-9.8963211],[-66.6451155,-9.8909155],[-66.6532539,-9.8909724],[-66.6532155,-9.896378]]]}},{"type":"Feature","id":"AC-Y359-X952","properties":{"id":"AC-Y359-X952","grid_x":952,"grid_y":359,"centroid":[-66.641027,-9.8935898],"aggregation":"none","score_gradboost":0.9293119,"score_random_forest":0.9626828,"score_logistic_regression":0.9132123,"score_fuzzy_knn_k29":0.8046755},"geometry":{"type":"Polygon","coordinates":[[[-66.645077,-9.8963211],[-66.6369385,-9.8962639],[-66.6369772,-9.8908584],[-66.6451155,-9.8909155],[-66.645077,-9.8963211]]]}},{"type":"Feature","id":"AC-Y360-X944","properties":{"id":"AC-Y360-X944","grid_x":944,"grid_y":360,"centroid":[-66.7061732,-9.8886347],"aggregation":"none","score_gradboost":0.919349,"score_random_forest":0.8891318,"score_logistic_regression":0.9204236,"score_fuzzy_knn_k29":0.8624506},"geometry":{"type":"Polygon","coordinates":[[[-66.7102238,-9.8913653],[-66.7020851,-9.8913097],[-66.7021227,-9.885904],[-66.7102612,-9.8859595],[-66.7102238,-9.8913653]]]}},{"type":"Feature","id":"AC-Y360-X945","properties":{"id":"AC-Y360-X945","grid_x":945,"grid_y":360,"centroid":[-66.6980346,-9.888579],"aggregation":"none","score_gradboost":0.8067466,"score_random_forest":0.8466809,"score_logistic_regression":0.880447,"score_fuzzy_knn_k29":0.9557127},"geometry":{"type":"Polygon","coordinates":[[[-66.7020851,-9.8913097],[-66.6939464,-9.891254],[-66.6939841,-9.8858483],[-66.7021227,-9.885904],[-66.7020851,-9.8913097]]]}},{"type":"Feature","id":"AC-Y360-X946","properties":{"id":"AC-Y360-X946","grid_x":946,"grid_y":360,"centroid":[-66.689896,-9.8885232],"aggregation":"none","score_gradboost":0.9371793,"score_random_forest":0.84794,"score_logistic_regression":0.9073544,"score_fuzzy_knn_k29":0.8331894},"geometry":{"type":"Polygon","coordinates":[[[-66.6939464,-9.891254],[-66.6858078,-9.8911981],[-66.6858456,-9.8857924],[-66.6939841,-9.8858483],[-66.6939464,-9.891254]]]}},{"type":"Feature","id":"AC-Y360-X947","properties":{"id":"AC-Y360-X947","grid_x":947,"grid_y":360,"centroid":[-66.6817575,-9.8884672],"aggregation":"none","score_gradboost":0.7996111,"score_random_forest":0.8813334,"score_logistic_regression":0.9198127,"score_fuzzy_knn_k29":0.8364622},"geometry":{"type":"Polygon","coordinates":[[[-66.6858078,-9.8911981],[-66.6776693,-9.891142],[-66.6777072,-9.8857363],[-66.6858456,-9.8857924],[-66.6858078,-9.8911981]]]}},{"type":"Feature","id":"AC-Y360-X948","properties":{"id":"AC-Y360-X948","grid_x":948,"grid_y":360,"centroid":[-66.673619,-9.888411],"aggregation":"none","score_gradboost":0.820957,"score_random_forest":0.7949938,"score_logistic_regression":0.8603303,"score_fuzzy_knn_k29":0.8936205},"geometry":{"type":"Polygon","coordinates":[[[-66.6776693,-9.891142],[-66.6695307,-9.8910857],[-66.6695688,-9.88568],[-66.6777072,-9.8857363],[-66.6776693,-9.891142]]]}},{"type":"Feature","id":"AC-Y360-X949","properties":{"id":"AC-Y360-X949","grid_x":949,"grid_y":360,"centroid":[-66.6654806,-9.8883546],"aggregation":"none","score_gradboost":0.9161699,"score_random_forest":0.9220021,"score_logistic_regression":0.8755298,"score_fuzzy_knn_k29":0.8917581},"geometry":{"type":"Polygon","coordinates":[[[-66.6695307,-9.8910857],[-66.6613923,-9.8910291],[-66.6614305,-9.8856236],[-66.6695688,-9.88568],[-66.6695307,-9.8910857]]]}},{"type":"Feature","id":"AC-Y360-X950","properties":{"id":"AC-Y360-X950","grid_x":950,"grid_y":360,"centroid":[-66.6573422,-9.888298],"aggregation":"none","score_gradboost":0.937301,"score_random_forest":0.9079558,"score_logistic_regression":0.8836718,"score_fuzzy_knn_k29":0.8891951},"geometry":{"type":"Polygon","coordinates":[[[-66.6613923,-9.8910291],[-66.6532539,-9.8909724],[-66.6532922,-9.8855669],[-66.6614305,-9.8856236],[-66.6613923,-9.8910291]]]}},{"type":"Feature","id":"AC-Y360-X951","properties":{"id":"AC-Y360-X951","grid_x":951,"grid_y":360,"centroid":[-66.6492039,-9.8882412],"aggregation":"none","score_gradboost":0.9683343,"score_random_forest":0.8416962,"score_logistic_regression":0.6550977,"score_fuzzy_knn_k29":0.8879672},"geometry":{"type":"Polygon","coordinates":[[[-66.6532539,-9.8909724],[-66.6451155,-9.8909155],[-66.645154,-9.88551],[-66.6532922,-9.8855669],[-66.6532539,-9.8909724]]]}},{"type":"Feature","id":"AC-Y361-X944","properties":{"id":"AC-Y361-X944","grid_x":944,"grid_y":361,"centroid":[-66.7062107,-9.8832289],"aggregation":"none","score_gradboost":0.8155567,"score_random_forest":0.8183315,"score_logistic_regression":0.9113795,"score_fuzzy_knn_k29":0.8774768},"geometry":{"type":"Polygon","coordinates":[[[-66.7102612,-9.8859595],[-66.7021227,-9.885904],[-66.7021602,-9.8804982],[-66.7102986,-9.8805537],[-66.7102612,-9.8859595]]]}},{"type":"Feature","id":"AC-Y361-X945","properties":{"id":"AC-Y361-X945","grid_x":945,"grid_y":361,"centroid":[-66.6980722,-9.8831733],"aggregation":"none","score_gradboost":0.6858704,"score_random_forest":0.6422775,"score_logistic_regression":0.9108156,"score_fuzzy_knn_k29":0.793965},"geometry":{"type":"Polygon","coordinates":[[[-66.7021227,-9.885904],[-66.6939841,-9.8858483],[-66.6940218,-9.8804426],[-66.7021602,-9.8804982],[-66.7021227,-9.885904]]]}},{"type":"Feature","id":"AC-Y361-X946","properties":{"id":"AC-Y361-X946","grid_x":946,"grid_y":361,"centroid":[-66.6899338,-9.8831175],"aggregation":"none","score_gradboost":0.8900742,"score_random_forest":0.8572561,"score_logistic_regression":0.8783086,"score_fuzzy_knn_k29":0.9679064},"geometry":{"type":"Polygon","coordinates":[[[-66.6939841,-9.8858483],[-66.6858456,-9.8857924],[-66.6858835,-9.8803867],[-66.6940218,-9.8804426],[-66.6939841,-9.8858483]]]}},{"type":"Feature","id":"AC-Y361-X947","properties":{"id":"AC-Y361-X947","grid_x":947,"grid_y":361,"centroid":[-66.6817954,-9.8830616],"aggregation":"none","score_gradboost":0.6000838,"score_random_forest":0.7551576,"score_logistic_regression":0.8401437,"score_fuzzy_knn_k29":0.9149536},"geometry":{"type":"Polygon","coordinates":[[[-66.6858456,-9.8857924],[-66.6777072,-9.8857363],[-66.6777452,-9.8803307],[-66.6858835,-9.8803867],[-66.6858456,-9.8857924]]]}},{"type":"Feature","id":"AC-Y361-X948","properties":{"id":"AC-Y361-X948","grid_x":948,"grid_y":361,"centroid":[-66.673657,-9.8830054],"aggregation":"none","score_gradboost":0.8561438,"score_random_forest":0.8669367,"score_logistic_regression":0.8772172,"score_fuzzy_knn_k29":0.8559},"geometry":{"type":"Polygon","coordinates":[[[-66.6777072,-9.8857363],[-66.6695688,-9.88568],[-66.6696069,-9.8802744],[-66.6777452,-9.8803307],[-66.6777072,-9.8857363]]]}},{"type":"Feature","id":"AC-Y361-X949","properties":{"id":"AC-Y361-X949","grid_x":949,"grid_y":361,"centroid":[-66.6655187,-9.882949],"aggregation":"none","score_gradboost":0.8947776,"score_random_forest":0.9069834,"score_logistic_regression":0.8521903,"score_fuzzy_knn_k29":0.921357},"geometry":{"type":"Polygon","coordinates":[[[-66.6695688,-9.88568],[-66.6614305,-9.8856236],[-66.6614687,-9.880218],[-66.6696069,-9.8802744],[-66.6695688,-9.88568]]]}},{"type":"Feature","id":"AC-Y362-X944","properties":{"id":"AC-Y362-X944","grid_x":944,"grid_y":362,"centroid":[-66.7062481,-9.8778231],"aggregation":"none","score_gradboost":0.8771383,"score_random_forest":0.8195825,"score_logistic_regression":0.8818837,"score_fuzzy_knn_k29":0.5702979},"geometry":{"type":"Polygon","coordinates":[[[-66.7102986,-9.8805537],[-66.7021602,-9.8804982],[-66.7021977,-9.8750925],[-66.710336,-9.8751479],[-66.7102986,-9.8805537]]]}},{"type":"Feature","id":"AC-Y362-X945","properties":{"id":"AC-Y362-X945","grid_x":945,"grid_y":362,"centroid":[-66.6981098,-9.8777676],"aggregation":"none","score_gradboost":0.7611194,"score_random_forest":0.8052895,"score_logistic_regression":0.8865981,"score_fuzzy_knn_k29":0.7183943},"geometry":{"type":"Polygon","coordinates":[[[-66.7021602,-9.8804982],[-66.6940218,-9.8804426],[-66.6940595,-9.8750369],[-66.7021977,-9.8750925],[-66.7021602,-9.8804982]]]}},{"type":"Feature","id":"AC-Y362-X946","properties":{"id":"AC-Y362-X946","grid_x":946,"grid_y":362,"centroid":[-66.6899715,-9.8777118],"aggregation":"none","score_gradboost":0.9173589,"score_random_forest":0.8435362,"score_logistic_regression":0.8954709,"score_fuzzy_knn_k29":0.8198848},"geometry":{"type":"Polygon","coordinates":[[[-66.6940218,-9.8804426],[-66.6858835,-9.8803867],[-66.6859213,-9.874981],[-66.6940595,-9.8750369],[-66.6940218,-9.8804426]]]}},{"type":"Feature","id":"AC-Y362-X947","properties":{"id":"AC-Y362-X947","grid_x":947,"grid_y":362,"centroid":[-66.6818332,-9.8776559],"aggregation":"none","score_gradboost":0.8903865,"score_random_forest":0.8648577,"score_logistic_regression":0.8906551,"score_fuzzy_knn_k29":0.8824732},"geometry":{"type":"Polygon","coordinates":[[[-66.6858835,-9.8803867],[-66.6777452,-9.8803307],[-66.6777831,-9.874925],[-66.6859213,-9.874981],[-66.6858835,-9.8803867]]]}},{"type":"Feature","id":"AC-Y362-X948","properties":{"id":"AC-Y362-X948","grid_x":948,"grid_y":362,"centroid":[-66.673695,-9.8775997],"aggregation":"none","score_gradboost":0.9412408,"score_random_forest":0.8371454,"score_logistic_regression":0.6725831,"score_fuzzy_knn_k29":0.750075},"geometry":{"type":"Polygon","coordinates":[[[-66.6777452,-9.8803307],[-66.6696069,-9.8802744],[-66.669645,-9.8748688],[-66.6777831,-9.874925],[-66.6777452,-9.8803307]]]}},{"type":"Feature","id":"AC-Y363-X944","properties":{"id":"AC-Y363-X944","grid_x":944,"grid_y":363,"centroid":[-66.7062856,-9.8724174],"aggregation":"none","score_gradboost":0.8259515,"score_random_forest":0.7502056,"score_logistic_regression":0.8691707,"score_fuzzy_knn_k29":0.7774204},"geometry":{"type":"Polygon","coordinates":[[[-66.710336,-9.8751479],[-66.7021977,-9.8750925],[-66.7022352,-9.8696867],[-66.7103734,-9.8697421],[-66.710336,-9.8751479]]]}},{"type":"Feature","id":"AC-Y363-X945","properties":{"id":"AC-Y363-X945","grid_x":945,"grid_y":363,"centroid":[-66.6981474,-9.8723618],"aggregation":"none","score_gradboost":0.9541501,"score_random_forest":0.8743828,"score_logistic_regression":0.8723731,"score_fuzzy_knn_k29":0.4237876},"geometry":{"type":"Polygon","coordinates":[[[-66.7021977,-9.8750925],[-66.6940595,-9.8750369],[-66.6940971,-9.8696311],[-66.7022352,-9.8696867],[-66.7021977,-9.8750925]]]}},{"type":"Feature","id":"AC-Y363-X946","properties":{"id":"AC-Y363-X946","grid_x":946,"grid_y":363,"centroid":[-66.6900092,-9.8723061],"aggregation":"none","score_gradboost":0.8735042,"score_random_forest":0.8189783,"score_logistic_regression":0.8872297,"score_fuzzy_knn_k29":0.7619388},"geometry":{"type":"Polygon","coordinates":[[[-66.6940595,-9.8750369],[-66.6859213,-9.874981],[-66.685959,-9.8695753],[-66.6940971,-9.8696311],[-66.6940595,-9.8750369]]]}},{"type":"Feature","id":"AC-Y364-X944","properties":{"id":"AC-Y364-X944","grid_x":944,"grid_y":364,"centroid":[-66.706323,-9.8670116],"aggregation":"none","score_gradboost":0.9612807,"score_random_forest":0.9113021,"score_logistic_regression":0.9373363,"score_fuzzy_knn_k29":0.9894258},"geometry":{"type":"Polygon","coordinates":[[[-66.7103734,-9.8697422],[-66.7022352,-9.8696867],[-66.7022727,-9.864281],[-66.7104108,-9.8643364],[-66.7103734,-9.8697422]]]}},{"type":"Feature","id":"AC-Y364-X945","properties":{"id":"AC-Y364-X945","grid_x":945,"grid_y":364,"centroid":[-66.6981849,-9.8669561],"aggregation":"none","score_gradboost":0.9737688,"score_random_forest":0.9031159,"score_logistic_regression":0.700694,"score_fuzzy_knn_k29":0.838742},"geometry":{"type":"Polygon","coordinates":[[[-66.7022352,-9.8696867],[-66.6940971,-9.8696311],[-66.6941347,-9.8642254],[-66.7022727,-9.864281],[-66.7022352,-9.8696867]]]}}]}