{"type":"FeatureCollection","features":[{"type":"Feature","id":"AC-Y799-X184","properties":{"id":"AC-Y799-X184","grid_x":184,"grid_y":799,"centroid":[-72.8685262,-7.5042061],"aggregation":"none","score_gradboost":0.8259595,"score_random_forest":0.8528331,"score_logistic_regression":0.6267635,"score_fuzzy_knn_k29":0.8181096},"geometry":{"type":"Polygon","coordinates":[[[-72.8725878,-7.5068697],[-72.8645124,-7.5069409],[-72.8644647,-7.5015425],[-72.8725399,-7.5014713],[-72.8725878,-7.5068697]]]}},{"type":"Feature","id":"AC-Y799-X185","properties":{"id":"AC-Y799-X185","grid_x":185,"grid_y":799,"centroid":[-72.8604509,-7.5042772],"aggregation":"none","score_gradboost":0.9054295,"score_random_forest":0.8495953,"score_logistic_regression":0.7028141,"score_fuzzy_knn_k29":0.4246737},"geometry":{"type":"Polygon","coordinates":[[[-72.8645124,-7.5069409],[-72.856437,-7.507012],[-72.8563894,-7.5016135],[-72.8644647,-7.5015425],[-72.8645124,-7.5069409]]]}},{"type":"Feature","id":"AC-Y799-X186","properties":{"id":"AC-Y799-X186","grid_x":186,"grid_y":799,"centroid":[-72.8523755,-7.5043482],"aggregation":"none","score_gradboost":0.8682865,"score_random_forest":0.8324609,"score_logistic_regression":0.7605223,"score_fuzzy_knn_k29":0.9486648},"geometry":{"type":"Polygon","coordinates":[[[-72.856437,-7.507012],[-72.8483615,-7.5070829],[-72.848314,-7.5016843],[-72.8563894,-7.5016135],[-72.856437,-7.507012]]]}},{"type":"Feature","id":"AC-Y799-X187","properties":{"id":"AC-Y799-X187","grid_x":187,"grid_y":799,"centroid":[-72.8443,-7.504419],"aggregation":"none","score_gradboost":0.8439273,"score_random_forest":0.8255424,"score_logistic_regression":0.7988271,"score_fuzzy_knn_k29":0.9899944},"geometry":{"type":"Polygon","coordinates":[[[-72.8483615,-7.5070829],[-72.8402859,-7.5071536],[-72.8402385,-7.501755],[-72.848314,-7.5016843],[-72.8483615,-7.5070829]]]}},{"type":"Feature","id":"AC-Y799-X188","properties":{"id":"AC-Y799-X188","grid_x":188,"grid_y":799,"centroid":[-72.8362244,-7.5044896],"aggregation":"none","score_gradboost":0.8054082,"score_random_forest":0.7767305,"score_logistic_regression":0.8079986,"score_fuzzy_knn_k29":0.8205933},"geometry":{"type":"Polygon","coordinates":[[[-72.8402859,-7.5071536],[-72.8322103,-7.5072242],[-72.8321629,-7.5018256],[-72.8402385,-7.501755],[-72.8402859,-7.5071536]]]}},{"type":"Feature","id":"AC-Y799-X189","properties":{"id":"AC-Y799-X189","grid_x":189,"grid_y":799,"centroid":[-72.8281488,-7.5045602],"aggregation":"none","score_gradboost":0.6914767,"score_random_forest":0.6597837,"score_logistic_regression":0.7869492,"score_fuzzy_knn_k29":0.645756},"geometry":{"type":"Polygon","coordinates":[[[-72.8322103,-7.5072242],[-72.8241345,-7.5072947],[-72.8240873,-7.501896],[-72.8321629,-7.5018256],[-72.8322103,-7.5072242]]]}},{"type":"Feature","id":"AC-Y799-X190","properties":{"id":"AC-Y799-X190","grid_x":190,"grid_y":799,"centroid":[-72.8200731,-7.5046305],"aggregation":"none","score_gradboost":0.5378156,"score_random_forest":0.6282756,"score_logistic_regression":0.821501,"score_fuzzy_knn_k29":0.2435009},"geometry":{"type":"Polygon","coordinates":[[[-72.8241345,-7.5072947],[-72.8160587,-7.507365],[-72.8160116,-7.5019663],[-72.8240873,-7.501896],[-72.8241345,-7.5072947]]]}},{"type":"Feature","id":"AC-Y800-X184","properties":{"id":"AC-Y800-X184","grid_x":184,"grid_y":800,"centroid":[-72.8684785,-7.4988077],"aggregation":"none","score_gradboost":0.8850647,"score_random_forest":0.8834331,"score_logistic_regression":0.6398598,"score_fuzzy_knn_k29":0.5205033},"geometry":{"type":"Polygon","coordinates":[[[-72.8725399,-7.5014713],[-72.8644647,-7.5015425],[-72.864417,-7.4961441],[-72.8724922,-7.496073],[-72.8725399,-7.5014713]]]}},{"type":"Feature","id":"AC-Y800-X185","properties":{"id":"AC-Y800-X185","grid_x":185,"grid_y":800,"centroid":[-72.8604032,-7.4988788],"aggregation":"none","score_gradboost":0.8766318,"score_random_forest":0.8001248,"score_logistic_regression":0.6914322,"score_fuzzy_knn_k29":0.7358647},"geometry":{"type":"Polygon","coordinates":[[[-72.8644647,-7.5015425],[-72.8563894,-7.5016135],[-72.8563418,-7.496215],[-72.864417,-7.4961441],[-72.8644647,-7.5015425]]]}},{"type":"Feature","id":"AC-Y800-X186","properties":{"id":"AC-Y800-X186","grid_x":186,"grid_y":800,"centroid":[-72.8523279,-7.4989497],"aggregation":"none","score_gradboost":0.8423576,"score_random_forest":0.8402651,"score_logistic_regression":0.8125447,"score_fuzzy_knn_k29":0.9051897},"geometry":{"type":"Polygon","coordinates":[[[-72.8563894,-7.5016135],[-72.848314,-7.5016843],[-72.8482665,-7.4962858],[-72.8563418,-7.496215],[-72.8563894,-7.5016135]]]}},{"type":"Feature","id":"AC-Y800-X187","properties":{"id":"AC-Y800-X187","grid_x":187,"grid_y":800,"centroid":[-72.8442525,-7.4990204],"aggregation":"none","score_gradboost":0.7782731,"score_random_forest":0.7399431,"score_logistic_regression":0.8147466,"score_fuzzy_knn_k29":0.7772431},"geometry":{"type":"Polygon","coordinates":[[[-72.848314,-7.5016843],[-72.8402385,-7.501755],[-72.8401911,-7.4963565],[-72.8482665,-7.4962858],[-72.848314,-7.5016843]]]}},{"type":"Feature","id":"AC-Y800-X188","properties":{"id":"AC-Y800-X188","grid_x":188,"grid_y":800,"centroid":[-72.8361771,-7.499091],"aggregation":"none","score_gradboost":0.8059922,"score_random_forest":0.7850274,"score_logistic_regression":0.7371579,"score_fuzzy_knn_k29":0.823862},"geometry":{"type":"Polygon","coordinates":[[[-72.8402385,-7.501755],[-72.8321629,-7.5018256],[-72.8321157,-7.496427],[-72.8401911,-7.4963565],[-72.8402385,-7.501755]]]}},{"type":"Feature","id":"AC-Y800-X189","properties":{"id":"AC-Y800-X189","grid_x":189,"grid_y":800,"centroid":[-72.8281015,-7.4991615],"aggregation":"none","score_gradboost":0.8872943,"score_random_forest":0.8487417,"score_logistic_regression":0.6337934,"score_fuzzy_knn_k29":0.9237873},"geometry":{"type":"Polygon","coordinates":[[[-72.8321629,-7.5018256],[-72.8240873,-7.501896],[-72.8240401,-7.4964973],[-72.8321157,-7.496427],[-72.8321629,-7.5018256]]]}},{"type":"Feature","id":"AC-Y800-X190","properties":{"id":"AC-Y800-X190","grid_x":190,"grid_y":800,"centroid":[-72.8200259,-7.4992318],"aggregation":"none","score_gradboost":0.9538121,"score_random_forest":0.8764239,"score_logistic_regression":0.7343471,"score_fuzzy_knn_k29":0.9522904},"geometry":{"type":"Polygon","coordinates":[[[-72.8240873,-7.501896],[-72.8160116,-7.5019663],[-72.8159645,-7.4965675],[-72.8240401,-7.4964973],[-72.8240873,-7.501896]]]}},{"type":"Feature","id":"AC-Y801-X184","properties":{"id":"AC-Y801-X184","grid_x":184,"grid_y":801,"centroid":[-72.8684307,-7.4934093],"aggregation":"none","score_gradboost":0.5844036,"score_random_forest":0.8023844,"score_logistic_regression":0.670319,"score_fuzzy_knn_k29":0.711887},"geometry":{"type":"Polygon","coordinates":[[[-72.8724922,-7.496073],[-72.864417,-7.4961441],[-72.8643694,-7.4907456],[-72.8724444,-7.4906746],[-72.8724922,-7.496073]]]}},{"type":"Feature","id":"AC-Y801-X185","properties":{"id":"AC-Y801-X185","grid_x":185,"grid_y":801,"centroid":[-72.8603556,-7.4934803],"aggregation":"none","score_gradboost":0.5490616,"score_random_forest":0.6332575,"score_logistic_regression":0.8183122,"score_fuzzy_knn_k29":0.7408548},"geometry":{"type":"Polygon","coordinates":[[[-72.864417,-7.4961441],[-72.8563418,-7.496215],[-72.8562942,-7.4908165],[-72.8643694,-7.4907456],[-72.864417,-7.4961441]]]}},{"type":"Feature","id":"AC-Y801-X186","properties":{"id":"AC-Y801-X186","grid_x":186,"grid_y":801,"centroid":[-72.8522804,-7.4935512],"aggregation":"none","score_gradboost":0.7492353,"score_random_forest":0.7729452,"score_logistic_regression":0.7765869,"score_fuzzy_knn_k29":0.777419},"geometry":{"type":"Polygon","coordinates":[[[-72.8563418,-7.496215],[-72.8482665,-7.4962858],[-72.848219,-7.4908873],[-72.8562942,-7.4908165],[-72.8563418,-7.496215]]]}},{"type":"Feature","id":"AC-Y801-X187","properties":{"id":"AC-Y801-X187","grid_x":187,"grid_y":801,"centroid":[-72.8442051,-7.4936219],"aggregation":"none","score_gradboost":0.8465716,"score_random_forest":0.8456936,"score_logistic_regression":0.7426223,"score_fuzzy_knn_k29":0.6670404},"geometry":{"type":"Polygon","coordinates":[[[-72.8482665,-7.4962858],[-72.8401911,-7.4963565],[-72.8401438,-7.4909579],[-72.848219,-7.4908873],[-72.8482665,-7.4962858]]]}},{"type":"Feature","id":"AC-Y801-X188","properties":{"id":"AC-Y801-X188","grid_x":188,"grid_y":801,"centroid":[-72.8361297,-7.4936924],"aggregation":"none","score_gradboost":0.9502777,"score_random_forest":0.9251735,"score_logistic_regression":0.6165136,"score_fuzzy_knn_k29":0.9474812},"geometry":{"type":"Polygon","coordinates":[[[-72.8401911,-7.4963565],[-72.8321157,-7.496427],[-72.8320684,-7.4910284],[-72.8401438,-7.4909579],[-72.8401911,-7.4963565]]]}},{"type":"Feature","id":"AC-Y801-X189","properties":{"id":"AC-Y801-X189","grid_x":189,"grid_y":801,"centroid":[-72.8280543,-7.4937628],"aggregation":"none","score_gradboost":0.9468334,"score_random_forest":0.9238277,"score_logistic_regression":0.6152631,"score_fuzzy_knn_k29":0.9345203},"geometry":{"type":"Polygon","coordinates":[[[-72.8321157,-7.496427],[-72.8240401,-7.4964973],[-72.823993,-7.4910987],[-72.8320684,-7.4910284],[-72.8321157,-7.496427]]]}},{"type":"Feature","id":"AC-Y801-X190","properties":{"id":"AC-Y801-X190","grid_x":190,"grid_y":801,"centroid":[-72.8199788,-7.4938331],"aggregation":"none","score_gradboost":0.9400848,"score_random_forest":0.8774663,"score_logistic_regression":0.7375813,"score_fuzzy_knn_k29":1.0},"geometry":{"type":"Polygon","coordinates":[[[-72.8240401,-7.4964973],[-72.8159645,-7.4965675],[-72.8159175,-7.4911688],[-72.823993,-7.4910987],[-72.8240401,-7.4964973]]]}},{"type":"Feature","id":"AC-Y801-X191","properties":{"id":"AC-Y801-X191","grid_x":191,"grid_y":801,"centroid":[-72.8119032,-7.4939032],"aggregation":"none","score_gradboost":0.9427207,"score_random_forest":0.9587082,"score_logistic_regression":0.684766,"score_fuzzy_knn_k29":0.89975},"geometry":{"type":"Polygon","coordinates":[[[-72.8159645,-7.4965675],[-72.8078888,-7.4966376],[-72.8078419,-7.4912388],[-72.8159175,-7.4911688],[-72.8159645,-7.4965675]]]}},{"type":"Feature","id":"AC-Y802-X184","properties":{"id":"AC-Y802-X184","grid_x":184,"grid_y":802,"centroid":[-72.8683831,-7.4880109],"aggregation":"none","score_gradboost":0.6876363,"score_random_forest":0.6862487,"score_logistic_regression":0.8268242,"score_fuzzy_knn_k29":0.4726899},"geometry":{"type":"Polygon","coordinates":[[[-72.8724444,-7.4906746],[-72.8643694,-7.4907456],[-72.8643217,-7.4853472],[-72.8723967,-7.4852762],[-72.8724444,-7.4906746]]]}},{"type":"Feature","id":"AC-Y802-X185","properties":{"id":"AC-Y802-X185","grid_x":185,"grid_y":802,"centroid":[-72.860308,-7.4880819],"aggregation":"none","score_gradboost":0.4822551,"score_random_forest":0.6263984,"score_logistic_regression":0.811154,"score_fuzzy_knn_k29":0.7834442},"geometry":{"type":"Polygon","coordinates":[[[-72.8643694,-7.4907456],[-72.8562942,-7.4908165],[-72.8562467,-7.4854181],[-72.8643217,-7.4853472],[-72.8643694,-7.4907456]]]}},{"type":"Feature","id":"AC-Y802-X186","properties":{"id":"AC-Y802-X186","grid_x":186,"grid_y":802,"centroid":[-72.8522329,-7.4881527],"aggregation":"none","score_gradboost":0.6929826,"score_random_forest":0.7967145,"score_logistic_regression":0.6793517,"score_fuzzy_knn_k29":0.8038092},"geometry":{"type":"Polygon","coordinates":[[[-72.8562942,-7.4908165],[-72.848219,-7.4908873],[-72.8481716,-7.4854888],[-72.8562467,-7.4854181],[-72.8562942,-7.4908165]]]}},{"type":"Feature","id":"AC-Y802-X187","properties":{"id":"AC-Y802-X187","grid_x":187,"grid_y":802,"centroid":[-72.8441577,-7.4882233],"aggregation":"none","score_gradboost":0.9814927,"score_random_forest":0.9569398,"score_logistic_regression":0.7324436,"score_fuzzy_knn_k29":0.9567983},"geometry":{"type":"Polygon","coordinates":[[[-72.848219,-7.4908873],[-72.8401438,-7.4909579],[-72.8400964,-7.4855593],[-72.8481716,-7.4854888],[-72.848219,-7.4908873]]]}},{"type":"Feature","id":"AC-Y802-X188","properties":{"id":"AC-Y802-X188","grid_x":188,"grid_y":802,"centroid":[-72.8360825,-7.4882938],"aggregation":"none","score_gradboost":0.9342815,"score_random_forest":0.8869025,"score_logistic_regression":0.6130421,"score_fuzzy_knn_k29":0.9413244},"geometry":{"type":"Polygon","coordinates":[[[-72.8401438,-7.4909579],[-72.8320684,-7.4910284],[-72.8320212,-7.4856297],[-72.8400964,-7.4855593],[-72.8401438,-7.4909579]]]}},{"type":"Feature","id":"AC-Y802-X189","properties":{"id":"AC-Y802-X189","grid_x":189,"grid_y":802,"centroid":[-72.8280071,-7.4883642],"aggregation":"none","score_gradboost":0.9727798,"score_random_forest":0.9424225,"score_logistic_regression":0.717412,"score_fuzzy_knn_k29":1.0},"geometry":{"type":"Polygon","coordinates":[[[-72.8320684,-7.4910284],[-72.823993,-7.4910987],[-72.8239458,-7.4857],[-72.8320212,-7.4856297],[-72.8320684,-7.4910284]]]}},{"type":"Feature","id":"AC-Y802-X190","properties":{"id":"AC-Y802-X190","grid_x":190,"grid_y":802,"centroid":[-72.8199317,-7.4884344],"aggregation":"none","score_gradboost":0.9622364,"score_random_forest":0.8950423,"score_logistic_regression":0.7486635,"score_fuzzy_knn_k29":1.0},"geometry":{"type":"Polygon","coordinates":[[[-72.823993,-7.4910987],[-72.8159175,-7.4911688],[-72.8158704,-7.4857701],[-72.8239458,-7.4857],[-72.823993,-7.4910987]]]}},{"type":"Feature","id":"AC-Y802-X191","properties":{"id":"AC-Y802-X191","grid_x":191,"grid_y":802,"centroid":[-72.8118562,-7.4885045],"aggregation":"none","score_gradboost":0.9787579,"score_random_forest":0.8890022,"score_logistic_regression":0.627674,"score_fuzzy_knn_k29":0.8058365},"geometry":{"type":"Polygon","coordinates":[[[-72.8159175,-7.4911688],[-72.8078419,-7.4912388],[-72.8077949,-7.48584],[-72.8158704,-7.4857701],[-72.8159175,-7.4911688]]]}},{"type":"Feature","id":"AC-Y803-X184","properties":{"id":"AC-Y803-X184","grid_x":184,"grid_y":803,"centroid":[-72.8683354,-7.4826125],"aggregation":"none","score_gradboost":0.7166645,"score_random_forest":0.7213735,"score_logistic_regression":0.6965817,"score_fuzzy_knn_k29":0.5303252},"geometry":{"type":"Polygon","coordinates":[[[-72.8723967,-7.4852762],[-72.8643217,-7.4853472],[-72.8642742,-7.4799488],[-72.872349,-7.4798779],[-72.8723967,-7.4852762]]]}},{"type":"Feature","id":"AC-Y803-X185","properties":{"id":"AC-Y803-X185","grid_x":185,"grid_y":803,"centroid":[-72.8602605,-7.4826834],"aggregation":"none","score_gradboost":0.7599371,"score_random_forest":0.841536,"score_logistic_regression":0.6865637,"score_fuzzy_knn_k29":0.3535812},"geometry":{"type":"Polygon","coordinates":[[[-72.8643217,-7.4853472],[-72.8562467,-7.4854181],[-72.8561992,-7.4800196],[-72.8642742,-7.4799488],[-72.8643217,-7.4853472]]]}},{"type":"Feature","id":"AC-Y803-X186","properties":{"id":"AC-Y803-X186","grid_x":186,"grid_y":803,"centroid":[-72.8521855,-7.4827542],"aggregation":"none","score_gradboost":0.8711989,"score_random_forest":0.6908984,"score_logistic_regression":0.4579954,"score_fuzzy_knn_k29":0.5273584},"geometry":{"type":"Polygon","coordinates":[[[-72.8562467,-7.4854181],[-72.8481716,-7.4854888],[-72.8481242,-7.4800902],[-72.8561992,-7.4800196],[-72.8562467,-7.4854181]]]}},{"type":"Feature","id":"AC-Y803-X187","properties":{"id":"AC-Y803-X187","grid_x":187,"grid_y":803,"centroid":[-72.8441104,-7.4828248],"aggregation":"none","score_gradboost":0.9220247,"score_random_forest":0.9385832,"score_logistic_regression":0.6564015,"score_fuzzy_knn_k29":0.9717321},"geometry":{"type":"Polygon","coordinates":[[[-72.8481716,-7.4854888],[-72.8400964,-7.4855593],[-72.8400492,-7.4801607],[-72.8481242,-7.4800902],[-72.8481716,-7.4854888]]]}},{"type":"Feature","id":"AC-Y803-X188","properties":{"id":"AC-Y803-X188","grid_x":188,"grid_y":803,"centroid":[-72.8360352,-7.4828952],"aggregation":"none","score_gradboost":0.9399947,"score_random_forest":0.931132,"score_logistic_regression":0.6450956,"score_fuzzy_knn_k29":0.9561094},"geometry":{"type":"Polygon","coordinates":[[[-72.8400964,-7.4855593],[-72.8320212,-7.4856297],[-72.831974,-7.4802311],[-72.8400492,-7.4801607],[-72.8400964,-7.4855593]]]}},{"type":"Feature","id":"AC-Y803-X189","properties":{"id":"AC-Y803-X189","grid_x":189,"grid_y":803,"centroid":[-72.82796,-7.4829655],"aggregation":"none","score_gradboost":0.965481,"score_random_forest":0.9556733,"score_logistic_regression":0.6513246,"score_fuzzy_knn_k29":0.9298088},"geometry":{"type":"Polygon","coordinates":[[[-72.8320212,-7.4856297],[-72.8239458,-7.4857],[-72.8238988,-7.4803013],[-72.831974,-7.4802311],[-72.8320212,-7.4856297]]]}},{"type":"Feature","id":"AC-Y803-X190","properties":{"id":"AC-Y803-X190","grid_x":190,"grid_y":803,"centroid":[-72.8198846,-7.4830357],"aggregation":"none","score_gradboost":0.9580457,"score_random_forest":0.8825102,"score_logistic_regression":0.7629271,"score_fuzzy_knn_k29":1.0},"geometry":{"type":"Polygon","coordinates":[[[-72.8239458,-7.4857],[-72.8158704,-7.4857701],[-72.8158234,-7.4803714],[-72.8238988,-7.4803013],[-72.8239458,-7.4857]]]}},{"type":"Feature","id":"AC-Y803-X191","properties":{"id":"AC-Y803-X191","grid_x":191,"grid_y":803,"centroid":[-72.8118092,-7.4831057],"aggregation":"none","score_gradboost":0.9732487,"score_random_forest":0.9371356,"score_logistic_regression":0.6452538,"score_fuzzy_knn_k29":0.7516157},"geometry":{"type":"Polygon","coordinates":[[[-72.8158704,-7.4857701],[-72.8077949,-7.48584],[-72.807748,-7.4804413],[-72.8158234,-7.4803714],[-72.8158704,-7.4857701]]]}},{"type":"Feature","id":"AC-Y803-X192","properties":{"id":"AC-Y803-X192","grid_x":192,"grid_y":803,"centroid":[-72.8037337,-7.4831756],"aggregation":"none","score_gradboost":0.7900989,"score_random_forest":0.7074185,"score_logistic_regression":0.61151,"score_fuzzy_knn_k29":0.3596586},"geometry":{"type":"Polygon","coordinates":[[[-72.8077949,-7.48584],[-72.7997194,-7.4859099],[-72.7996726,-7.480511],[-72.807748,-7.4804413],[-72.8077949,-7.48584]]]}},{"type":"Feature","id":"AC-Y804-X184","properties":{"id":"AC-Y804-X184","grid_x":184,"grid_y":804,"centroid":[-72.8682878,-7.4772141],"aggregation":"none","score_gradboost":0.9707281,"score_random_forest":0.9681548,"score_logistic_regression":0.6718416,"score_fuzzy_knn_k29":0.9073427},"geometry":{"type":"Polygon","coordinates":[[[-72.872349,-7.4798779],[-72.8642742,-7.4799488],[-72.8642266,-7.4745504],[-72.8723014,-7.4744795],[-72.872349,-7.4798779]]]}},{"type":"Feature","id":"AC-Y804-X185","properties":{"id":"AC-Y804-X185","grid_x":185,"grid_y":804,"centroid":[-72.860213,-7.477285],"aggregation":"none","score_gradboost":0.864359,"score_random_forest":0.878024,"score_logistic_regression":0.7035212,"score_fuzzy_knn_k29":0.8131266},"geometry":{"type":"Polygon","coordinates":[[[-72.8642742,-7.4799488],[-72.8561992,-7.4800196],[-72.8561518,-7.4746211],[-72.8642266,-7.4745504],[-72.8642742,-7.4799488]]]}},{"type":"Feature","id":"AC-Y804-X186","properties":{"id":"AC-Y804-X186","grid_x":186,"grid_y":804,"centroid":[-72.852138,-7.4773557],"aggregation":"none","score_gradboost":0.9495623,"score_random_forest":0.954457,"score_logistic_regression":0.6644052,"score_fuzzy_knn_k29":0.9149478},"geometry":{"type":"Polygon","coordinates":[[[-72.8561992,-7.4800196],[-72.8481242,-7.4800902],[-72.8480769,-7.4746917],[-72.8561518,-7.4746211],[-72.8561992,-7.4800196]]]}},{"type":"Feature","id":"AC-Y804-X187","properties":{"id":"AC-Y804-X187","grid_x":187,"grid_y":804,"centroid":[-72.8440631,-7.4774262],"aggregation":"none","score_gradboost":0.9326621,"score_random_forest":0.9045103,"score_logistic_regression":0.6355528,"score_fuzzy_knn_k29":0.9483748},"geometry":{"type":"Polygon","coordinates":[[[-72.8481242,-7.4800902],[-72.8400492,-7.4801607],[-72.8400019,-7.4747622],[-72.8480769,-7.4746917],[-72.8481242,-7.4800902]]]}},{"type":"Feature","id":"AC-Y804-X188","properties":{"id":"AC-Y804-X188","grid_x":188,"grid_y":804,"centroid":[-72.835988,-7.4774966],"aggregation":"none","score_gradboost":0.9401976,"score_random_forest":0.9132898,"score_logistic_regression":0.6716483,"score_fuzzy_knn_k29":0.9934711},"geometry":{"type":"Polygon","coordinates":[[[-72.8400492,-7.4801607],[-72.831974,-7.4802311],[-72.8319268,-7.4748325],[-72.8400019,-7.4747622],[-72.8400492,-7.4801607]]]}},{"type":"Feature","id":"AC-Y804-X189","properties":{"id":"AC-Y804-X189","grid_x":189,"grid_y":804,"centroid":[-72.8279128,-7.4775669],"aggregation":"none","score_gradboost":0.6097976,"score_random_forest":0.649065,"score_logistic_regression":0.4881515,"score_fuzzy_knn_k29":0.6126881},"geometry":{"type":"Polygon","coordinates":[[[-72.831974,-7.4802311],[-72.8238988,-7.4803013],[-72.8238517,-7.4749026],[-72.8319268,-7.4748325],[-72.831974,-7.4802311]]]}},{"type":"Feature","id":"AC-Y804-X190","properties":{"id":"AC-Y804-X190","grid_x":190,"grid_y":804,"centroid":[-72.8198376,-7.477637],"aggregation":"none","score_gradboost":0.9560122,"score_random_forest":0.8844862,"score_logistic_regression":0.7700118,"score_fuzzy_knn_k29":1.0},"geometry":{"type":"Polygon","coordinates":[[[-72.8238988,-7.4803013],[-72.8158234,-7.4803714],[-72.8157765,-7.4749726],[-72.8238517,-7.4749026],[-72.8238988,-7.4803013]]]}},{"type":"Feature","id":"AC-Y804-X191","properties":{"id":"AC-Y804-X191","grid_x":191,"grid_y":804,"centroid":[-72.8117623,-7.4777069],"aggregation":"none","score_gradboost":0.9336554,"score_random_forest":0.8772383,"score_logistic_regression":0.64517,"score_fuzzy_knn_k29":0.1840991},"geometry":{"type":"Polygon","coordinates":[[[-72.8158234,-7.4803714],[-72.807748,-7.4804413],[-72.8077012,-7.4750425],[-72.8157765,-7.4749726],[-72.8158234,-7.4803714]]]}},{"type":"Feature","id":"AC-Y804-X192","properties":{"id":"AC-Y804-X192","grid_x":192,"grid_y":804,"centroid":[-72.8036869,-7.4777768],"aggregation":"none","score_gradboost":0.6794392,"score_random_forest":0.7420106,"score_logistic_regression":0.4835743,"score_fuzzy_knn_k29":0.587611},"geometry":{"type":"Polygon","coordinates":[[[-72.807748,-7.4804413],[-72.7996726,-7.480511],[-72.7996258,-7.4751122],[-72.8077012,-7.4750425],[-72.807748,-7.4804413]]]}},{"type":"Feature","id":"AC-Y805-X184","properties":{"id":"AC-Y805-X184","grid_x":184,"grid_y":805,"centroid":[-72.8682402,-7.4718157],"aggregation":"none","score_gradboost":0.9598983,"score_random_forest":0.9332347,"score_logistic_regression":0.6636387,"score_fuzzy_knn_k29":0.8897047},"geometry":{"type":"Polygon","coordinates":[[[-72.8723014,-7.4744795],[-72.8642266,-7.4745504],[-72.8641791,-7.4691519],[-72.8722538,-7.4690811],[-72.8723014,-7.4744795]]]}},{"type":"Feature","id":"AC-Y805-X185","properties":{"id":"AC-Y805-X185","grid_x":185,"grid_y":805,"centroid":[-72.8601655,-7.4718865],"aggregation":"none","score_gradboost":0.6889863,"score_random_forest":0.6761708,"score_logistic_regression":0.4999237,"score_fuzzy_knn_k29":0.6015257},"geometry":{"type":"Polygon","coordinates":[[[-72.8642266,-7.4745504],[-72.8561518,-7.4746211],[-72.8561044,-7.4692226],[-72.8641791,-7.4691519],[-72.8642266,-7.4745504]]]}},{"type":"Feature","id":"AC-Y805-X186","properties":{"id":"AC-Y805-X186","grid_x":186,"grid_y":805,"centroid":[-72.8520907,-7.4719572],"aggregation":"none","score_gradboost":0.5018778,"score_random_forest":0.6997267,"score_logistic_regression":0.4694783,"score_fuzzy_knn_k29":0.53687},"geometry":{"type":"Polygon","coordinates":[[[-72.8561518,-7.4746211],[-72.8480769,-7.4746917],[-72.8480296,-7.4692932],[-72.8561044,-7.4692226],[-72.8561518,-7.4746211]]]}},{"type":"Feature","id":"AC-Y805-X187","properties":{"id":"AC-Y805-X187","grid_x":187,"grid_y":805,"centroid":[-72.8440158,-7.4720277],"aggregation":"none","score_gradboost":0.3346185,"score_random_forest":0.6017804,"score_logistic_regression":0.4673632,"score_fuzzy_knn_k29":0.563363},"geometry":{"type":"Polygon","coordinates":[[[-72.8480769,-7.4746917],[-72.8400019,-7.4747622],[-72.8399547,-7.4693636],[-72.8480296,-7.4692932],[-72.8480769,-7.4746917]]]}},{"type":"Feature","id":"AC-Y805-X188","properties":{"id":"AC-Y805-X188","grid_x":188,"grid_y":805,"centroid":[-72.8359408,-7.472098],"aggregation":"none","score_gradboost":0.9436891,"score_random_forest":0.9045693,"score_logistic_regression":0.6368689,"score_fuzzy_knn_k29":0.7936705},"geometry":{"type":"Polygon","coordinates":[[[-72.8400019,-7.4747622],[-72.8319268,-7.4748325],[-72.8318797,-7.4694338],[-72.8399547,-7.4693636],[-72.8400019,-7.4747622]]]}},{"type":"Feature","id":"AC-Y805-X189","properties":{"id":"AC-Y805-X189","grid_x":189,"grid_y":805,"centroid":[-72.8278657,-7.4721682],"aggregation":"none","score_gradboost":0.9585595,"score_random_forest":0.9295075,"score_logistic_regression":0.6815875,"score_fuzzy_knn_k29":0.7717222},"geometry":{"type":"Polygon","coordinates":[[[-72.8319268,-7.4748325],[-72.8238517,-7.4749026],[-72.8238047,-7.4695039],[-72.8318797,-7.4694338],[-72.8319268,-7.4748325]]]}},{"type":"Feature","id":"AC-Y805-X190","properties":{"id":"AC-Y805-X190","grid_x":190,"grid_y":805,"centroid":[-72.8197906,-7.4722383],"aggregation":"none","score_gradboost":0.709087,"score_random_forest":0.7452369,"score_logistic_regression":0.5044775,"score_fuzzy_knn_k29":0.6453457},"geometry":{"type":"Polygon","coordinates":[[[-72.8238517,-7.4749026],[-72.8157765,-7.4749726],[-72.8157296,-7.4695739],[-72.8238047,-7.4695039],[-72.8238517,-7.4749026]]]}},{"type":"Feature","id":"AC-Y805-X191","properties":{"id":"AC-Y805-X191","grid_x":191,"grid_y":805,"centroid":[-72.8117154,-7.4723082],"aggregation":"none","score_gradboost":0.5262858,"score_random_forest":0.6362833,"score_logistic_regression":0.5013044,"score_fuzzy_knn_k29":0.6121402},"geometry":{"type":"Polygon","coordinates":[[[-72.8157765,-7.4749726],[-72.8077012,-7.4750425],[-72.8076544,-7.4696437],[-72.8157296,-7.4695739],[-72.8157765,-7.4749726]]]}},{"type":"Feature","id":"AC-Y806-X184","properties":{"id":"AC-Y806-X184","grid_x":184,"grid_y":806,"centroid":[-72.8681927,-7.4664173],"aggregation":"none","score_gradboost":0.9027764,"score_random_forest":0.9452068,"score_logistic_regression":0.7790682,"score_fuzzy_knn_k29":1.0},"geometry":{"type":"Polygon","coordinates":[[[-72.8722538,-7.4690811],[-72.8641791,-7.4691519],[-72.8641316,-7.4637535],[-72.8722062,-7.4636827],[-72.8722538,-7.4690811]]]}},{"type":"Feature","id":"AC-Y806-X185","properties":{"id":"AC-Y806-X185","grid_x":185,"grid_y":806,"centroid":[-72.860118,-7.4664881],"aggregation":"none","score_gradboost":0.7401174,"score_random_forest":0.8398044,"score_logistic_regression":0.6797703,"score_fuzzy_knn_k29":0.7981052},"geometry":{"type":"Polygon","coordinates":[[[-72.8641791,-7.4691519],[-72.8561044,-7.4692226],[-72.856057,-7.4638241],[-72.8641316,-7.4637535],[-72.8641791,-7.4691519]]]}},{"type":"Feature","id":"AC-Y806-X186","properties":{"id":"AC-Y806-X186","grid_x":186,"grid_y":806,"centroid":[-72.8520433,-7.4665587],"aggregation":"none","score_gradboost":0.4757817,"score_random_forest":0.56803,"score_logistic_regression":0.4944161,"score_fuzzy_knn_k29":0.6528827},"geometry":{"type":"Polygon","coordinates":[[[-72.8561044,-7.4692226],[-72.8480296,-7.4692932],[-72.8479823,-7.4638946],[-72.856057,-7.4638241],[-72.8561044,-7.4692226]]]}},{"type":"Feature","id":"AC-Y806-X187","properties":{"id":"AC-Y806-X187","grid_x":187,"grid_y":806,"centroid":[-72.8439685,-7.4666291],"aggregation":"none","score_gradboost":0.853042,"score_random_forest":0.8104024,"score_logistic_regression":0.6632522,"score_fuzzy_knn_k29":0.7572518},"geometry":{"type":"Polygon","coordinates":[[[-72.8480296,-7.4692932],[-72.8399547,-7.4693636],[-72.8399075,-7.463965],[-72.8479823,-7.4638946],[-72.8480296,-7.4692932]]]}},{"type":"Feature","id":"AC-Y806-X188","properties":{"id":"AC-Y806-X188","grid_x":188,"grid_y":806,"centroid":[-72.8358937,-7.4666994],"aggregation":"none","score_gradboost":0.9685351,"score_random_forest":0.9739153,"score_logistic_regression":0.7435802,"score_fuzzy_knn_k29":0.9781801},"geometry":{"type":"Polygon","coordinates":[[[-72.8399547,-7.4693636],[-72.8318797,-7.4694338],[-72.8318327,-7.4640352],[-72.8399075,-7.463965],[-72.8399547,-7.4693636]]]}},{"type":"Feature","id":"AC-Y806-X189","properties":{"id":"AC-Y806-X189","grid_x":189,"grid_y":806,"centroid":[-72.8278187,-7.4667696],"aggregation":"none","score_gradboost":0.931862,"score_random_forest":0.8910847,"score_logistic_regression":0.686044,"score_fuzzy_knn_k29":0.7408037},"geometry":{"type":"Polygon","coordinates":[[[-72.8318797,-7.4694338],[-72.8238047,-7.4695039],[-72.8237577,-7.4641052],[-72.8318327,-7.4640352],[-72.8318797,-7.4694338]]]}},{"type":"Feature","id":"AC-Y807-X184","properties":{"id":"AC-Y807-X184","grid_x":184,"grid_y":807,"centroid":[-72.8681452,-7.4610189],"aggregation":"none","score_gradboost":0.4829984,"score_random_forest":0.6068025,"score_logistic_regression":0.5074042,"score_fuzzy_knn_k29":0.6663711},"geometry":{"type":"Polygon","coordinates":[[[-72.8722062,-7.4636827],[-72.8641316,-7.4637535],[-72.8640842,-7.4583551],[-72.8721587,-7.4582843],[-72.8722062,-7.4636827]]]}},{"type":"Feature","id":"AC-Y807-X185","properties":{"id":"AC-Y807-X185","grid_x":185,"grid_y":807,"centroid":[-72.8600706,-7.4610896],"aggregation":"none","score_gradboost":0.6295455,"score_random_forest":0.6345636,"score_logistic_regression":0.4624524,"score_fuzzy_knn_k29":0.6198838},"geometry":{"type":"Polygon","coordinates":[[[-72.8641316,-7.4637535],[-72.856057,-7.4638241],[-72.8560097,-7.4584257],[-72.8640842,-7.4583551],[-72.8641316,-7.4637535]]]}},{"type":"Feature","id":"AC-Y807-X186","properties":{"id":"AC-Y807-X186","grid_x":186,"grid_y":807,"centroid":[-72.851996,-7.4611602],"aggregation":"none","score_gradboost":0.7796473,"score_random_forest":0.8015652,"score_logistic_regression":0.6834291,"score_fuzzy_knn_k29":0.7918967},"geometry":{"type":"Polygon","coordinates":[[[-72.856057,-7.4638241],[-72.8479823,-7.4638946],[-72.8479351,-7.4584961],[-72.8560097,-7.4584257],[-72.856057,-7.4638241]]]}},{"type":"Feature","id":"AC-Y807-X187","properties":{"id":"AC-Y807-X187","grid_x":187,"grid_y":807,"centroid":[-72.8439213,-7.4612306],"aggregation":"none","score_gradboost":0.4027165,"score_random_forest":0.6018187,"score_logistic_regression":0.4821145,"score_fuzzy_knn_k29":0.6419727},"geometry":{"type":"Polygon","coordinates":[[[-72.8479823,-7.4638946],[-72.8399075,-7.463965],[-72.8398604,-7.4585664],[-72.8479351,-7.4584961],[-72.8479823,-7.4638946]]]}},{"type":"Feature","id":"AC-Y808-X184","properties":{"id":"AC-Y808-X184","grid_x":184,"grid_y":808,"centroid":[-72.8680977,-7.4556205],"aggregation":"none","score_gradboost":0.5508619,"score_random_forest":0.6192869,"score_logistic_regression":0.4643044,"score_fuzzy_knn_k29":0.5610179},"geometry":{"type":"Polygon","coordinates":[[[-72.8721587,-7.4582843],[-72.8640842,-7.4583551],[-72.8640368,-7.4529566],[-72.8721111,-7.452886],[-72.8721587,-7.4582843]]]}},{"type":"Feature","id":"AC-Y808-X185","properties":{"id":"AC-Y808-X185","grid_x":185,"grid_y":808,"centroid":[-72.8600233,-7.4556912],"aggregation":"none","score_gradboost":0.3156188,"score_random_forest":0.5266521,"score_logistic_regression":0.5066249,"score_fuzzy_knn_k29":0.7002708},"geometry":{"type":"Polygon","coordinates":[[[-72.8640842,-7.4583551],[-72.8560097,-7.4584257],[-72.8559624,-7.4530272],[-72.8640368,-7.4529566],[-72.8640842,-7.4583551]]]}},{"type":"Feature","id":"AC-Y809-X184","properties":{"id":"AC-Y809-X184","grid_x":184,"grid_y":809,"centroid":[-72.8680503,-7.4502221],"aggregation":"none","score_gradboost":0.5816988,"score_random_forest":0.5389889,"score_logistic_regression":0.4792662,"score_fuzzy_knn_k29":0.602101},"geometry":{"type":"Polygon","coordinates":[[[-72.8721111,-7.452886],[-72.8640368,-7.4529566],[-72.8639894,-7.4475582],[-72.8720637,-7.4474876],[-72.8721111,-7.452886]]]}},{"type":"Feature","id":"AC-Y800-X201","properties":{"id":"AC-Y800-X201","grid_x":201,"grid_y":800,"centroid":[-72.7311889,-7.4999955],"aggregation":"none","score_gradboost":0.9700394,"score_random_forest":0.8891419,"score_logistic_regression":0.6832298,"score_fuzzy_knn_k29":0.7453605},"geometry":{"type":"Polygon","coordinates":[[[-72.7352502,-7.5026608],[-72.7271737,-7.5027294],[-72.7271277,-7.4973301],[-72.7352041,-7.4972616],[-72.7352502,-7.5026608]]]}},{"type":"Feature","id":"AC-Y799-X191","properties":{"id":"AC-Y799-X191","grid_x":191,"grid_y":799,"centroid":[-72.8119973,-7.5047007],"aggregation":"none","score_gradboost":0.9309842,"score_random_forest":0.8438349,"score_logistic_regression":0.6128432,"score_fuzzy_knn_k29":0.90881},"geometry":{"type":"Polygon","coordinates":[[[-72.8160587,-7.507365],[-72.8079828,-7.5074352],[-72.8079358,-7.5020364],[-72.8160116,-7.5019663],[-72.8160587,-7.507365]]]}},{"type":"Feature","id":"AC-Y799-X192","properties":{"id":"AC-Y799-X192","grid_x":192,"grid_y":799,"centroid":[-72.8039214,-7.5047708],"aggregation":"none","score_gradboost":0.8492775,"score_random_forest":0.8685783,"score_logistic_regression":0.6025772,"score_fuzzy_knn_k29":0.905308},"geometry":{"type":"Polygon","coordinates":[[[-72.8079828,-7.5074352],[-72.7999069,-7.5075052],[-72.7998599,-7.5021064],[-72.8079358,-7.5020364],[-72.8079828,-7.5074352]]]}},{"type":"Feature","id":"AC-Y799-X193","properties":{"id":"AC-Y799-X193","grid_x":193,"grid_y":799,"centroid":[-72.7958454,-7.5048407],"aggregation":"none","score_gradboost":0.9107445,"score_random_forest":0.9053203,"score_logistic_regression":0.6990835,"score_fuzzy_knn_k29":0.9879159},"geometry":{"type":"Polygon","coordinates":[[[-72.7999069,-7.5075052],[-72.7918308,-7.5075751],[-72.791784,-7.5021762],[-72.7998599,-7.5021064],[-72.7999069,-7.5075052]]]}},{"type":"Feature","id":"AC-Y799-X194","properties":{"id":"AC-Y799-X194","grid_x":194,"grid_y":799,"centroid":[-72.7877694,-7.5049105],"aggregation":"none","score_gradboost":0.9516236,"score_random_forest":0.9391452,"score_logistic_regression":0.7126997,"score_fuzzy_knn_k29":0.9833758},"geometry":{"type":"Polygon","coordinates":[[[-72.7918308,-7.5075751],[-72.7837547,-7.5076448],[-72.783708,-7.5022459],[-72.791784,-7.5021762],[-72.7918308,-7.5075751]]]}},{"type":"Feature","id":"AC-Y799-X195","properties":{"id":"AC-Y799-X195","grid_x":195,"grid_y":799,"centroid":[-72.7796933,-7.5049801],"aggregation":"none","score_gradboost":0.9642296,"score_random_forest":0.9813423,"score_logistic_regression":0.8004315,"score_fuzzy_knn_k29":0.9771137},"geometry":{"type":"Polygon","coordinates":[[[-72.7837547,-7.5076448],[-72.7756785,-7.5077144],[-72.7756319,-7.5023154],[-72.783708,-7.5022459],[-72.7837547,-7.5076448]]]}},{"type":"Feature","id":"AC-Y799-X196","properties":{"id":"AC-Y799-X196","grid_x":196,"grid_y":799,"centroid":[-72.7716171,-7.5050496],"aggregation":"none","score_gradboost":0.8376125,"score_random_forest":0.8753911,"score_logistic_regression":0.829236,"score_fuzzy_knn_k29":0.9788226},"geometry":{"type":"Polygon","coordinates":[[[-72.7756785,-7.5077144],[-72.7676022,-7.5077838],[-72.7675557,-7.5023848],[-72.7756319,-7.5023154],[-72.7756785,-7.5077144]]]}},{"type":"Feature","id":"AC-Y799-X197","properties":{"id":"AC-Y799-X197","grid_x":197,"grid_y":799,"centroid":[-72.7635408,-7.5051189],"aggregation":"none","score_gradboost":0.9056923,"score_random_forest":0.7576988,"score_logistic_regression":0.6526954,"score_fuzzy_knn_k29":0.477657},"geometry":{"type":"Polygon","coordinates":[[[-72.7676022,-7.5077838],[-72.7595259,-7.5078531],[-72.7594795,-7.502454],[-72.7675557,-7.5023848],[-72.7676022,-7.5077838]]]}},{"type":"Feature","id":"AC-Y799-X198","properties":{"id":"AC-Y799-X198","grid_x":198,"grid_y":799,"centroid":[-72.7554645,-7.5051881],"aggregation":"none","score_gradboost":0.8807145,"score_random_forest":0.8737049,"score_logistic_regression":0.660527,"score_fuzzy_knn_k29":0.4796892},"geometry":{"type":"Polygon","coordinates":[[[-72.7595259,-7.5078531],[-72.7514495,-7.5079222],[-72.7514031,-7.5025231],[-72.7594795,-7.502454],[-72.7595259,-7.5078531]]]}},{"type":"Feature","id":"AC-Y799-X199","properties":{"id":"AC-Y799-X199","grid_x":199,"grid_y":799,"centroid":[-72.7473881,-7.5052571],"aggregation":"none","score_gradboost":0.9559881,"score_random_forest":0.9521767,"score_logistic_regression":0.7991354,"score_fuzzy_knn_k29":0.9280328},"geometry":{"type":"Polygon","coordinates":[[[-72.7514495,-7.5079222],[-72.743373,-7.5079912],[-72.7433267,-7.502592],[-72.7514031,-7.5025231],[-72.7514495,-7.5079222]]]}},{"type":"Feature","id":"AC-Y800-X191","properties":{"id":"AC-Y800-X191","grid_x":191,"grid_y":800,"centroid":[-72.8119502,-7.499302],"aggregation":"none","score_gradboost":0.9458657,"score_random_forest":0.915474,"score_logistic_regression":0.7755682,"score_fuzzy_knn_k29":0.9360438},"geometry":{"type":"Polygon","coordinates":[[[-72.8160116,-7.5019663],[-72.8079358,-7.5020364],[-72.8078888,-7.4966376],[-72.8159645,-7.4965675],[-72.8160116,-7.5019663]]]}},{"type":"Feature","id":"AC-Y800-X192","properties":{"id":"AC-Y800-X192","grid_x":192,"grid_y":800,"centroid":[-72.8038744,-7.499372],"aggregation":"none","score_gradboost":0.971212,"score_random_forest":0.944176,"score_logistic_regression":0.7193725,"score_fuzzy_knn_k29":1.0},"geometry":{"type":"Polygon","coordinates":[[[-72.8079358,-7.5020364],[-72.7998599,-7.5021064],[-72.7998131,-7.4967075],[-72.8078888,-7.4966376],[-72.8079358,-7.5020364]]]}},{"type":"Feature","id":"AC-Y800-X193","properties":{"id":"AC-Y800-X193","grid_x":193,"grid_y":800,"centroid":[-72.7957986,-7.4994419],"aggregation":"none","score_gradboost":0.9364126,"score_random_forest":0.9464467,"score_logistic_regression":0.7903766,"score_fuzzy_knn_k29":0.9671039},"geometry":{"type":"Polygon","coordinates":[[[-72.7998599,-7.5021064],[-72.791784,-7.5021762],[-72.7917372,-7.4967773],[-72.7998131,-7.4967075],[-72.7998599,-7.5021064]]]}},{"type":"Feature","id":"AC-Y800-X194","properties":{"id":"AC-Y800-X194","grid_x":194,"grid_y":800,"centroid":[-72.7877226,-7.4995116],"aggregation":"none","score_gradboost":0.9470921,"score_random_forest":0.9281599,"score_logistic_regression":0.7201808,"score_fuzzy_knn_k29":0.9610927},"geometry":{"type":"Polygon","coordinates":[[[-72.791784,-7.5021762],[-72.783708,-7.5022459],[-72.7836613,-7.4968469],[-72.7917372,-7.4967773],[-72.791784,-7.5021762]]]}},{"type":"Feature","id":"AC-Y800-X195","properties":{"id":"AC-Y800-X195","grid_x":195,"grid_y":800,"centroid":[-72.7796466,-7.4995812],"aggregation":"none","score_gradboost":0.97036,"score_random_forest":0.9790661,"score_logistic_regression":0.756689,"score_fuzzy_knn_k29":0.9793762},"geometry":{"type":"Polygon","coordinates":[[[-72.783708,-7.5022459],[-72.7756319,-7.5023154],[-72.7755853,-7.4969164],[-72.7836613,-7.4968469],[-72.783708,-7.5022459]]]}},{"type":"Feature","id":"AC-Y800-X196","properties":{"id":"AC-Y800-X196","grid_x":196,"grid_y":800,"centroid":[-72.7715705,-7.4996506],"aggregation":"none","score_gradboost":0.8638012,"score_random_forest":0.8556276,"score_logistic_regression":0.8117127,"score_fuzzy_knn_k29":0.7604364},"geometry":{"type":"Polygon","coordinates":[[[-72.7756319,-7.5023154],[-72.7675557,-7.5023848],[-72.7675092,-7.4969857],[-72.7755853,-7.4969164],[-72.7756319,-7.5023154]]]}},{"type":"Feature","id":"AC-Y800-X197","properties":{"id":"AC-Y800-X197","grid_x":197,"grid_y":800,"centroid":[-72.7634944,-7.4997199],"aggregation":"none","score_gradboost":0.846677,"score_random_forest":0.7468609,"score_logistic_regression":0.7185602,"score_fuzzy_knn_k29":0.5195045},"geometry":{"type":"Polygon","coordinates":[[[-72.7675557,-7.5023848],[-72.7594795,-7.502454],[-72.7594331,-7.4970549],[-72.7675092,-7.4969857],[-72.7675557,-7.5023848]]]}},{"type":"Feature","id":"AC-Y800-X198","properties":{"id":"AC-Y800-X198","grid_x":198,"grid_y":800,"centroid":[-72.7554181,-7.499789],"aggregation":"none","score_gradboost":0.8049628,"score_random_forest":0.7170263,"score_logistic_regression":0.6326486,"score_fuzzy_knn_k29":0.3811972},"geometry":{"type":"Polygon","coordinates":[[[-72.7594795,-7.502454],[-72.7514031,-7.5025231],[-72.7513568,-7.4971239],[-72.7594331,-7.4970549],[-72.7594795,-7.502454]]]}},{"type":"Feature","id":"AC-Y800-X199","properties":{"id":"AC-Y800-X199","grid_x":199,"grid_y":800,"centroid":[-72.7473418,-7.499858],"aggregation":"none","score_gradboost":0.8920565,"score_random_forest":0.8247413,"score_logistic_regression":0.6493742,"score_fuzzy_knn_k29":0.4628991},"geometry":{"type":"Polygon","coordinates":[[[-72.7514031,-7.5025231],[-72.7433267,-7.502592],[-72.7432805,-7.4971928],[-72.7513568,-7.4971239],[-72.7514031,-7.5025231]]]}},{"type":"Feature","id":"AC-Y800-X200","properties":{"id":"AC-Y800-X200","grid_x":200,"grid_y":800,"centroid":[-72.7392654,-7.4999268],"aggregation":"none","score_gradboost":0.9599144,"score_random_forest":0.7863984,"score_logistic_regression":0.6518758,"score_fuzzy_knn_k29":0.5512887},"geometry":{"type":"Polygon","coordinates":[[[-72.7433267,-7.502592],[-72.7352502,-7.5026608],[-72.7352041,-7.4972616],[-72.7432805,-7.4971928],[-72.7433267,-7.502592]]]}},{"type":"Feature","id":"AC-Y801-X192","properties":{"id":"AC-Y801-X192","grid_x":192,"grid_y":801,"centroid":[-72.8038275,-7.4939732],"aggregation":"none","score_gradboost":0.8911243,"score_random_forest":0.8820749,"score_logistic_regression":0.6901795,"score_fuzzy_knn_k29":0.7665847},"geometry":{"type":"Polygon","coordinates":[[[-72.8078888,-7.4966376],[-72.7998131,-7.4967075],[-72.7997662,-7.4913087],[-72.8078419,-7.4912388],[-72.8078888,-7.4966376]]]}},{"type":"Feature","id":"AC-Y801-X193","properties":{"id":"AC-Y801-X193","grid_x":193,"grid_y":801,"centroid":[-72.7957517,-7.494043],"aggregation":"none","score_gradboost":0.8583974,"score_random_forest":0.7718169,"score_logistic_regression":0.6221859,"score_fuzzy_knn_k29":0.7381606},"geometry":{"type":"Polygon","coordinates":[[[-72.7998131,-7.4967075],[-72.7917372,-7.4967773],[-72.7916904,-7.4913784],[-72.7997662,-7.4913087],[-72.7998131,-7.4967075]]]}},{"type":"Feature","id":"AC-Y801-X194","properties":{"id":"AC-Y801-X194","grid_x":194,"grid_y":801,"centroid":[-72.7876759,-7.4941127],"aggregation":"none","score_gradboost":0.8503143,"score_random_forest":0.8970723,"score_logistic_regression":0.7126862,"score_fuzzy_knn_k29":0.7809982},"geometry":{"type":"Polygon","coordinates":[[[-72.7917372,-7.4967773],[-72.7836613,-7.4968469],[-72.7836146,-7.491448],[-72.7916904,-7.4913784],[-72.7917372,-7.4967773]]]}},{"type":"Feature","id":"AC-Y801-X195","properties":{"id":"AC-Y801-X195","grid_x":195,"grid_y":801,"centroid":[-72.7796,-7.4941822],"aggregation":"none","score_gradboost":0.9405235,"score_random_forest":0.8557263,"score_logistic_regression":0.6490773,"score_fuzzy_knn_k29":0.5140173},"geometry":{"type":"Polygon","coordinates":[[[-72.7836613,-7.4968469],[-72.7755853,-7.4969164],[-72.7755387,-7.4915174],[-72.7836146,-7.491448],[-72.7836613,-7.4968469]]]}},{"type":"Feature","id":"AC-Y801-X196","properties":{"id":"AC-Y801-X196","grid_x":196,"grid_y":801,"centroid":[-72.771524,-7.4942516],"aggregation":"none","score_gradboost":0.8522967,"score_random_forest":0.8032256,"score_logistic_regression":0.8087129,"score_fuzzy_knn_k29":0.8197287},"geometry":{"type":"Polygon","coordinates":[[[-72.7755853,-7.4969164],[-72.7675092,-7.4969857],[-72.7674627,-7.4915867],[-72.7755387,-7.4915174],[-72.7755853,-7.4969164]]]}},{"type":"Feature","id":"AC-Y801-X197","properties":{"id":"AC-Y801-X197","grid_x":197,"grid_y":801,"centroid":[-72.7634479,-7.4943208],"aggregation":"none","score_gradboost":0.7847458,"score_random_forest":0.6604391,"score_logistic_regression":0.6237303,"score_fuzzy_knn_k29":0.3242984},"geometry":{"type":"Polygon","coordinates":[[[-72.7675092,-7.4969857],[-72.7594331,-7.4970549],[-72.7593867,-7.4916558],[-72.7674627,-7.4915867],[-72.7675092,-7.4969857]]]}},{"type":"Feature","id":"AC-Y801-X198","properties":{"id":"AC-Y801-X198","grid_x":198,"grid_y":801,"centroid":[-72.7553718,-7.4943899],"aggregation":"none","score_gradboost":0.9607423,"score_random_forest":0.9621278,"score_logistic_regression":0.8427711,"score_fuzzy_knn_k29":0.884468},"geometry":{"type":"Polygon","coordinates":[[[-72.7594331,-7.4970549],[-72.7513568,-7.4971239],[-72.7513106,-7.4917248],[-72.7593867,-7.4916558],[-72.7594331,-7.4970549]]]}},{"type":"Feature","id":"AC-Y801-X199","properties":{"id":"AC-Y801-X199","grid_x":199,"grid_y":801,"centroid":[-72.7472956,-7.4944588],"aggregation":"none","score_gradboost":0.9414632,"score_random_forest":0.9461325,"score_logistic_regression":0.8144841,"score_fuzzy_knn_k29":0.8966181},"geometry":{"type":"Polygon","coordinates":[[[-72.7513568,-7.4971239],[-72.7432805,-7.4971928],[-72.7432343,-7.4917936],[-72.7513106,-7.4917248],[-72.7513568,-7.4971239]]]}},{"type":"Feature","id":"AC-Y802-X192","properties":{"id":"AC-Y802-X192","grid_x":192,"grid_y":802,"centroid":[-72.8037806,-7.4885744],"aggregation":"none","score_gradboost":0.9379214,"score_random_forest":0.8393826,"score_logistic_regression":0.6253035,"score_fuzzy_knn_k29":0.7540897},"geometry":{"type":"Polygon","coordinates":[[[-72.8078419,-7.4912388],[-72.7997662,-7.4913087],[-72.7997194,-7.4859099],[-72.8077949,-7.48584],[-72.8078419,-7.4912388]]]}},{"type":"Feature","id":"AC-Y802-X193","properties":{"id":"AC-Y802-X193","grid_x":193,"grid_y":802,"centroid":[-72.7957049,-7.4886441],"aggregation":"none","score_gradboost":0.8055465,"score_random_forest":0.7398716,"score_logistic_regression":0.6172907,"score_fuzzy_knn_k29":0.4148901},"geometry":{"type":"Polygon","coordinates":[[[-72.7997662,-7.4913087],[-72.7916904,-7.4913784],[-72.7916437,-7.4859795],[-72.7997194,-7.4859099],[-72.7997662,-7.4913087]]]}},{"type":"Feature","id":"AC-Y802-X194","properties":{"id":"AC-Y802-X194","grid_x":194,"grid_y":802,"centroid":[-72.7876292,-7.4887138],"aggregation":"none","score_gradboost":0.9681251,"score_random_forest":0.9794205,"score_logistic_regression":0.768779,"score_fuzzy_knn_k29":0.8517089},"geometry":{"type":"Polygon","coordinates":[[[-72.7916904,-7.4913784],[-72.7836146,-7.491448],[-72.783568,-7.4860491],[-72.7916437,-7.4859795],[-72.7916904,-7.4913784]]]}},{"type":"Feature","id":"AC-Y802-X195","properties":{"id":"AC-Y802-X195","grid_x":195,"grid_y":802,"centroid":[-72.7795534,-7.4887832],"aggregation":"none","score_gradboost":0.9613084,"score_random_forest":0.9449541,"score_logistic_regression":0.7462918,"score_fuzzy_knn_k29":0.8764259},"geometry":{"type":"Polygon","coordinates":[[[-72.7836146,-7.491448],[-72.7755387,-7.4915174],[-72.7754922,-7.4861184],[-72.783568,-7.4860491],[-72.7836146,-7.491448]]]}},{"type":"Feature","id":"AC-Y802-X196","properties":{"id":"AC-Y802-X196","grid_x":196,"grid_y":802,"centroid":[-72.7714775,-7.4888526],"aggregation":"none","score_gradboost":0.8326642,"score_random_forest":0.8376368,"score_logistic_regression":0.8177109,"score_fuzzy_knn_k29":0.8944871},"geometry":{"type":"Polygon","coordinates":[[[-72.7755387,-7.4915174],[-72.7674627,-7.4915867],[-72.7674163,-7.4861877],[-72.7754922,-7.4861184],[-72.7755387,-7.4915174]]]}},{"type":"Feature","id":"AC-Y802-X197","properties":{"id":"AC-Y802-X197","grid_x":197,"grid_y":802,"centroid":[-72.7634015,-7.4889217],"aggregation":"none","score_gradboost":0.9382997,"score_random_forest":0.92372,"score_logistic_regression":0.7973154,"score_fuzzy_knn_k29":0.9291215},"geometry":{"type":"Polygon","coordinates":[[[-72.7674627,-7.4915867],[-72.7593867,-7.4916558],[-72.7593404,-7.4862567],[-72.7674163,-7.4861877],[-72.7674627,-7.4915867]]]}},{"type":"Feature","id":"AC-Y803-X193","properties":{"id":"AC-Y803-X193","grid_x":193,"grid_y":803,"centroid":[-72.7956582,-7.4832453],"aggregation":"none","score_gradboost":0.8636199,"score_random_forest":0.7707662,"score_logistic_regression":0.6311418,"score_fuzzy_knn_k29":0.5248574},"geometry":{"type":"Polygon","coordinates":[[[-72.7997194,-7.4859099],[-72.7916437,-7.4859795],[-72.791597,-7.4805806],[-72.7996726,-7.480511],[-72.7997194,-7.4859099]]]}},{"type":"Feature","id":"AC-Y803-X194","properties":{"id":"AC-Y803-X194","grid_x":194,"grid_y":803,"centroid":[-72.7875825,-7.4833149],"aggregation":"none","score_gradboost":0.9284025,"score_random_forest":0.8860731,"score_logistic_regression":0.6679634,"score_fuzzy_knn_k29":0.6078148},"geometry":{"type":"Polygon","coordinates":[[[-72.7916437,-7.4859795],[-72.783568,-7.4860491],[-72.7835214,-7.4806501],[-72.791597,-7.4805806],[-72.7916437,-7.4859795]]]}},{"type":"Feature","id":"AC-Y803-X195","properties":{"id":"AC-Y803-X195","grid_x":195,"grid_y":803,"centroid":[-72.7795068,-7.4833843],"aggregation":"none","score_gradboost":0.9227662,"score_random_forest":0.9125439,"score_logistic_regression":0.8320089,"score_fuzzy_knn_k29":0.9190701},"geometry":{"type":"Polygon","coordinates":[[[-72.783568,-7.4860491],[-72.7754922,-7.4861184],[-72.7754457,-7.4807194],[-72.7835214,-7.4806501],[-72.783568,-7.4860491]]]}},{"type":"Feature","id":"AC-Y804-X193","properties":{"id":"AC-Y804-X193","grid_x":193,"grid_y":804,"centroid":[-72.7956115,-7.4778464],"aggregation":"none","score_gradboost":0.8574539,"score_random_forest":0.7595866,"score_logistic_regression":0.6315262,"score_fuzzy_knn_k29":0.44646},"geometry":{"type":"Polygon","coordinates":[[[-72.7996726,-7.480511],[-72.791597,-7.4805806],[-72.7915504,-7.4751818],[-72.7996258,-7.4751122],[-72.7996726,-7.480511]]]}}]}