{"type":"FeatureCollection","features":[{"type":"Feature","id":"AC-Y544-X680","properties":{"id":"AC-Y544-X680","grid_x":680,"grid_y":544,"centroid":[-68.8563353,-8.90094],"aggregation":"none","score_gradboost":0.2466682,"score_random_forest":0.3447675,"score_logistic_regression":0.5337256,"score_fuzzy_knn_k29":0.3606391},"geometry":{"type":"Polygon","coordinates":[[[-68.8603954,-8.9036467],[-68.8522732,-8.9036436],[-68.8522753,-8.8982332],[-68.8603974,-8.8982363],[-68.8603954,-8.9036467]]]}},{"type":"Feature","id":"AC-Y544-X681","properties":{"id":"AC-Y544-X681","grid_x":681,"grid_y":544,"centroid":[-68.8482132,-8.9009367],"aggregation":"none","score_gradboost":0.4507166,"score_random_forest":0.5152662,"score_logistic_regression":0.5496603,"score_fuzzy_knn_k29":0.4489916},"geometry":{"type":"Polygon","coordinates":[[[-68.8522732,-8.9036436],[-68.844151,-8.9036403],[-68.8441533,-8.8982299],[-68.8522753,-8.8982332],[-68.8522732,-8.9036436]]]}},{"type":"Feature","id":"AC-Y544-X682","properties":{"id":"AC-Y544-X682","grid_x":682,"grid_y":544,"centroid":[-68.840091,-8.9009333],"aggregation":"none","score_gradboost":0.4507166,"score_random_forest":0.5246264,"score_logistic_regression":0.5516436,"score_fuzzy_knn_k29":0.5055592},"geometry":{"type":"Polygon","coordinates":[[[-68.844151,-8.9036403],[-68.8360288,-8.9036368],[-68.8360312,-8.8982264],[-68.8441533,-8.8982299],[-68.844151,-8.9036403]]]}},{"type":"Feature","id":"AC-Y544-X683","properties":{"id":"AC-Y544-X683","grid_x":683,"grid_y":544,"centroid":[-68.8319689,-8.9009298],"aggregation":"none","score_gradboost":0.4497352,"score_random_forest":0.534369,"score_logistic_regression":0.5529178,"score_fuzzy_knn_k29":0.4925403},"geometry":{"type":"Polygon","coordinates":[[[-68.8360288,-8.9036368],[-68.8279066,-8.9036331],[-68.8279091,-8.8982227],[-68.8360312,-8.8982264],[-68.8360288,-8.9036368]]]}},{"type":"Feature","id":"AC-Y545-X679","properties":{"id":"AC-Y545-X679","grid_x":679,"grid_y":545,"centroid":[-68.8644594,-8.8955326],"aggregation":"none","score_gradboost":0.2937692,"score_random_forest":0.3154673,"score_logistic_regression":0.5222173,"score_fuzzy_knn_k29":0.3963618},"geometry":{"type":"Polygon","coordinates":[[[-68.8685195,-8.8982392],[-68.8603974,-8.8982363],[-68.8603995,-8.8928259],[-68.8685214,-8.8928288],[-68.8685195,-8.8982392]]]}},{"type":"Feature","id":"AC-Y545-X680","properties":{"id":"AC-Y545-X680","grid_x":680,"grid_y":545,"centroid":[-68.8563374,-8.8955295],"aggregation":"none","score_gradboost":0.2929473,"score_random_forest":0.3390756,"score_logistic_regression":0.5131681,"score_fuzzy_knn_k29":0.3287859},"geometry":{"type":"Polygon","coordinates":[[[-68.8603974,-8.8982363],[-68.8522753,-8.8982332],[-68.8522775,-8.8928227],[-68.8603995,-8.8928259],[-68.8603974,-8.8982363]]]}},{"type":"Feature","id":"AC-Y545-X681","properties":{"id":"AC-Y545-X681","grid_x":681,"grid_y":545,"centroid":[-68.8482154,-8.8955263],"aggregation":"none","score_gradboost":0.4367687,"score_random_forest":0.5438473,"score_logistic_regression":0.5627454,"score_fuzzy_knn_k29":0.4370241},"geometry":{"type":"Polygon","coordinates":[[[-68.8522753,-8.8982332],[-68.8441533,-8.8982299],[-68.8441555,-8.8928194],[-68.8522775,-8.8928227],[-68.8522753,-8.8982332]]]}},{"type":"Feature","id":"AC-Y545-X682","properties":{"id":"AC-Y545-X682","grid_x":682,"grid_y":545,"centroid":[-68.8400934,-8.8955229],"aggregation":"none","score_gradboost":0.2931954,"score_random_forest":0.3753129,"score_logistic_regression":0.5214074,"score_fuzzy_knn_k29":0.3166878},"geometry":{"type":"Polygon","coordinates":[[[-68.8441533,-8.8982299],[-68.8360312,-8.8982264],[-68.8360336,-8.892816],[-68.8441555,-8.8928194],[-68.8441533,-8.8982299]]]}},{"type":"Feature","id":"AC-Y545-X683","properties":{"id":"AC-Y545-X683","grid_x":683,"grid_y":545,"centroid":[-68.8319714,-8.8955194],"aggregation":"none","score_gradboost":0.3429317,"score_random_forest":0.4174481,"score_logistic_regression":0.5710287,"score_fuzzy_knn_k29":0.4413779},"geometry":{"type":"Polygon","coordinates":[[[-68.8360312,-8.8982264],[-68.8279091,-8.8982227],[-68.8279117,-8.8928123],[-68.8360336,-8.892816],[-68.8360312,-8.8982264]]]}},{"type":"Feature","id":"AC-Y546-X678","properties":{"id":"AC-Y546-X678","grid_x":678,"grid_y":546,"centroid":[-68.8725833,-8.890125],"aggregation":"none","score_gradboost":0.3836838,"score_random_forest":0.4217863,"score_logistic_regression":0.6505824,"score_fuzzy_knn_k29":0.62222},"geometry":{"type":"Polygon","coordinates":[[[-68.8766434,-8.8928316],[-68.8685214,-8.8928288],[-68.8685233,-8.8874184],[-68.8766452,-8.8874212],[-68.8766434,-8.8928316]]]}},{"type":"Feature","id":"AC-Y546-X679","properties":{"id":"AC-Y546-X679","grid_x":679,"grid_y":546,"centroid":[-68.8644614,-8.8901222],"aggregation":"none","score_gradboost":0.2931954,"score_random_forest":0.3661257,"score_logistic_regression":0.521252,"score_fuzzy_knn_k29":0.3367097},"geometry":{"type":"Polygon","coordinates":[[[-68.8685214,-8.8928288],[-68.8603995,-8.8928259],[-68.8604015,-8.8874155],[-68.8685233,-8.8874184],[-68.8685214,-8.8928288]]]}},{"type":"Feature","id":"AC-Y546-X680","properties":{"id":"AC-Y546-X680","grid_x":680,"grid_y":546,"centroid":[-68.8563395,-8.8901191],"aggregation":"none","score_gradboost":0.3774741,"score_random_forest":0.4138536,"score_logistic_regression":0.5264927,"score_fuzzy_knn_k29":0.2955673},"geometry":{"type":"Polygon","coordinates":[[[-68.8603995,-8.8928259],[-68.8522775,-8.8928227],[-68.8522797,-8.8874123],[-68.8604015,-8.8874155],[-68.8603995,-8.8928259]]]}},{"type":"Feature","id":"AC-Y546-X681","properties":{"id":"AC-Y546-X681","grid_x":681,"grid_y":546,"centroid":[-68.8482176,-8.8901159],"aggregation":"none","score_gradboost":0.3561036,"score_random_forest":0.4059674,"score_logistic_regression":0.5519205,"score_fuzzy_knn_k29":0.3154907},"geometry":{"type":"Polygon","coordinates":[[[-68.8522775,-8.8928227],[-68.8441555,-8.8928194],[-68.8441578,-8.887409],[-68.8522797,-8.8874123],[-68.8522775,-8.8928227]]]}},{"type":"Feature","id":"AC-Y546-X682","properties":{"id":"AC-Y546-X682","grid_x":682,"grid_y":546,"centroid":[-68.8400957,-8.8901125],"aggregation":"none","score_gradboost":0.3315596,"score_random_forest":0.35437,"score_logistic_regression":0.5823628,"score_fuzzy_knn_k29":0.445173},"geometry":{"type":"Polygon","coordinates":[[[-68.8441555,-8.8928194],[-68.8360336,-8.892816],[-68.836036,-8.8874055],[-68.8441578,-8.887409],[-68.8441555,-8.8928194]]]}},{"type":"Feature","id":"AC-Y547-X679","properties":{"id":"AC-Y547-X679","grid_x":679,"grid_y":547,"centroid":[-68.8644634,-8.8847118],"aggregation":"none","score_gradboost":0.231029,"score_random_forest":0.3840102,"score_logistic_regression":0.5731349,"score_fuzzy_knn_k29":0.4251248},"geometry":{"type":"Polygon","coordinates":[[[-68.8685233,-8.8874184],[-68.8604015,-8.8874155],[-68.8604035,-8.882005],[-68.8685253,-8.882008],[-68.8685233,-8.8874184]]]}},{"type":"Feature","id":"AC-Y547-X680","properties":{"id":"AC-Y547-X680","grid_x":680,"grid_y":547,"centroid":[-68.8563416,-8.8847087],"aggregation":"none","score_gradboost":0.3170565,"score_random_forest":0.2812933,"score_logistic_regression":0.5494269,"score_fuzzy_knn_k29":0.3151965},"geometry":{"type":"Polygon","coordinates":[[[-68.8604015,-8.8874155],[-68.8522797,-8.8874123],[-68.8522818,-8.8820019],[-68.8604035,-8.882005],[-68.8604015,-8.8874155]]]}},{"type":"Feature","id":"AC-Y547-X681","properties":{"id":"AC-Y547-X681","grid_x":681,"grid_y":547,"centroid":[-68.8482199,-8.8847055],"aggregation":"none","score_gradboost":0.2305725,"score_random_forest":0.1859213,"score_logistic_regression":0.5650231,"score_fuzzy_knn_k29":0.3309174},"geometry":{"type":"Polygon","coordinates":[[[-68.8522797,-8.8874123],[-68.8441578,-8.887409],[-68.8441601,-8.8819986],[-68.8522818,-8.8820019],[-68.8522797,-8.8874123]]]}},{"type":"Feature","id":"AC-Y549-X679","properties":{"id":"AC-Y549-X679","grid_x":679,"grid_y":549,"centroid":[-68.8644674,-8.8738909],"aggregation":"none","score_gradboost":0.0950811,"score_random_forest":0.072558,"score_logistic_regression":0.5119943,"score_fuzzy_knn_k29":0.2229182},"geometry":{"type":"Polygon","coordinates":[[[-68.8685272,-8.8765976],[-68.8604056,-8.8765946],[-68.8604076,-8.8711842],[-68.8685291,-8.8711872],[-68.8685272,-8.8765976]]]}},{"type":"Feature","id":"AC-Y549-X680","properties":{"id":"AC-Y549-X680","grid_x":680,"grid_y":549,"centroid":[-68.8563458,-8.8738879],"aggregation":"none","score_gradboost":0.1686615,"score_random_forest":0.1320597,"score_logistic_regression":0.5357769,"score_fuzzy_knn_k29":0.2073365},"geometry":{"type":"Polygon","coordinates":[[[-68.8604056,-8.8765946],[-68.852284,-8.8765915],[-68.8522862,-8.8711811],[-68.8604076,-8.8711842],[-68.8604056,-8.8765946]]]}},{"type":"Feature","id":"AC-Y550-X679","properties":{"id":"AC-Y550-X679","grid_x":679,"grid_y":550,"centroid":[-68.8644694,-8.8684805],"aggregation":"none","score_gradboost":0.2149742,"score_random_forest":0.0871885,"score_logistic_regression":0.5642307,"score_fuzzy_knn_k29":0.2330644},"geometry":{"type":"Polygon","coordinates":[[[-68.8685291,-8.8711872],[-68.8604076,-8.8711842],[-68.8604097,-8.8657738],[-68.868531,-8.8657767],[-68.8685291,-8.8711872]]]}},{"type":"Feature","id":"AC-Y544-X671","properties":{"id":"AC-Y544-X671","grid_x":671,"grid_y":544,"centroid":[-68.9294346,-8.900961],"aggregation":"none","score_gradboost":0.1795881,"score_random_forest":0.2248304,"score_logistic_regression":0.6058584,"score_fuzzy_knn_k29":0.43556},"geometry":{"type":"Polygon","coordinates":[[[-68.9334952,-8.9036669],[-68.925373,-8.9036654],[-68.9253741,-8.898255],[-68.9334962,-8.8982565],[-68.9334952,-8.9036669]]]}},{"type":"Feature","id":"AC-Y544-X672","properties":{"id":"AC-Y544-X672","grid_x":672,"grid_y":544,"centroid":[-68.9213125,-8.9009594],"aggregation":"none","score_gradboost":0.103391,"score_random_forest":0.1346157,"score_logistic_regression":0.5091863,"score_fuzzy_knn_k29":0.2538344},"geometry":{"type":"Polygon","coordinates":[[[-68.925373,-8.9036654],[-68.9172508,-8.9036637],[-68.917252,-8.8982533],[-68.9253741,-8.898255],[-68.925373,-8.9036654]]]}},{"type":"Feature","id":"AC-Y544-X673","properties":{"id":"AC-Y544-X673","grid_x":673,"grid_y":544,"centroid":[-68.9131903,-8.9009575],"aggregation":"none","score_gradboost":0.0753754,"score_random_forest":0.0783637,"score_logistic_regression":0.5498579,"score_fuzzy_knn_k29":0.3589111},"geometry":{"type":"Polygon","coordinates":[[[-68.9172508,-8.9036637],[-68.9091286,-8.9036618],[-68.9091299,-8.8982514],[-68.917252,-8.8982533],[-68.9172508,-8.9036637]]]}},{"type":"Feature","id":"AC-Y544-X674","properties":{"id":"AC-Y544-X674","grid_x":674,"grid_y":544,"centroid":[-68.9050682,-8.9009556],"aggregation":"none","score_gradboost":0.0932384,"score_random_forest":0.0773698,"score_logistic_regression":0.537794,"score_fuzzy_knn_k29":0.359013},"geometry":{"type":"Polygon","coordinates":[[[-68.9091286,-8.9036618],[-68.9010064,-8.9036597],[-68.9010078,-8.8982493],[-68.9091299,-8.8982514],[-68.9091286,-8.9036618]]]}},{"type":"Feature","id":"AC-Y544-X675","properties":{"id":"AC-Y544-X675","grid_x":675,"grid_y":544,"centroid":[-68.896946,-8.9009534],"aggregation":"none","score_gradboost":0.1747636,"score_random_forest":0.1896184,"score_logistic_regression":0.53392,"score_fuzzy_knn_k29":0.4319842},"geometry":{"type":"Polygon","coordinates":[[[-68.9010064,-8.9036597],[-68.8928842,-8.9036575],[-68.8928857,-8.8982471],[-68.9010078,-8.8982493],[-68.9010064,-8.9036597]]]}},{"type":"Feature","id":"AC-Y544-X676","properties":{"id":"AC-Y544-X676","grid_x":676,"grid_y":544,"centroid":[-68.8888239,-8.9009511],"aggregation":"none","score_gradboost":0.2932008,"score_random_forest":0.2424095,"score_logistic_regression":0.6264784,"score_fuzzy_knn_k29":0.6629002},"geometry":{"type":"Polygon","coordinates":[[[-68.8928842,-8.9036575],[-68.884762,-8.903655],[-68.8847636,-8.8982446],[-68.8928857,-8.8982471],[-68.8928842,-8.9036575]]]}},{"type":"Feature","id":"AC-Y544-X677","properties":{"id":"AC-Y544-X677","grid_x":677,"grid_y":544,"centroid":[-68.8807017,-8.9009486],"aggregation":"none","score_gradboost":0.2721958,"score_random_forest":0.2424524,"score_logistic_regression":0.6390516,"score_fuzzy_knn_k29":0.7147541},"geometry":{"type":"Polygon","coordinates":[[[-68.884762,-8.903655],[-68.8766397,-8.9036524],[-68.8766416,-8.898242],[-68.8847636,-8.8982446],[-68.884762,-8.903655]]]}},{"type":"Feature","id":"AC-Y544-X678","properties":{"id":"AC-Y544-X678","grid_x":678,"grid_y":544,"centroid":[-68.8725796,-8.9009459],"aggregation":"none","score_gradboost":0.2930766,"score_random_forest":0.1100861,"score_logistic_regression":0.5376601,"score_fuzzy_knn_k29":0.4264377},"geometry":{"type":"Polygon","coordinates":[[[-68.8766397,-8.9036524],[-68.8685175,-8.9036497],[-68.8685195,-8.8982392],[-68.8766416,-8.898242],[-68.8766397,-8.9036524]]]}},{"type":"Feature","id":"AC-Y544-X679","properties":{"id":"AC-Y544-X679","grid_x":679,"grid_y":544,"centroid":[-68.8644574,-8.900943],"aggregation":"none","score_gradboost":0.2943457,"score_random_forest":0.3831774,"score_logistic_regression":0.5473253,"score_fuzzy_knn_k29":0.0866083},"geometry":{"type":"Polygon","coordinates":[[[-68.8685175,-8.9036497],[-68.8603954,-8.9036467],[-68.8603974,-8.8982363],[-68.8685195,-8.8982392],[-68.8685175,-8.9036497]]]}},{"type":"Feature","id":"AC-Y544-X684","properties":{"id":"AC-Y544-X684","grid_x":684,"grid_y":544,"centroid":[-68.8238468,-8.900926],"aggregation":"none","score_gradboost":0.4497352,"score_random_forest":0.523097,"score_logistic_regression":0.5390083,"score_fuzzy_knn_k29":0.4214352},"geometry":{"type":"Polygon","coordinates":[[[-68.8279066,-8.9036331],[-68.8197844,-8.9036293],[-68.8197871,-8.8982189],[-68.8279091,-8.8982227],[-68.8279066,-8.9036331]]]}},{"type":"Feature","id":"AC-Y545-X669","properties":{"id":"AC-Y545-X669","grid_x":669,"grid_y":545,"centroid":[-68.9456797,-8.8955533],"aggregation":"none","score_gradboost":0.0968526,"score_random_forest":0.1510637,"score_logistic_regression":0.5441513,"score_fuzzy_knn_k29":0.3140108},"geometry":{"type":"Polygon","coordinates":[[[-68.9497404,-8.8982591],[-68.9416183,-8.8982579],[-68.9416191,-8.8928475],[-68.9497411,-8.8928486],[-68.9497404,-8.8982591]]]}},{"type":"Feature","id":"AC-Y545-X670","properties":{"id":"AC-Y545-X670","grid_x":670,"grid_y":545,"centroid":[-68.9375577,-8.895552],"aggregation":"none","score_gradboost":0.1506966,"score_random_forest":0.1427677,"score_logistic_regression":0.5739748,"score_fuzzy_knn_k29":0.3865145},"geometry":{"type":"Polygon","coordinates":[[[-68.9416183,-8.8982579],[-68.9334962,-8.8982565],[-68.9334972,-8.8928461],[-68.9416191,-8.8928475],[-68.9416183,-8.8982579]]]}},{"type":"Feature","id":"AC-Y545-X671","properties":{"id":"AC-Y545-X671","grid_x":671,"grid_y":545,"centroid":[-68.9294357,-8.8955506],"aggregation":"none","score_gradboost":0.2407566,"score_random_forest":0.2338453,"score_logistic_regression":0.6035804,"score_fuzzy_knn_k29":0.493466},"geometry":{"type":"Polygon","coordinates":[[[-68.9334962,-8.8982565],[-68.9253741,-8.898255],[-68.9253752,-8.8928446],[-68.9334972,-8.8928461],[-68.9334962,-8.8982565]]]}},{"type":"Feature","id":"AC-Y545-X672","properties":{"id":"AC-Y545-X672","grid_x":672,"grid_y":545,"centroid":[-68.9213136,-8.8955489],"aggregation":"none","score_gradboost":0.0672464,"score_random_forest":0.0982841,"score_logistic_regression":0.5290444,"score_fuzzy_knn_k29":0.308483},"geometry":{"type":"Polygon","coordinates":[[[-68.9253741,-8.898255],[-68.917252,-8.8982533],[-68.9172532,-8.8928428],[-68.9253752,-8.8928446],[-68.9253741,-8.898255]]]}},{"type":"Feature","id":"AC-Y545-X673","properties":{"id":"AC-Y545-X673","grid_x":673,"grid_y":545,"centroid":[-68.9131916,-8.8955471],"aggregation":"none","score_gradboost":0.0923907,"score_random_forest":0.1026422,"score_logistic_regression":0.492099,"score_fuzzy_knn_k29":0.3074635},"geometry":{"type":"Polygon","coordinates":[[[-68.917252,-8.8982533],[-68.9091299,-8.8982514],[-68.9091312,-8.8928409],[-68.9172532,-8.8928428],[-68.917252,-8.8982533]]]}},{"type":"Feature","id":"AC-Y545-X674","properties":{"id":"AC-Y545-X674","grid_x":674,"grid_y":545,"centroid":[-68.9050696,-8.8955451],"aggregation":"none","score_gradboost":0.0994693,"score_random_forest":0.0858307,"score_logistic_regression":0.5088014,"score_fuzzy_knn_k29":0.3146979},"geometry":{"type":"Polygon","coordinates":[[[-68.9091299,-8.8982514],[-68.9010078,-8.8982493],[-68.9010093,-8.8928389],[-68.9091312,-8.8928409],[-68.9091299,-8.8982514]]]}},{"type":"Feature","id":"AC-Y545-X675","properties":{"id":"AC-Y545-X675","grid_x":675,"grid_y":545,"centroid":[-68.8969475,-8.895543],"aggregation":"none","score_gradboost":0.1614772,"score_random_forest":0.2115284,"score_logistic_regression":0.5433406,"score_fuzzy_knn_k29":0.4134808},"geometry":{"type":"Polygon","coordinates":[[[-68.9010078,-8.8982493],[-68.8928857,-8.8982471],[-68.8928873,-8.8928366],[-68.9010093,-8.8928389],[-68.9010078,-8.8982493]]]}},{"type":"Feature","id":"AC-Y545-X676","properties":{"id":"AC-Y545-X676","grid_x":676,"grid_y":545,"centroid":[-68.8888255,-8.8955407],"aggregation":"none","score_gradboost":0.1712335,"score_random_forest":0.3081308,"score_logistic_regression":0.5607052,"score_fuzzy_knn_k29":0.3929881},"geometry":{"type":"Polygon","coordinates":[[[-68.8928857,-8.8982471],[-68.8847636,-8.8982446],[-68.8847653,-8.8928342],[-68.8928873,-8.8928366],[-68.8928857,-8.8982471]]]}},{"type":"Feature","id":"AC-Y545-X677","properties":{"id":"AC-Y545-X677","grid_x":677,"grid_y":545,"centroid":[-68.8807035,-8.8955381],"aggregation":"none","score_gradboost":0.3901993,"score_random_forest":0.4447782,"score_logistic_regression":0.6428867,"score_fuzzy_knn_k29":0.7565412},"geometry":{"type":"Polygon","coordinates":[[[-68.8847636,-8.8982446],[-68.8766416,-8.898242],[-68.8766434,-8.8928316],[-68.8847653,-8.8928342],[-68.8847636,-8.8982446]]]}},{"type":"Feature","id":"AC-Y545-X678","properties":{"id":"AC-Y545-X678","grid_x":678,"grid_y":545,"centroid":[-68.8725815,-8.8955355],"aggregation":"none","score_gradboost":0.438731,"score_random_forest":0.5085447,"score_logistic_regression":0.5892195,"score_fuzzy_knn_k29":0.6528539},"geometry":{"type":"Polygon","coordinates":[[[-68.8766416,-8.898242],[-68.8685195,-8.8982392],[-68.8685214,-8.8928288],[-68.8766434,-8.8928316],[-68.8766416,-8.898242]]]}},{"type":"Feature","id":"AC-Y546-X669","properties":{"id":"AC-Y546-X669","grid_x":669,"grid_y":546,"centroid":[-68.9456805,-8.8901429],"aggregation":"none","score_gradboost":0.2020672,"score_random_forest":0.200234,"score_logistic_regression":0.5952974,"score_fuzzy_knn_k29":0.2447309},"geometry":{"type":"Polygon","coordinates":[[[-68.9497411,-8.8928486],[-68.9416191,-8.8928475],[-68.94162,-8.887437],[-68.9497419,-8.8874382],[-68.9497411,-8.8928486]]]}},{"type":"Feature","id":"AC-Y546-X670","properties":{"id":"AC-Y546-X670","grid_x":670,"grid_y":546,"centroid":[-68.9375586,-8.8901416],"aggregation":"none","score_gradboost":0.230068,"score_random_forest":0.2117903,"score_logistic_regression":0.6040399,"score_fuzzy_knn_k29":0.4033495},"geometry":{"type":"Polygon","coordinates":[[[-68.9416191,-8.8928475],[-68.9334972,-8.8928461],[-68.9334981,-8.8874357],[-68.94162,-8.887437],[-68.9416191,-8.8928475]]]}},{"type":"Feature","id":"AC-Y546-X671","properties":{"id":"AC-Y546-X671","grid_x":671,"grid_y":546,"centroid":[-68.9294367,-8.8901401],"aggregation":"none","score_gradboost":0.3306898,"score_random_forest":0.2497475,"score_logistic_regression":0.6042896,"score_fuzzy_knn_k29":0.4366715},"geometry":{"type":"Polygon","coordinates":[[[-68.9334972,-8.8928461],[-68.9253752,-8.8928446],[-68.9253763,-8.8874341],[-68.9334981,-8.8874357],[-68.9334972,-8.8928461]]]}},{"type":"Feature","id":"AC-Y546-X672","properties":{"id":"AC-Y546-X672","grid_x":672,"grid_y":546,"centroid":[-68.9213148,-8.8901385],"aggregation":"none","score_gradboost":0.2829338,"score_random_forest":0.3678134,"score_logistic_regression":0.5822718,"score_fuzzy_knn_k29":0.1598279},"geometry":{"type":"Polygon","coordinates":[[[-68.9253752,-8.8928446],[-68.9172532,-8.8928428],[-68.9172544,-8.8874324],[-68.9253763,-8.8874341],[-68.9253752,-8.8928446]]]}},{"type":"Feature","id":"AC-Y546-X673","properties":{"id":"AC-Y546-X673","grid_x":673,"grid_y":546,"centroid":[-68.9131929,-8.8901367],"aggregation":"none","score_gradboost":0.1477865,"score_random_forest":0.2836608,"score_logistic_regression":0.5360416,"score_fuzzy_knn_k29":0.3958343},"geometry":{"type":"Polygon","coordinates":[[[-68.9172532,-8.8928428],[-68.9091312,-8.8928409],[-68.9091326,-8.8874305],[-68.9172544,-8.8874324],[-68.9172532,-8.8928428]]]}},{"type":"Feature","id":"AC-Y546-X674","properties":{"id":"AC-Y546-X674","grid_x":674,"grid_y":546,"centroid":[-68.905071,-8.8901347],"aggregation":"none","score_gradboost":0.3312102,"score_random_forest":0.5192334,"score_logistic_regression":0.5762287,"score_fuzzy_knn_k29":0.6582991},"geometry":{"type":"Polygon","coordinates":[[[-68.9091312,-8.8928409],[-68.9010093,-8.8928389],[-68.9010107,-8.8874285],[-68.9091326,-8.8874305],[-68.9091312,-8.8928409]]]}},{"type":"Feature","id":"AC-Y546-X675","properties":{"id":"AC-Y546-X675","grid_x":675,"grid_y":546,"centroid":[-68.896949,-8.8901326],"aggregation":"none","score_gradboost":0.2740702,"score_random_forest":0.3952785,"score_logistic_regression":0.5498914,"score_fuzzy_knn_k29":0.5051686},"geometry":{"type":"Polygon","coordinates":[[[-68.9010093,-8.8928389],[-68.8928873,-8.8928366],[-68.8928889,-8.8874262],[-68.9010107,-8.8874285],[-68.9010093,-8.8928389]]]}},{"type":"Feature","id":"AC-Y546-X676","properties":{"id":"AC-Y546-X676","grid_x":676,"grid_y":546,"centroid":[-68.8888271,-8.8901302],"aggregation":"none","score_gradboost":0.4205036,"score_random_forest":0.3585551,"score_logistic_regression":0.5746725,"score_fuzzy_knn_k29":0.4671464},"geometry":{"type":"Polygon","coordinates":[[[-68.8928873,-8.8928366],[-68.8847653,-8.8928342],[-68.884767,-8.8874238],[-68.8928889,-8.8874262],[-68.8928873,-8.8928366]]]}},{"type":"Feature","id":"AC-Y546-X677","properties":{"id":"AC-Y546-X677","grid_x":677,"grid_y":546,"centroid":[-68.8807052,-8.8901277],"aggregation":"none","score_gradboost":0.3735744,"score_random_forest":0.3956762,"score_logistic_regression":0.5684034,"score_fuzzy_knn_k29":0.5216215},"geometry":{"type":"Polygon","coordinates":[[[-68.8847653,-8.8928342],[-68.8766434,-8.8928316],[-68.8766452,-8.8874212],[-68.884767,-8.8874238],[-68.8847653,-8.8928342]]]}},{"type":"Feature","id":"AC-Y547-X669","properties":{"id":"AC-Y547-X669","grid_x":669,"grid_y":547,"centroid":[-68.9456813,-8.8847324],"aggregation":"none","score_gradboost":0.2680226,"score_random_forest":0.3482497,"score_logistic_regression":0.6017849,"score_fuzzy_knn_k29":0.4379164},"geometry":{"type":"Polygon","coordinates":[[[-68.9497419,-8.8874382],[-68.94162,-8.887437],[-68.9416209,-8.8820266],[-68.9497426,-8.8820278],[-68.9497419,-8.8874382]]]}},{"type":"Feature","id":"AC-Y547-X670","properties":{"id":"AC-Y547-X670","grid_x":670,"grid_y":547,"centroid":[-68.9375595,-8.8847312],"aggregation":"none","score_gradboost":0.2983733,"score_random_forest":0.4297253,"score_logistic_regression":0.6528685,"score_fuzzy_knn_k29":0.6028346},"geometry":{"type":"Polygon","coordinates":[[[-68.94162,-8.887437],[-68.9334981,-8.8874357],[-68.9334991,-8.8820252],[-68.9416209,-8.8820266],[-68.94162,-8.887437]]]}},{"type":"Feature","id":"AC-Y547-X671","properties":{"id":"AC-Y547-X671","grid_x":671,"grid_y":547,"centroid":[-68.9294377,-8.8847297],"aggregation":"none","score_gradboost":0.355845,"score_random_forest":0.479713,"score_logistic_regression":0.5817694,"score_fuzzy_knn_k29":0.0960533},"geometry":{"type":"Polygon","coordinates":[[[-68.9334981,-8.8874357],[-68.9253763,-8.8874341],[-68.9253774,-8.8820237],[-68.9334991,-8.8820252],[-68.9334981,-8.8874357]]]}},{"type":"Feature","id":"AC-Y547-X672","properties":{"id":"AC-Y547-X672","grid_x":672,"grid_y":547,"centroid":[-68.9213159,-8.8847281],"aggregation":"none","score_gradboost":0.4506022,"score_random_forest":0.4965602,"score_logistic_regression":0.5782906,"score_fuzzy_knn_k29":0.3999433},"geometry":{"type":"Polygon","coordinates":[[[-68.9253763,-8.8874341],[-68.9172544,-8.8874324],[-68.9172556,-8.882022],[-68.9253774,-8.8820237],[-68.9253763,-8.8874341]]]}},{"type":"Feature","id":"AC-Y547-X673","properties":{"id":"AC-Y547-X673","grid_x":673,"grid_y":547,"centroid":[-68.9131941,-8.8847263],"aggregation":"none","score_gradboost":0.1700154,"score_random_forest":0.2932756,"score_logistic_regression":0.5268901,"score_fuzzy_knn_k29":0.3874999},"geometry":{"type":"Polygon","coordinates":[[[-68.9172544,-8.8874324],[-68.9091326,-8.8874305],[-68.9091339,-8.8820201],[-68.9172556,-8.882022],[-68.9172544,-8.8874324]]]}},{"type":"Feature","id":"AC-Y547-X674","properties":{"id":"AC-Y547-X674","grid_x":674,"grid_y":547,"centroid":[-68.9050723,-8.8847243],"aggregation":"none","score_gradboost":0.2592851,"score_random_forest":0.3367541,"score_logistic_regression":0.5286449,"score_fuzzy_knn_k29":0.4399086},"geometry":{"type":"Polygon","coordinates":[[[-68.9091326,-8.8874305],[-68.9010107,-8.8874285],[-68.9010122,-8.882018],[-68.9091339,-8.8820201],[-68.9091326,-8.8874305]]]}},{"type":"Feature","id":"AC-Y547-X675","properties":{"id":"AC-Y547-X675","grid_x":675,"grid_y":547,"centroid":[-68.8969506,-8.8847221],"aggregation":"none","score_gradboost":0.4527798,"score_random_forest":0.5577004,"score_logistic_regression":0.6019854,"score_fuzzy_knn_k29":0.7683632},"geometry":{"type":"Polygon","coordinates":[[[-68.9010107,-8.8874285],[-68.8928889,-8.8874262],[-68.8928904,-8.8820158],[-68.9010122,-8.882018],[-68.9010107,-8.8874285]]]}},{"type":"Feature","id":"AC-Y547-X676","properties":{"id":"AC-Y547-X676","grid_x":676,"grid_y":547,"centroid":[-68.8888288,-8.8847198],"aggregation":"none","score_gradboost":0.4748765,"score_random_forest":0.5713179,"score_logistic_regression":0.5524395,"score_fuzzy_knn_k29":0.4661823},"geometry":{"type":"Polygon","coordinates":[[[-68.8928889,-8.8874262],[-68.884767,-8.8874238],[-68.8847687,-8.8820134],[-68.8928904,-8.8820158],[-68.8928889,-8.8874262]]]}},{"type":"Feature","id":"AC-Y547-X677","properties":{"id":"AC-Y547-X677","grid_x":677,"grid_y":547,"centroid":[-68.880707,-8.8847173],"aggregation":"none","score_gradboost":0.397503,"score_random_forest":0.443609,"score_logistic_regression":0.6238926,"score_fuzzy_knn_k29":0.5886637},"geometry":{"type":"Polygon","coordinates":[[[-68.884767,-8.8874238],[-68.8766452,-8.8874212],[-68.876647,-8.8820108],[-68.8847687,-8.8820134],[-68.884767,-8.8874238]]]}},{"type":"Feature","id":"AC-Y547-X678","properties":{"id":"AC-Y547-X678","grid_x":678,"grid_y":547,"centroid":[-68.8725852,-8.8847146],"aggregation":"none","score_gradboost":0.3428478,"score_random_forest":0.3755177,"score_logistic_regression":0.6229914,"score_fuzzy_knn_k29":0.5118771},"geometry":{"type":"Polygon","coordinates":[[[-68.8766452,-8.8874212],[-68.8685233,-8.8874184],[-68.8685253,-8.882008],[-68.876647,-8.8820108],[-68.8766452,-8.8874212]]]}},{"type":"Feature","id":"AC-Y547-X682","properties":{"id":"AC-Y547-X682","grid_x":682,"grid_y":547,"centroid":[-68.8400981,-8.8847021],"aggregation":"none","score_gradboost":0.0236325,"score_random_forest":0.0600272,"score_logistic_regression":0.4367298,"score_fuzzy_knn_k29":0.0786498},"geometry":{"type":"Polygon","coordinates":[[[-68.8441578,-8.887409],[-68.836036,-8.8874055],[-68.8360384,-8.8819951],[-68.8441601,-8.8819986],[-68.8441578,-8.887409]]]}},{"type":"Feature","id":"AC-Y548-X669","properties":{"id":"AC-Y548-X669","grid_x":669,"grid_y":548,"centroid":[-68.9456821,-8.879322],"aggregation":"none","score_gradboost":0.5108494,"score_random_forest":0.4544602,"score_logistic_regression":0.6146294,"score_fuzzy_knn_k29":0.5388904},"geometry":{"type":"Polygon","coordinates":[[[-68.9497426,-8.8820278],[-68.9416209,-8.8820266],[-68.9416217,-8.8766162],[-68.9497433,-8.8766173],[-68.9497426,-8.8820278]]]}},{"type":"Feature","id":"AC-Y548-X670","properties":{"id":"AC-Y548-X670","grid_x":670,"grid_y":548,"centroid":[-68.9375604,-8.8793207],"aggregation":"none","score_gradboost":0.3736791,"score_random_forest":0.3702025,"score_logistic_regression":0.5834753,"score_fuzzy_knn_k29":0.4307527},"geometry":{"type":"Polygon","coordinates":[[[-68.9416209,-8.8820266],[-68.9334991,-8.8820252],[-68.9335001,-8.8766148],[-68.9416217,-8.8766162],[-68.9416209,-8.8820266]]]}},{"type":"Feature","id":"AC-Y548-X671","properties":{"id":"AC-Y548-X671","grid_x":671,"grid_y":548,"centroid":[-68.9294388,-8.8793193],"aggregation":"none","score_gradboost":0.355845,"score_random_forest":0.4884092,"score_logistic_regression":0.568563,"score_fuzzy_knn_k29":0.1323013},"geometry":{"type":"Polygon","coordinates":[[[-68.9334991,-8.8820252],[-68.9253774,-8.8820237],[-68.9253785,-8.8766133],[-68.9335001,-8.8766148],[-68.9334991,-8.8820252]]]}},{"type":"Feature","id":"AC-Y548-X672","properties":{"id":"AC-Y548-X672","grid_x":672,"grid_y":548,"centroid":[-68.9213171,-8.8793177],"aggregation":"none","score_gradboost":0.4506022,"score_random_forest":0.5037896,"score_logistic_regression":0.5601702,"score_fuzzy_knn_k29":0.4779653},"geometry":{"type":"Polygon","coordinates":[[[-68.9253774,-8.8820237],[-68.9172556,-8.882022],[-68.9172569,-8.8766116],[-68.9253785,-8.8766133],[-68.9253774,-8.8820237]]]}},{"type":"Feature","id":"AC-Y548-X673","properties":{"id":"AC-Y548-X673","grid_x":673,"grid_y":548,"centroid":[-68.9131954,-8.8793159],"aggregation":"none","score_gradboost":0.4094582,"score_random_forest":0.5174736,"score_logistic_regression":0.5612174,"score_fuzzy_knn_k29":0.5653925},"geometry":{"type":"Polygon","coordinates":[[[-68.9172556,-8.882022],[-68.9091339,-8.8820201],[-68.9091352,-8.8766097],[-68.9172569,-8.8766116],[-68.9172556,-8.882022]]]}},{"type":"Feature","id":"AC-Y548-X674","properties":{"id":"AC-Y548-X674","grid_x":674,"grid_y":548,"centroid":[-68.9050737,-8.8793139],"aggregation":"none","score_gradboost":0.4250623,"score_random_forest":0.5443799,"score_logistic_regression":0.5722625,"score_fuzzy_knn_k29":0.6460649},"geometry":{"type":"Polygon","coordinates":[[[-68.9091339,-8.8820201],[-68.9010122,-8.882018],[-68.9010136,-8.8766076],[-68.9091352,-8.8766097],[-68.9091339,-8.8820201]]]}},{"type":"Feature","id":"AC-Y548-X675","properties":{"id":"AC-Y548-X675","grid_x":675,"grid_y":548,"centroid":[-68.8969521,-8.8793117],"aggregation":"none","score_gradboost":0.3952207,"score_random_forest":0.5215411,"score_logistic_regression":0.5928766,"score_fuzzy_knn_k29":0.6887466},"geometry":{"type":"Polygon","coordinates":[[[-68.9010122,-8.882018],[-68.8928904,-8.8820158],[-68.892892,-8.8766054],[-68.9010136,-8.8766076],[-68.9010122,-8.882018]]]}},{"type":"Feature","id":"AC-Y548-X676","properties":{"id":"AC-Y548-X676","grid_x":676,"grid_y":548,"centroid":[-68.8888304,-8.8793094],"aggregation":"none","score_gradboost":0.2205007,"score_random_forest":0.3172791,"score_logistic_regression":0.508938,"score_fuzzy_knn_k29":0.3412819},"geometry":{"type":"Polygon","coordinates":[[[-68.8928904,-8.8820158],[-68.8847687,-8.8820134],[-68.8847704,-8.8766029],[-68.892892,-8.8766054],[-68.8928904,-8.8820158]]]}},{"type":"Feature","id":"AC-Y548-X678","properties":{"id":"AC-Y548-X678","grid_x":678,"grid_y":548,"centroid":[-68.8725871,-8.8793042],"aggregation":"none","score_gradboost":0.274954,"score_random_forest":0.183357,"score_logistic_regression":0.6537041,"score_fuzzy_knn_k29":0.5204767},"geometry":{"type":"Polygon","coordinates":[[[-68.876647,-8.8820108],[-68.8685253,-8.882008],[-68.8685272,-8.8765976],[-68.8766488,-8.8766004],[-68.876647,-8.8820108]]]}},{"type":"Feature","id":"AC-Y548-X679","properties":{"id":"AC-Y548-X679","grid_x":679,"grid_y":548,"centroid":[-68.8644654,-8.8793013],"aggregation":"none","score_gradboost":0.2841477,"score_random_forest":0.1500841,"score_logistic_regression":0.5097833,"score_fuzzy_knn_k29":0.1942354},"geometry":{"type":"Polygon","coordinates":[[[-68.8685253,-8.882008],[-68.8604035,-8.882005],[-68.8604056,-8.8765946],[-68.8685272,-8.8765976],[-68.8685253,-8.882008]]]}},{"type":"Feature","id":"AC-Y548-X680","properties":{"id":"AC-Y548-X680","grid_x":680,"grid_y":548,"centroid":[-68.8563437,-8.8792983],"aggregation":"none","score_gradboost":0.1517142,"score_random_forest":0.1676769,"score_logistic_regression":0.5290392,"score_fuzzy_knn_k29":0.2310771},"geometry":{"type":"Polygon","coordinates":[[[-68.8604035,-8.882005],[-68.8522818,-8.8820019],[-68.852284,-8.8765915],[-68.8604056,-8.8765946],[-68.8604035,-8.882005]]]}},{"type":"Feature","id":"AC-Y548-X681","properties":{"id":"AC-Y548-X681","grid_x":681,"grid_y":548,"centroid":[-68.8482221,-8.8792951],"aggregation":"none","score_gradboost":0.1409764,"score_random_forest":0.1663534,"score_logistic_regression":0.5108336,"score_fuzzy_knn_k29":0.2110961},"geometry":{"type":"Polygon","coordinates":[[[-68.8522818,-8.8820019],[-68.8441601,-8.8819986],[-68.8441624,-8.8765882],[-68.852284,-8.8765915],[-68.8522818,-8.8820019]]]}},{"type":"Feature","id":"AC-Y549-X669","properties":{"id":"AC-Y549-X669","grid_x":669,"grid_y":549,"centroid":[-68.9456829,-8.8739116],"aggregation":"none","score_gradboost":0.32025,"score_random_forest":0.3601913,"score_logistic_regression":0.5731738,"score_fuzzy_knn_k29":0.4314807},"geometry":{"type":"Polygon","coordinates":[[[-68.9497433,-8.8766173],[-68.9416217,-8.8766162],[-68.9416226,-8.8712057],[-68.9497441,-8.8712069],[-68.9497433,-8.8766173]]]}},{"type":"Feature","id":"AC-Y549-X670","properties":{"id":"AC-Y549-X670","grid_x":670,"grid_y":549,"centroid":[-68.9375614,-8.8739103],"aggregation":"none","score_gradboost":0.4838704,"score_random_forest":0.461617,"score_logistic_regression":0.6152101,"score_fuzzy_knn_k29":0.5829034},"geometry":{"type":"Polygon","coordinates":[[[-68.9416217,-8.8766162],[-68.9335001,-8.8766148],[-68.9335011,-8.8712044],[-68.9416226,-8.8712057],[-68.9416217,-8.8766162]]]}},{"type":"Feature","id":"AC-Y549-X678","properties":{"id":"AC-Y549-X678","grid_x":678,"grid_y":549,"centroid":[-68.8725889,-8.8738938],"aggregation":"none","score_gradboost":0.1156718,"score_random_forest":0.1741086,"score_logistic_regression":0.6264117,"score_fuzzy_knn_k29":0.3963112},"geometry":{"type":"Polygon","coordinates":[[[-68.8766488,-8.8766004],[-68.8685272,-8.8765976],[-68.8685291,-8.8711872],[-68.8766506,-8.8711899],[-68.8766488,-8.8766004]]]}},{"type":"Feature","id":"AC-Y550-X669","properties":{"id":"AC-Y550-X669","grid_x":669,"grid_y":550,"centroid":[-68.9456837,-8.8685011],"aggregation":"none","score_gradboost":0.4144688,"score_random_forest":0.4816297,"score_logistic_regression":0.6232321,"score_fuzzy_knn_k29":0.6712734},"geometry":{"type":"Polygon","coordinates":[[[-68.9497441,-8.8712069],[-68.9416226,-8.8712057],[-68.9416234,-8.8657953],[-68.9497448,-8.8657965],[-68.9497441,-8.8712069]]]}},{"type":"Feature","id":"AC-Y550-X670","properties":{"id":"AC-Y550-X670","grid_x":670,"grid_y":550,"centroid":[-68.9375623,-8.8684999],"aggregation":"none","score_gradboost":0.3108399,"score_random_forest":0.3939203,"score_logistic_regression":0.5883664,"score_fuzzy_knn_k29":0.6976498},"geometry":{"type":"Polygon","coordinates":[[[-68.9416226,-8.8712057],[-68.9335011,-8.8712044],[-68.933502,-8.8657939],[-68.9416234,-8.8657953],[-68.9416226,-8.8712057]]]}},{"type":"Feature","id":"AC-Y551-X669","properties":{"id":"AC-Y551-X669","grid_x":669,"grid_y":551,"centroid":[-68.9456845,-8.8630907],"aggregation":"none","score_gradboost":0.5207003,"score_random_forest":0.5604869,"score_logistic_regression":0.577167,"score_fuzzy_knn_k29":0.6514752},"geometry":{"type":"Polygon","coordinates":[[[-68.9497448,-8.8657965],[-68.9416234,-8.8657953],[-68.9416243,-8.8603849],[-68.9497455,-8.860386],[-68.9497448,-8.8657965]]]}},{"type":"Feature","id":"AC-Y551-X670","properties":{"id":"AC-Y551-X670","grid_x":670,"grid_y":551,"centroid":[-68.9375632,-8.8630894],"aggregation":"none","score_gradboost":0.2622039,"score_random_forest":0.3737402,"score_logistic_regression":0.6151321,"score_fuzzy_knn_k29":0.8305724},"geometry":{"type":"Polygon","coordinates":[[[-68.9416234,-8.8657953],[-68.933502,-8.8657939],[-68.933503,-8.8603835],[-68.9416243,-8.8603849],[-68.9416234,-8.8657953]]]}},{"type":"Feature","id":"AC-Y552-X669","properties":{"id":"AC-Y552-X669","grid_x":669,"grid_y":552,"centroid":[-68.9456853,-8.8576803],"aggregation":"none","score_gradboost":0.4748765,"score_random_forest":0.5557434,"score_logistic_regression":0.561331,"score_fuzzy_knn_k29":0.5500236},"geometry":{"type":"Polygon","coordinates":[[[-68.9497455,-8.860386],[-68.9416243,-8.8603849],[-68.9416251,-8.8549744],[-68.9497463,-8.8549756],[-68.9497455,-8.860386]]]}},{"type":"Feature","id":"AC-Y552-X670","properties":{"id":"AC-Y552-X670","grid_x":670,"grid_y":552,"centroid":[-68.9375641,-8.857679],"aggregation":"none","score_gradboost":0.3467581,"score_random_forest":0.2955553,"score_logistic_regression":0.590672,"score_fuzzy_knn_k29":0.7265316},"geometry":{"type":"Polygon","coordinates":[[[-68.9416243,-8.8603849],[-68.933503,-8.8603835],[-68.933504,-8.8549731],[-68.9416251,-8.8549744],[-68.9416243,-8.8603849]]]}},{"type":"Feature","id":"AC-Y552-X671","properties":{"id":"AC-Y552-X671","grid_x":671,"grid_y":552,"centroid":[-68.9294429,-8.8576775],"aggregation":"none","score_gradboost":0.2351138,"score_random_forest":0.2595805,"score_logistic_regression":0.542551,"score_fuzzy_knn_k29":0.5168078},"geometry":{"type":"Polygon","coordinates":[[[-68.933503,-8.8603835],[-68.9253817,-8.860382],[-68.9253828,-8.8549715],[-68.933504,-8.8549731],[-68.933503,-8.8603835]]]}},{"type":"Feature","id":"AC-Y553-X669","properties":{"id":"AC-Y553-X669","grid_x":669,"grid_y":553,"centroid":[-68.9456861,-8.8522698],"aggregation":"none","score_gradboost":0.3703257,"score_random_forest":0.4947519,"score_logistic_regression":0.5833132,"score_fuzzy_knn_k29":0.489866},"geometry":{"type":"Polygon","coordinates":[[[-68.9497463,-8.8549756],[-68.9416251,-8.8549744],[-68.941626,-8.849564],[-68.949747,-8.8495652],[-68.9497463,-8.8549756]]]}},{"type":"Feature","id":"AC-Y553-X670","properties":{"id":"AC-Y553-X670","grid_x":670,"grid_y":553,"centroid":[-68.937565,-8.8522686],"aggregation":"none","score_gradboost":0.335009,"score_random_forest":0.2848716,"score_logistic_regression":0.5703755,"score_fuzzy_knn_k29":0.5808199},"geometry":{"type":"Polygon","coordinates":[[[-68.9416251,-8.8549744],[-68.933504,-8.8549731],[-68.933505,-8.8495626],[-68.941626,-8.849564],[-68.9416251,-8.8549744]]]}},{"type":"Feature","id":"AC-Y553-X671","properties":{"id":"AC-Y553-X671","grid_x":671,"grid_y":553,"centroid":[-68.9294439,-8.8522671],"aggregation":"none","score_gradboost":0.1847891,"score_random_forest":0.2295862,"score_logistic_regression":0.5310812,"score_fuzzy_knn_k29":0.4519437},"geometry":{"type":"Polygon","coordinates":[[[-68.933504,-8.8549731],[-68.9253828,-8.8549715],[-68.9253839,-8.8495611],[-68.933505,-8.8495626],[-68.933504,-8.8549731]]]}},{"type":"Feature","id":"AC-Y553-X672","properties":{"id":"AC-Y553-X672","grid_x":672,"grid_y":553,"centroid":[-68.9213228,-8.8522655],"aggregation":"none","score_gradboost":0.0946986,"score_random_forest":0.1395797,"score_logistic_regression":0.5812906,"score_fuzzy_knn_k29":0.5022188},"geometry":{"type":"Polygon","coordinates":[[[-68.9253828,-8.8549715],[-68.9172617,-8.8549698],[-68.9172629,-8.8495594],[-68.9253839,-8.8495611],[-68.9253828,-8.8549715]]]}},{"type":"Feature","id":"AC-Y554-X669","properties":{"id":"AC-Y554-X669","grid_x":669,"grid_y":554,"centroid":[-68.9456869,-8.8468594],"aggregation":"none","score_gradboost":0.295623,"score_random_forest":0.3924228,"score_logistic_regression":0.5861427,"score_fuzzy_knn_k29":0.5104842},"geometry":{"type":"Polygon","coordinates":[[[-68.949747,-8.8495652],[-68.941626,-8.849564],[-68.9416268,-8.8441535],[-68.9497477,-8.8441547],[-68.949747,-8.8495652]]]}},{"type":"Feature","id":"AC-Y554-X670","properties":{"id":"AC-Y554-X670","grid_x":670,"grid_y":554,"centroid":[-68.9375659,-8.8468581],"aggregation":"none","score_gradboost":0.1306154,"score_random_forest":0.2454461,"score_logistic_regression":0.6017403,"score_fuzzy_knn_k29":0.6115437},"geometry":{"type":"Polygon","coordinates":[[[-68.941626,-8.849564],[-68.933505,-8.8495626],[-68.9335059,-8.8441522],[-68.9416268,-8.8441535],[-68.941626,-8.849564]]]}},{"type":"Feature","id":"AC-Y554-X671","properties":{"id":"AC-Y554-X671","grid_x":671,"grid_y":554,"centroid":[-68.929445,-8.8468567],"aggregation":"none","score_gradboost":0.1328165,"score_random_forest":0.1617447,"score_logistic_regression":0.6143151,"score_fuzzy_knn_k29":0.6815536},"geometry":{"type":"Polygon","coordinates":[[[-68.933505,-8.8495626],[-68.9253839,-8.8495611],[-68.925385,-8.8441507],[-68.9335059,-8.8441522],[-68.933505,-8.8495626]]]}},{"type":"Feature","id":"AC-Y554-X672","properties":{"id":"AC-Y554-X672","grid_x":672,"grid_y":554,"centroid":[-68.921324,-8.8468551],"aggregation":"none","score_gradboost":0.095766,"score_random_forest":0.1317173,"score_logistic_regression":0.6182635,"score_fuzzy_knn_k29":0.6580239},"geometry":{"type":"Polygon","coordinates":[[[-68.9253839,-8.8495611],[-68.9172629,-8.8495594],[-68.9172641,-8.844149],[-68.925385,-8.8441507],[-68.9253839,-8.8495611]]]}},{"type":"Feature","id":"AC-Y554-X673","properties":{"id":"AC-Y554-X673","grid_x":673,"grid_y":554,"centroid":[-68.913203,-8.8468533],"aggregation":"none","score_gradboost":0.0840073,"score_random_forest":0.1133504,"score_logistic_regression":0.5383208,"score_fuzzy_knn_k29":0.2772118},"geometry":{"type":"Polygon","coordinates":[[[-68.9172629,-8.8495594],[-68.9091419,-8.8495575],[-68.9091432,-8.8441471],[-68.9172641,-8.844149],[-68.9172629,-8.8495594]]]}},{"type":"Feature","id":"AC-Y555-X669","properties":{"id":"AC-Y555-X669","grid_x":669,"grid_y":555,"centroid":[-68.9456877,-8.8414489],"aggregation":"none","score_gradboost":0.2678181,"score_random_forest":0.3237843,"score_logistic_regression":0.612098,"score_fuzzy_knn_k29":0.5173469},"geometry":{"type":"Polygon","coordinates":[[[-68.9497477,-8.8441547],[-68.9416268,-8.8441535],[-68.9416277,-8.8387431],[-68.9497485,-8.8387443],[-68.9497477,-8.8441547]]]}},{"type":"Feature","id":"AC-Y555-X670","properties":{"id":"AC-Y555-X670","grid_x":670,"grid_y":555,"centroid":[-68.9375668,-8.8414477],"aggregation":"none","score_gradboost":0.1040018,"score_random_forest":0.1978266,"score_logistic_regression":0.6185828,"score_fuzzy_knn_k29":0.5818041},"geometry":{"type":"Polygon","coordinates":[[[-68.9416268,-8.8441535],[-68.9335059,-8.8441522],[-68.9335069,-8.8387418],[-68.9416277,-8.8387431],[-68.9416268,-8.8441535]]]}},{"type":"Feature","id":"AC-Y555-X671","properties":{"id":"AC-Y555-X671","grid_x":671,"grid_y":555,"centroid":[-68.929446,-8.8414462],"aggregation":"none","score_gradboost":0.1020341,"score_random_forest":0.1246723,"score_logistic_regression":0.6076624,"score_fuzzy_knn_k29":0.5787256},"geometry":{"type":"Polygon","coordinates":[[[-68.9335059,-8.8441522],[-68.925385,-8.8441507],[-68.9253861,-8.8387402],[-68.9335069,-8.8387418],[-68.9335059,-8.8441522]]]}},{"type":"Feature","id":"AC-Y555-X672","properties":{"id":"AC-Y555-X672","grid_x":672,"grid_y":555,"centroid":[-68.9213251,-8.8414446],"aggregation":"none","score_gradboost":0.0619558,"score_random_forest":0.0979015,"score_logistic_regression":0.5864672,"score_fuzzy_knn_k29":0.318037},"geometry":{"type":"Polygon","coordinates":[[[-68.925385,-8.8441507],[-68.9172641,-8.844149],[-68.9172653,-8.8387385],[-68.9253861,-8.8387402],[-68.925385,-8.8441507]]]}},{"type":"Feature","id":"AC-Y555-X673","properties":{"id":"AC-Y555-X673","grid_x":673,"grid_y":555,"centroid":[-68.9132043,-8.8414428],"aggregation":"none","score_gradboost":0.0615201,"score_random_forest":0.0774155,"score_logistic_regression":0.5291705,"score_fuzzy_knn_k29":0.1825018},"geometry":{"type":"Polygon","coordinates":[[[-68.9172641,-8.844149],[-68.9091432,-8.8441471],[-68.9091445,-8.8387366],[-68.9172653,-8.8387385],[-68.9172641,-8.844149]]]}},{"type":"Feature","id":"AC-Y556-X669","properties":{"id":"AC-Y556-X669","grid_x":669,"grid_y":556,"centroid":[-68.9456885,-8.8360385],"aggregation":"none","score_gradboost":0.2205047,"score_random_forest":0.2405109,"score_logistic_regression":0.6283185,"score_fuzzy_knn_k29":0.5211735},"geometry":{"type":"Polygon","coordinates":[[[-68.9497485,-8.8387443],[-68.9416277,-8.8387431],[-68.9416285,-8.8333327],[-68.9497492,-8.8333338],[-68.9497485,-8.8387443]]]}},{"type":"Feature","id":"AC-Y556-X670","properties":{"id":"AC-Y556-X670","grid_x":670,"grid_y":556,"centroid":[-68.9375677,-8.8360372],"aggregation":"none","score_gradboost":0.112179,"score_random_forest":0.1659666,"score_logistic_regression":0.6511952,"score_fuzzy_knn_k29":0.5197492},"geometry":{"type":"Polygon","coordinates":[[[-68.9416277,-8.8387431],[-68.9335069,-8.8387418],[-68.9335079,-8.8333313],[-68.9416285,-8.8333327],[-68.9416277,-8.8387431]]]}},{"type":"Feature","id":"AC-Y556-X671","properties":{"id":"AC-Y556-X671","grid_x":671,"grid_y":556,"centroid":[-68.929447,-8.8360358],"aggregation":"none","score_gradboost":0.0774597,"score_random_forest":0.0979761,"score_logistic_regression":0.5868181,"score_fuzzy_knn_k29":0.4564484},"geometry":{"type":"Polygon","coordinates":[[[-68.9335069,-8.8387418],[-68.9253861,-8.8387402],[-68.9253872,-8.8333298],[-68.9335079,-8.8333313],[-68.9335069,-8.8387418]]]}},{"type":"Feature","id":"AC-Y556-X672","properties":{"id":"AC-Y556-X672","grid_x":672,"grid_y":556,"centroid":[-68.9213263,-8.8360342],"aggregation":"none","score_gradboost":0.0860872,"score_random_forest":0.0807669,"score_logistic_regression":0.5508213,"score_fuzzy_knn_k29":0.2478162},"geometry":{"type":"Polygon","coordinates":[[[-68.9253861,-8.8387402],[-68.9172653,-8.8387385],[-68.9172665,-8.8333281],[-68.9253872,-8.8333298],[-68.9253861,-8.8387402]]]}},{"type":"Feature","id":"AC-Y556-X673","properties":{"id":"AC-Y556-X673","grid_x":673,"grid_y":556,"centroid":[-68.9132056,-8.8360324],"aggregation":"none","score_gradboost":0.0538245,"score_random_forest":0.1063058,"score_logistic_regression":0.6028177,"score_fuzzy_knn_k29":0.3383502},"geometry":{"type":"Polygon","coordinates":[[[-68.9172653,-8.8387385],[-68.9091445,-8.8387366],[-68.9091459,-8.8333262],[-68.9172665,-8.8333281],[-68.9172653,-8.8387385]]]}},{"type":"Feature","id":"AC-Y557-X669","properties":{"id":"AC-Y557-X669","grid_x":669,"grid_y":557,"centroid":[-68.9456893,-8.830628],"aggregation":"none","score_gradboost":0.2650064,"score_random_forest":0.1776346,"score_logistic_regression":0.5893864,"score_fuzzy_knn_k29":0.4058251},"geometry":{"type":"Polygon","coordinates":[[[-68.9497492,-8.8333338],[-68.9416285,-8.8333327],[-68.9416294,-8.8279222],[-68.9497499,-8.8279234],[-68.9497492,-8.8333338]]]}},{"type":"Feature","id":"AC-Y557-X670","properties":{"id":"AC-Y557-X670","grid_x":670,"grid_y":557,"centroid":[-68.9375687,-8.8306268],"aggregation":"none","score_gradboost":0.1176552,"score_random_forest":0.155611,"score_logistic_regression":0.631776,"score_fuzzy_knn_k29":0.3931997},"geometry":{"type":"Polygon","coordinates":[[[-68.9416285,-8.8333327],[-68.9335079,-8.8333313],[-68.9335088,-8.8279209],[-68.9416294,-8.8279222],[-68.9416285,-8.8333327]]]}},{"type":"Feature","id":"AC-Y557-X671","properties":{"id":"AC-Y557-X671","grid_x":671,"grid_y":557,"centroid":[-68.929448,-8.8306253],"aggregation":"none","score_gradboost":0.0889897,"score_random_forest":0.1114541,"score_logistic_regression":0.6600511,"score_fuzzy_knn_k29":0.5447256},"geometry":{"type":"Polygon","coordinates":[[[-68.9335079,-8.8333313],[-68.9253872,-8.8333298],[-68.9253883,-8.8279193],[-68.9335088,-8.8279209],[-68.9335079,-8.8333313]]]}},{"type":"Feature","id":"AC-Y557-X672","properties":{"id":"AC-Y557-X672","grid_x":672,"grid_y":557,"centroid":[-68.9213274,-8.8306237],"aggregation":"none","score_gradboost":0.0776677,"score_random_forest":0.1213663,"score_logistic_regression":0.6142582,"score_fuzzy_knn_k29":0.4083471},"geometry":{"type":"Polygon","coordinates":[[[-68.9253872,-8.8333298],[-68.9172665,-8.8333281],[-68.9172677,-8.8279176],[-68.9253883,-8.8279193],[-68.9253872,-8.8333298]]]}},{"type":"Feature","id":"AC-Y557-X673","properties":{"id":"AC-Y557-X673","grid_x":673,"grid_y":557,"centroid":[-68.9132068,-8.8306219],"aggregation":"none","score_gradboost":0.0888677,"score_random_forest":0.1029022,"score_logistic_regression":0.562569,"score_fuzzy_knn_k29":0.2203484},"geometry":{"type":"Polygon","coordinates":[[[-68.9172665,-8.8333281],[-68.9091459,-8.8333262],[-68.9091472,-8.8279158],[-68.9172677,-8.8279176],[-68.9172665,-8.8333281]]]}},{"type":"Feature","id":"AC-Y557-X674","properties":{"id":"AC-Y557-X674","grid_x":674,"grid_y":557,"centroid":[-68.9050862,-8.83062],"aggregation":"none","score_gradboost":0.1043665,"score_random_forest":0.1022628,"score_logistic_regression":0.5840883,"score_fuzzy_knn_k29":0.4739431},"geometry":{"type":"Polygon","coordinates":[[[-68.9091459,-8.8333262],[-68.9010252,-8.8333241],[-68.9010266,-8.8279137],[-68.9091472,-8.8279158],[-68.9091459,-8.8333262]]]}},{"type":"Feature","id":"AC-Y558-X669","properties":{"id":"AC-Y558-X669","grid_x":669,"grid_y":558,"centroid":[-68.9456901,-8.8252176],"aggregation":"none","score_gradboost":0.1291509,"score_random_forest":0.0803794,"score_logistic_regression":0.4530262,"score_fuzzy_knn_k29":0.1972471},"geometry":{"type":"Polygon","coordinates":[[[-68.9497499,-8.8279234],[-68.9416294,-8.8279222],[-68.9416302,-8.8225118],[-68.9497507,-8.8225129],[-68.9497499,-8.8279234]]]}},{"type":"Feature","id":"AC-Y558-X670","properties":{"id":"AC-Y558-X670","grid_x":670,"grid_y":558,"centroid":[-68.9375696,-8.8252163],"aggregation":"none","score_gradboost":0.101865,"score_random_forest":0.1054591,"score_logistic_regression":0.612096,"score_fuzzy_knn_k29":0.3891309},"geometry":{"type":"Polygon","coordinates":[[[-68.9416294,-8.8279222],[-68.9335088,-8.8279209],[-68.9335098,-8.8225104],[-68.9416302,-8.8225118],[-68.9416294,-8.8279222]]]}},{"type":"Feature","id":"AC-Y558-X671","properties":{"id":"AC-Y558-X671","grid_x":671,"grid_y":558,"centroid":[-68.9294491,-8.8252149],"aggregation":"none","score_gradboost":0.1072863,"score_random_forest":0.117156,"score_logistic_regression":0.6919234,"score_fuzzy_knn_k29":0.6727727},"geometry":{"type":"Polygon","coordinates":[[[-68.9335088,-8.8279209],[-68.9253883,-8.8279193],[-68.9253894,-8.8225089],[-68.9335098,-8.8225104],[-68.9335088,-8.8279209]]]}},{"type":"Feature","id":"AC-Y558-X672","properties":{"id":"AC-Y558-X672","grid_x":672,"grid_y":558,"centroid":[-68.9213286,-8.8252133],"aggregation":"none","score_gradboost":0.1295217,"score_random_forest":0.1218761,"score_logistic_regression":0.6117402,"score_fuzzy_knn_k29":0.4986575},"geometry":{"type":"Polygon","coordinates":[[[-68.9253883,-8.8279193],[-68.9172677,-8.8279176],[-68.9172689,-8.8225072],[-68.9253894,-8.8225089],[-68.9253883,-8.8279193]]]}},{"type":"Feature","id":"AC-Y558-X673","properties":{"id":"AC-Y558-X673","grid_x":673,"grid_y":558,"centroid":[-68.9132081,-8.8252115],"aggregation":"none","score_gradboost":0.1330179,"score_random_forest":0.1080469,"score_logistic_regression":0.5882781,"score_fuzzy_knn_k29":0.4228296},"geometry":{"type":"Polygon","coordinates":[[[-68.9172677,-8.8279176],[-68.9091472,-8.8279158],[-68.9091485,-8.8225053],[-68.9172689,-8.8225072],[-68.9172677,-8.8279176]]]}},{"type":"Feature","id":"AC-Y559-X669","properties":{"id":"AC-Y559-X669","grid_x":669,"grid_y":559,"centroid":[-68.9456908,-8.8198072],"aggregation":"none","score_gradboost":0.2176106,"score_random_forest":0.1626501,"score_logistic_regression":0.5289127,"score_fuzzy_knn_k29":0.2514791},"geometry":{"type":"Polygon","coordinates":[[[-68.9497507,-8.8225129],[-68.9416302,-8.8225118],[-68.9416311,-8.8171013],[-68.9497514,-8.8171025],[-68.9497507,-8.8225129]]]}},{"type":"Feature","id":"AC-Y559-X670","properties":{"id":"AC-Y559-X670","grid_x":670,"grid_y":559,"centroid":[-68.9375705,-8.8198059],"aggregation":"none","score_gradboost":0.1807097,"score_random_forest":0.099255,"score_logistic_regression":0.5780954,"score_fuzzy_knn_k29":0.2872361},"geometry":{"type":"Polygon","coordinates":[[[-68.9416302,-8.8225118],[-68.9335098,-8.8225104],[-68.9335108,-8.8171],[-68.9416311,-8.8171013],[-68.9416302,-8.8225118]]]}},{"type":"Feature","id":"AC-Y559-X671","properties":{"id":"AC-Y559-X671","grid_x":671,"grid_y":559,"centroid":[-68.9294501,-8.8198045],"aggregation":"none","score_gradboost":0.1483855,"score_random_forest":0.1002731,"score_logistic_regression":0.5924702,"score_fuzzy_knn_k29":0.4167975},"geometry":{"type":"Polygon","coordinates":[[[-68.9335098,-8.8225104],[-68.9253894,-8.8225089],[-68.9253905,-8.8170984],[-68.9335108,-8.8171],[-68.9335098,-8.8225104]]]}},{"type":"Feature","id":"AC-Y559-X672","properties":{"id":"AC-Y559-X672","grid_x":672,"grid_y":559,"centroid":[-68.9213297,-8.8198028],"aggregation":"none","score_gradboost":0.0933636,"score_random_forest":0.1129288,"score_logistic_regression":0.6630472,"score_fuzzy_knn_k29":0.723104},"geometry":{"type":"Polygon","coordinates":[[[-68.9253894,-8.8225089],[-68.9172689,-8.8225072],[-68.9172701,-8.8170967],[-68.9253905,-8.8170984],[-68.9253894,-8.8225089]]]}},{"type":"Feature","id":"AC-Y560-X669","properties":{"id":"AC-Y560-X669","grid_x":669,"grid_y":560,"centroid":[-68.9456916,-8.8143967],"aggregation":"none","score_gradboost":0.2235311,"score_random_forest":0.1542397,"score_logistic_regression":0.5178102,"score_fuzzy_knn_k29":0.4048313},"geometry":{"type":"Polygon","coordinates":[[[-68.9497514,-8.8171025],[-68.9416311,-8.8171013],[-68.9416319,-8.8116909],[-68.9497521,-8.811692],[-68.9497514,-8.8171025]]]}},{"type":"Feature","id":"AC-Y560-X670","properties":{"id":"AC-Y560-X670","grid_x":670,"grid_y":560,"centroid":[-68.9375714,-8.8143954],"aggregation":"none","score_gradboost":0.1177872,"score_random_forest":0.0905044,"score_logistic_regression":0.5610539,"score_fuzzy_knn_k29":0.3873407},"geometry":{"type":"Polygon","coordinates":[[[-68.9416311,-8.8171013],[-68.9335108,-8.8171],[-68.9335117,-8.8116895],[-68.9416319,-8.8116909],[-68.9416311,-8.8171013]]]}},{"type":"Feature","id":"AC-Y560-X671","properties":{"id":"AC-Y560-X671","grid_x":671,"grid_y":560,"centroid":[-68.9294511,-8.814394],"aggregation":"none","score_gradboost":0.1011005,"score_random_forest":0.1143415,"score_logistic_regression":0.6183723,"score_fuzzy_knn_k29":0.5480959},"geometry":{"type":"Polygon","coordinates":[[[-68.9335108,-8.8171],[-68.9253905,-8.8170984],[-68.9253915,-8.811688],[-68.9335117,-8.8116895],[-68.9335108,-8.8171]]]}},{"type":"Feature","id":"AC-Y561-X669","properties":{"id":"AC-Y561-X669","grid_x":669,"grid_y":561,"centroid":[-68.9456924,-8.8089863],"aggregation":"none","score_gradboost":0.2286701,"score_random_forest":0.2078148,"score_logistic_regression":0.5213046,"score_fuzzy_knn_k29":0.4409461},"geometry":{"type":"Polygon","coordinates":[[[-68.9497521,-8.811692],[-68.9416319,-8.8116909],[-68.9416328,-8.8062804],[-68.9497529,-8.8062816],[-68.9497521,-8.811692]]]}},{"type":"Feature","id":"AC-Y561-X670","properties":{"id":"AC-Y561-X670","grid_x":670,"grid_y":561,"centroid":[-68.9375723,-8.808985],"aggregation":"none","score_gradboost":0.119752,"score_random_forest":0.1129076,"score_logistic_regression":0.5818493,"score_fuzzy_knn_k29":0.3967894},"geometry":{"type":"Polygon","coordinates":[[[-68.9416319,-8.8116909],[-68.9335117,-8.8116895],[-68.9335127,-8.8062791],[-68.9416328,-8.8062804],[-68.9416319,-8.8116909]]]}},{"type":"Feature","id":"AC-Y561-X671","properties":{"id":"AC-Y561-X671","grid_x":671,"grid_y":561,"centroid":[-68.9294521,-8.8089836],"aggregation":"none","score_gradboost":0.1242237,"score_random_forest":0.1345729,"score_logistic_regression":0.6436126,"score_fuzzy_knn_k29":0.704615},"geometry":{"type":"Polygon","coordinates":[[[-68.9335117,-8.8116895],[-68.9253915,-8.811688],[-68.9253926,-8.8062776],[-68.9335127,-8.8062791],[-68.9335117,-8.8116895]]]}},{"type":"Feature","id":"AC-Y562-X670","properties":{"id":"AC-Y562-X670","grid_x":670,"grid_y":562,"centroid":[-68.9375732,-8.8035745],"aggregation":"none","score_gradboost":0.2923416,"score_random_forest":0.1958102,"score_logistic_regression":0.6223723,"score_fuzzy_knn_k29":0.7530455},"geometry":{"type":"Polygon","coordinates":[[[-68.9416328,-8.8062804],[-68.9335127,-8.8062791],[-68.9335137,-8.8008686],[-68.9416336,-8.80087],[-68.9416328,-8.8062804]]]}},{"type":"Feature","id":"AC-Y548-X677","properties":{"id":"AC-Y548-X677","grid_x":677,"grid_y":548,"centroid":[-68.8807087,-8.8793069],"aggregation":"none","score_gradboost":0.2382309,"score_random_forest":0.3085005,"score_logistic_regression":0.5836046,"score_fuzzy_knn_k29":0.5345633},"geometry":{"type":"Polygon","coordinates":[[[-68.8847687,-8.8820134],[-68.876647,-8.8820108],[-68.8766488,-8.8766004],[-68.8847704,-8.8766029],[-68.8847687,-8.8820134]]]}},{"type":"Feature","id":"AC-Y549-X671","properties":{"id":"AC-Y549-X671","grid_x":671,"grid_y":549,"centroid":[-68.9294398,-8.8739088],"aggregation":"none","score_gradboost":0.3844903,"score_random_forest":0.4920735,"score_logistic_regression":0.6143151,"score_fuzzy_knn_k29":0.6854313},"geometry":{"type":"Polygon","coordinates":[[[-68.9335001,-8.8766148],[-68.9253785,-8.8766133],[-68.9253796,-8.8712028],[-68.9335011,-8.8712044],[-68.9335001,-8.8766148]]]}},{"type":"Feature","id":"AC-Y549-X672","properties":{"id":"AC-Y549-X672","grid_x":672,"grid_y":549,"centroid":[-68.9213182,-8.8739072],"aggregation":"none","score_gradboost":0.2556886,"score_random_forest":0.311734,"score_logistic_regression":0.5227569,"score_fuzzy_knn_k29":0.3792944},"geometry":{"type":"Polygon","coordinates":[[[-68.9253785,-8.8766133],[-68.9172569,-8.8766116],[-68.9172581,-8.8712011],[-68.9253796,-8.8712028],[-68.9253785,-8.8766133]]]}},{"type":"Feature","id":"AC-Y549-X673","properties":{"id":"AC-Y549-X673","grid_x":673,"grid_y":549,"centroid":[-68.9131967,-8.8739054],"aggregation":"none","score_gradboost":0.2123413,"score_random_forest":0.3690692,"score_logistic_regression":0.5380604,"score_fuzzy_knn_k29":0.4655524},"geometry":{"type":"Polygon","coordinates":[[[-68.9172569,-8.8766116],[-68.9091352,-8.8766097],[-68.9091366,-8.8711992],[-68.9172581,-8.8712011],[-68.9172569,-8.8766116]]]}},{"type":"Feature","id":"AC-Y549-X674","properties":{"id":"AC-Y549-X674","grid_x":674,"grid_y":549,"centroid":[-68.9050751,-8.8739034],"aggregation":"none","score_gradboost":0.3667995,"score_random_forest":0.3962611,"score_logistic_regression":0.6010975,"score_fuzzy_knn_k29":0.7319033},"geometry":{"type":"Polygon","coordinates":[[[-68.9091352,-8.8766097],[-68.9010136,-8.8766076],[-68.9010151,-8.8711972],[-68.9091366,-8.8711992],[-68.9091352,-8.8766097]]]}},{"type":"Feature","id":"AC-Y549-X675","properties":{"id":"AC-Y549-X675","grid_x":675,"grid_y":549,"centroid":[-68.8969536,-8.8739013],"aggregation":"none","score_gradboost":0.2964041,"score_random_forest":0.2852539,"score_logistic_regression":0.5744273,"score_fuzzy_knn_k29":0.5666667},"geometry":{"type":"Polygon","coordinates":[[[-68.9010136,-8.8766076],[-68.892892,-8.8766054],[-68.8928936,-8.8711949],[-68.9010151,-8.8711972],[-68.9010136,-8.8766076]]]}},{"type":"Feature","id":"AC-Y549-X676","properties":{"id":"AC-Y549-X676","grid_x":676,"grid_y":549,"centroid":[-68.888832,-8.873899],"aggregation":"none","score_gradboost":0.1062223,"score_random_forest":0.215107,"score_logistic_regression":0.5668152,"score_fuzzy_knn_k29":0.4625527},"geometry":{"type":"Polygon","coordinates":[[[-68.892892,-8.8766054],[-68.8847704,-8.8766029],[-68.8847721,-8.8711925],[-68.8928936,-8.8711949],[-68.892892,-8.8766054]]]}},{"type":"Feature","id":"AC-Y549-X677","properties":{"id":"AC-Y549-X677","grid_x":677,"grid_y":549,"centroid":[-68.8807105,-8.8738965],"aggregation":"none","score_gradboost":0.1517142,"score_random_forest":0.1686282,"score_logistic_regression":0.5308063,"score_fuzzy_knn_k29":0.2973077},"geometry":{"type":"Polygon","coordinates":[[[-68.8847704,-8.8766029],[-68.8766488,-8.8766004],[-68.8766506,-8.8711899],[-68.8847721,-8.8711925],[-68.8847704,-8.8766029]]]}},{"type":"Feature","id":"AC-Y550-X671","properties":{"id":"AC-Y550-X671","grid_x":671,"grid_y":550,"centroid":[-68.9294408,-8.8684984],"aggregation":"none","score_gradboost":0.3154372,"score_random_forest":0.2972199,"score_logistic_regression":0.5899774,"score_fuzzy_knn_k29":0.6896351},"geometry":{"type":"Polygon","coordinates":[[[-68.9335011,-8.8712044],[-68.9253796,-8.8712028],[-68.9253807,-8.8657924],[-68.933502,-8.8657939],[-68.9335011,-8.8712044]]]}},{"type":"Feature","id":"AC-Y550-X672","properties":{"id":"AC-Y550-X672","grid_x":672,"grid_y":550,"centroid":[-68.9213194,-8.8684968],"aggregation":"none","score_gradboost":0.2072363,"score_random_forest":0.1207162,"score_logistic_regression":0.5191529,"score_fuzzy_knn_k29":0.4099588},"geometry":{"type":"Polygon","coordinates":[[[-68.9253796,-8.8712028],[-68.9172581,-8.8712011],[-68.9172593,-8.8657907],[-68.9253807,-8.8657924],[-68.9253796,-8.8712028]]]}},{"type":"Feature","id":"AC-Y550-X673","properties":{"id":"AC-Y550-X673","grid_x":673,"grid_y":550,"centroid":[-68.913198,-8.868495],"aggregation":"none","score_gradboost":0.2042983,"score_random_forest":0.2872925,"score_logistic_regression":0.5535645,"score_fuzzy_knn_k29":0.5726335},"geometry":{"type":"Polygon","coordinates":[[[-68.9172581,-8.8712011],[-68.9091366,-8.8711992],[-68.9091379,-8.8657888],[-68.9172593,-8.8657907],[-68.9172581,-8.8712011]]]}},{"type":"Feature","id":"AC-Y550-X674","properties":{"id":"AC-Y550-X674","grid_x":674,"grid_y":550,"centroid":[-68.9050765,-8.868493],"aggregation":"none","score_gradboost":0.1901374,"score_random_forest":0.2947052,"score_logistic_regression":0.5402309,"score_fuzzy_knn_k29":0.4699384},"geometry":{"type":"Polygon","coordinates":[[[-68.9091366,-8.8711992],[-68.9010151,-8.8711972],[-68.9010165,-8.8657868],[-68.9091379,-8.8657888],[-68.9091366,-8.8711992]]]}},{"type":"Feature","id":"AC-Y550-X675","properties":{"id":"AC-Y550-X675","grid_x":675,"grid_y":550,"centroid":[-68.8969551,-8.8684909],"aggregation":"none","score_gradboost":0.1340198,"score_random_forest":0.2639612,"score_logistic_regression":0.5844499,"score_fuzzy_knn_k29":0.5476763},"geometry":{"type":"Polygon","coordinates":[[[-68.9010151,-8.8711972],[-68.8928936,-8.8711949],[-68.8928952,-8.8657845],[-68.9010165,-8.8657868],[-68.9010151,-8.8711972]]]}},{"type":"Feature","id":"AC-Y550-X676","properties":{"id":"AC-Y550-X676","grid_x":676,"grid_y":550,"centroid":[-68.8888337,-8.8684885],"aggregation":"none","score_gradboost":0.0994004,"score_random_forest":0.1633686,"score_logistic_regression":0.5813491,"score_fuzzy_knn_k29":0.4880991},"geometry":{"type":"Polygon","coordinates":[[[-68.8928936,-8.8711949],[-68.8847721,-8.8711925],[-68.8847738,-8.8657821],[-68.8928952,-8.8657845],[-68.8928936,-8.8711949]]]}},{"type":"Feature","id":"AC-Y550-X677","properties":{"id":"AC-Y550-X677","grid_x":677,"grid_y":550,"centroid":[-68.8807122,-8.868486],"aggregation":"none","score_gradboost":0.1177461,"score_random_forest":0.1284831,"score_logistic_regression":0.5596002,"score_fuzzy_knn_k29":0.3447071},"geometry":{"type":"Polygon","coordinates":[[[-68.8847721,-8.8711925],[-68.8766506,-8.8711899],[-68.8766524,-8.8657795],[-68.8847738,-8.8657821],[-68.8847721,-8.8711925]]]}},{"type":"Feature","id":"AC-Y550-X678","properties":{"id":"AC-Y550-X678","grid_x":678,"grid_y":550,"centroid":[-68.8725908,-8.8684834],"aggregation":"none","score_gradboost":0.1085082,"score_random_forest":0.0926756,"score_logistic_regression":0.5481106,"score_fuzzy_knn_k29":0.2573147},"geometry":{"type":"Polygon","coordinates":[[[-68.8766506,-8.8711899],[-68.8685291,-8.8711872],[-68.868531,-8.8657767],[-68.8766524,-8.8657795],[-68.8766506,-8.8711899]]]}},{"type":"Feature","id":"AC-Y551-X671","properties":{"id":"AC-Y551-X671","grid_x":671,"grid_y":551,"centroid":[-68.9294419,-8.863088],"aggregation":"none","score_gradboost":0.1394184,"score_random_forest":0.2672882,"score_logistic_regression":0.6167194,"score_fuzzy_knn_k29":0.8060846},"geometry":{"type":"Polygon","coordinates":[[[-68.933502,-8.8657939],[-68.9253807,-8.8657924],[-68.9253817,-8.860382],[-68.933503,-8.8603835],[-68.933502,-8.8657939]]]}},{"type":"Feature","id":"AC-Y551-X672","properties":{"id":"AC-Y551-X672","grid_x":672,"grid_y":551,"centroid":[-68.9213205,-8.8630864],"aggregation":"none","score_gradboost":0.1818654,"score_random_forest":0.2663129,"score_logistic_regression":0.552023,"score_fuzzy_knn_k29":0.5794672},"geometry":{"type":"Polygon","coordinates":[[[-68.9253807,-8.8657924],[-68.9172593,-8.8657907],[-68.9172605,-8.8603803],[-68.9253817,-8.860382],[-68.9253807,-8.8657924]]]}},{"type":"Feature","id":"AC-Y551-X673","properties":{"id":"AC-Y551-X673","grid_x":673,"grid_y":551,"centroid":[-68.9131992,-8.8630846],"aggregation":"none","score_gradboost":0.1489706,"score_random_forest":0.1788033,"score_logistic_regression":0.5211262,"score_fuzzy_knn_k29":0.3449935},"geometry":{"type":"Polygon","coordinates":[[[-68.9172593,-8.8657907],[-68.9091379,-8.8657888],[-68.9091392,-8.8603784],[-68.9172605,-8.8603803],[-68.9172593,-8.8657907]]]}},{"type":"Feature","id":"AC-Y551-X674","properties":{"id":"AC-Y551-X674","grid_x":674,"grid_y":551,"centroid":[-68.9050779,-8.8630826],"aggregation":"none","score_gradboost":0.1266795,"score_random_forest":0.2280159,"score_logistic_regression":0.6029037,"score_fuzzy_knn_k29":0.6714004},"geometry":{"type":"Polygon","coordinates":[[[-68.9091379,-8.8657888],[-68.9010165,-8.8657868],[-68.901018,-8.8603763],[-68.9091392,-8.8603784],[-68.9091379,-8.8657888]]]}},{"type":"Feature","id":"AC-Y551-X675","properties":{"id":"AC-Y551-X675","grid_x":675,"grid_y":551,"centroid":[-68.8969566,-8.8630804],"aggregation":"none","score_gradboost":0.1319374,"score_random_forest":0.1309543,"score_logistic_regression":0.5230204,"score_fuzzy_knn_k29":0.3343921},"geometry":{"type":"Polygon","coordinates":[[[-68.9010165,-8.8657868],[-68.8928952,-8.8657845],[-68.8928967,-8.8603741],[-68.901018,-8.8603763],[-68.9010165,-8.8657868]]]}},{"type":"Feature","id":"AC-Y551-X676","properties":{"id":"AC-Y551-X676","grid_x":676,"grid_y":551,"centroid":[-68.8888353,-8.8630781],"aggregation":"none","score_gradboost":0.0959184,"score_random_forest":0.0874223,"score_logistic_regression":0.5292321,"score_fuzzy_knn_k29":0.2677278},"geometry":{"type":"Polygon","coordinates":[[[-68.8928952,-8.8657845],[-68.8847738,-8.8657821],[-68.8847755,-8.8603717],[-68.8928967,-8.8603741],[-68.8928952,-8.8657845]]]}},{"type":"Feature","id":"AC-Y551-X677","properties":{"id":"AC-Y551-X677","grid_x":677,"grid_y":551,"centroid":[-68.880714,-8.8630756],"aggregation":"none","score_gradboost":0.0750829,"score_random_forest":0.1050898,"score_logistic_regression":0.6115033,"score_fuzzy_knn_k29":0.5112243},"geometry":{"type":"Polygon","coordinates":[[[-68.8847738,-8.8657821],[-68.8766524,-8.8657795],[-68.8766542,-8.8603691],[-68.8847755,-8.8603717],[-68.8847738,-8.8657821]]]}},{"type":"Feature","id":"AC-Y551-X678","properties":{"id":"AC-Y551-X678","grid_x":678,"grid_y":551,"centroid":[-68.8725927,-8.8630729],"aggregation":"none","score_gradboost":0.1703776,"score_random_forest":0.0937564,"score_logistic_regression":0.5285811,"score_fuzzy_knn_k29":0.2208545},"geometry":{"type":"Polygon","coordinates":[[[-68.8766524,-8.8657795],[-68.868531,-8.8657767],[-68.868533,-8.8603663],[-68.8766542,-8.8603691],[-68.8766524,-8.8657795]]]}},{"type":"Feature","id":"AC-Y552-X672","properties":{"id":"AC-Y552-X672","grid_x":672,"grid_y":552,"centroid":[-68.9213217,-8.8576759],"aggregation":"none","score_gradboost":0.1694403,"score_random_forest":0.1784692,"score_logistic_regression":0.5888092,"score_fuzzy_knn_k29":0.7183179},"geometry":{"type":"Polygon","coordinates":[[[-68.9253817,-8.860382],[-68.9172605,-8.8603803],[-68.9172617,-8.8549698],[-68.9253828,-8.8549715],[-68.9253817,-8.860382]]]}},{"type":"Feature","id":"AC-Y552-X673","properties":{"id":"AC-Y552-X673","grid_x":673,"grid_y":552,"centroid":[-68.9132005,-8.8576741],"aggregation":"none","score_gradboost":0.1148274,"score_random_forest":0.1653198,"score_logistic_regression":0.6400423,"score_fuzzy_knn_k29":0.7700565},"geometry":{"type":"Polygon","coordinates":[[[-68.9172605,-8.8603803],[-68.9091392,-8.8603784],[-68.9091406,-8.8549679],[-68.9172617,-8.8549698],[-68.9172605,-8.8603803]]]}},{"type":"Feature","id":"AC-Y552-X674","properties":{"id":"AC-Y552-X674","grid_x":674,"grid_y":552,"centroid":[-68.9050793,-8.8576722],"aggregation":"none","score_gradboost":0.06072,"score_random_forest":0.0530552,"score_logistic_regression":0.4893066,"score_fuzzy_knn_k29":0.2859013},"geometry":{"type":"Polygon","coordinates":[[[-68.9091392,-8.8603784],[-68.901018,-8.8603763],[-68.9010194,-8.8549659],[-68.9091406,-8.8549679],[-68.9091392,-8.8603784]]]}},{"type":"Feature","id":"AC-Y552-X675","properties":{"id":"AC-Y552-X675","grid_x":675,"grid_y":552,"centroid":[-68.8969581,-8.85767],"aggregation":"none","score_gradboost":0.0792857,"score_random_forest":0.0847794,"score_logistic_regression":0.5625297,"score_fuzzy_knn_k29":0.3801575},"geometry":{"type":"Polygon","coordinates":[[[-68.901018,-8.8603763],[-68.8928967,-8.8603741],[-68.8928983,-8.8549637],[-68.9010194,-8.8549659],[-68.901018,-8.8603763]]]}},{"type":"Feature","id":"AC-Y552-X676","properties":{"id":"AC-Y552-X676","grid_x":676,"grid_y":552,"centroid":[-68.8888369,-8.8576677],"aggregation":"none","score_gradboost":0.0959184,"score_random_forest":0.0858162,"score_logistic_regression":0.5251353,"score_fuzzy_knn_k29":0.2125469},"geometry":{"type":"Polygon","coordinates":[[[-68.8928967,-8.8603741],[-68.8847755,-8.8603717],[-68.8847771,-8.8549612],[-68.8928983,-8.8549637],[-68.8928967,-8.8603741]]]}},{"type":"Feature","id":"AC-Y552-X677","properties":{"id":"AC-Y552-X677","grid_x":677,"grid_y":552,"centroid":[-68.8807157,-8.8576652],"aggregation":"none","score_gradboost":0.1097027,"score_random_forest":0.1135138,"score_logistic_regression":0.6026744,"score_fuzzy_knn_k29":0.5386488},"geometry":{"type":"Polygon","coordinates":[[[-68.8847755,-8.8603717],[-68.8766542,-8.8603691],[-68.876656,-8.8549587],[-68.8847771,-8.8549612],[-68.8847755,-8.8603717]]]}},{"type":"Feature","id":"AC-Y552-X678","properties":{"id":"AC-Y552-X678","grid_x":678,"grid_y":552,"centroid":[-68.8725945,-8.8576625],"aggregation":"none","score_gradboost":0.1737163,"score_random_forest":0.1106283,"score_logistic_regression":0.5764529,"score_fuzzy_knn_k29":0.4038162},"geometry":{"type":"Polygon","coordinates":[[[-68.8766542,-8.8603691],[-68.868533,-8.8603663],[-68.8685349,-8.8549559],[-68.876656,-8.8549587],[-68.8766542,-8.8603691]]]}},{"type":"Feature","id":"AC-Y553-X673","properties":{"id":"AC-Y553-X673","grid_x":673,"grid_y":553,"centroid":[-68.9132018,-8.8522637],"aggregation":"none","score_gradboost":0.1008248,"score_random_forest":0.1522963,"score_logistic_regression":0.6214263,"score_fuzzy_knn_k29":0.7056753},"geometry":{"type":"Polygon","coordinates":[[[-68.9172617,-8.8549698],[-68.9091406,-8.8549679],[-68.9091419,-8.8495575],[-68.9172629,-8.8495594],[-68.9172617,-8.8549698]]]}},{"type":"Feature","id":"AC-Y553-X674","properties":{"id":"AC-Y553-X674","grid_x":674,"grid_y":553,"centroid":[-68.9050807,-8.8522617],"aggregation":"none","score_gradboost":0.0864312,"score_random_forest":0.102839,"score_logistic_regression":0.5005379,"score_fuzzy_knn_k29":0.2602105},"geometry":{"type":"Polygon","coordinates":[[[-68.9091406,-8.8549679],[-68.9010194,-8.8549659],[-68.9010209,-8.8495555],[-68.9091419,-8.8495575],[-68.9091406,-8.8549679]]]}},{"type":"Feature","id":"AC-Y553-X675","properties":{"id":"AC-Y553-X675","grid_x":675,"grid_y":553,"centroid":[-68.8969596,-8.8522596],"aggregation":"none","score_gradboost":0.0970529,"score_random_forest":0.0824669,"score_logistic_regression":0.5010987,"score_fuzzy_knn_k29":0.1699419},"geometry":{"type":"Polygon","coordinates":[[[-68.9010194,-8.8549659],[-68.8928983,-8.8549637],[-68.8928998,-8.8495532],[-68.9010209,-8.8495555],[-68.9010194,-8.8549659]]]}},{"type":"Feature","id":"AC-Y553-X676","properties":{"id":"AC-Y553-X676","grid_x":676,"grid_y":553,"centroid":[-68.8888385,-8.8522573],"aggregation":"none","score_gradboost":0.0942971,"score_random_forest":0.0932452,"score_logistic_regression":0.5067843,"score_fuzzy_knn_k29":0.1806284},"geometry":{"type":"Polygon","coordinates":[[[-68.8928983,-8.8549637],[-68.8847771,-8.8549612],[-68.8847788,-8.8495508],[-68.8928998,-8.8495532],[-68.8928983,-8.8549637]]]}},{"type":"Feature","id":"AC-Y553-X677","properties":{"id":"AC-Y553-X677","grid_x":677,"grid_y":553,"centroid":[-68.8807175,-8.8522548],"aggregation":"none","score_gradboost":0.1645851,"score_random_forest":0.0940059,"score_logistic_regression":0.5175839,"score_fuzzy_knn_k29":0.1920892},"geometry":{"type":"Polygon","coordinates":[[[-68.8847771,-8.8549612],[-68.876656,-8.8549587],[-68.8766578,-8.8495482],[-68.8847788,-8.8495508],[-68.8847771,-8.8549612]]]}},{"type":"Feature","id":"AC-Y554-X674","properties":{"id":"AC-Y554-X674","grid_x":674,"grid_y":554,"centroid":[-68.9050821,-8.8468513],"aggregation":"none","score_gradboost":0.0502817,"score_random_forest":0.1001889,"score_logistic_regression":0.5504473,"score_fuzzy_knn_k29":0.3950361},"geometry":{"type":"Polygon","coordinates":[[[-68.9091419,-8.8495575],[-68.9010209,-8.8495555],[-68.9010223,-8.844145],[-68.9091432,-8.8441471],[-68.9091419,-8.8495575]]]}},{"type":"Feature","id":"AC-Y554-X675","properties":{"id":"AC-Y554-X675","grid_x":675,"grid_y":554,"centroid":[-68.8969611,-8.8468491],"aggregation":"none","score_gradboost":0.0601388,"score_random_forest":0.0783649,"score_logistic_regression":0.4881346,"score_fuzzy_knn_k29":0.113834},"geometry":{"type":"Polygon","coordinates":[[[-68.9010209,-8.8495555],[-68.8928998,-8.8495532],[-68.8929014,-8.8441428],[-68.9010223,-8.844145],[-68.9010209,-8.8495555]]]}},{"type":"Feature","id":"AC-Y554-X676","properties":{"id":"AC-Y554-X676","grid_x":676,"grid_y":554,"centroid":[-68.8888402,-8.8468468],"aggregation":"none","score_gradboost":0.1319052,"score_random_forest":0.0990955,"score_logistic_regression":0.5514915,"score_fuzzy_knn_k29":0.2693504},"geometry":{"type":"Polygon","coordinates":[[[-68.8928998,-8.8495532],[-68.8847788,-8.8495508],[-68.8847805,-8.8441404],[-68.8929014,-8.8441428],[-68.8928998,-8.8495532]]]}},{"type":"Feature","id":"AC-Y555-X674","properties":{"id":"AC-Y555-X674","grid_x":674,"grid_y":555,"centroid":[-68.9050835,-8.8414409],"aggregation":"none","score_gradboost":0.0609347,"score_random_forest":0.0987832,"score_logistic_regression":0.5930905,"score_fuzzy_knn_k29":0.4828175},"geometry":{"type":"Polygon","coordinates":[[[-68.9091432,-8.8441471],[-68.9010223,-8.844145],[-68.9010238,-8.8387346],[-68.9091445,-8.8387366],[-68.9091432,-8.8441471]]]}},{"type":"Feature","id":"AC-Y555-X675","properties":{"id":"AC-Y555-X675","grid_x":675,"grid_y":555,"centroid":[-68.8969626,-8.8414387],"aggregation":"none","score_gradboost":0.0869695,"score_random_forest":0.0863612,"score_logistic_regression":0.5139544,"score_fuzzy_knn_k29":0.1973512},"geometry":{"type":"Polygon","coordinates":[[[-68.9010223,-8.844145],[-68.8929014,-8.8441428],[-68.892903,-8.8387324],[-68.9010238,-8.8387346],[-68.9010223,-8.844145]]]}},{"type":"Feature","id":"AC-Y556-X674","properties":{"id":"AC-Y556-X674","grid_x":674,"grid_y":556,"centroid":[-68.9050848,-8.8360304],"aggregation":"none","score_gradboost":0.0562752,"score_random_forest":0.0886798,"score_logistic_regression":0.5586189,"score_fuzzy_knn_k29":0.2633672},"geometry":{"type":"Polygon","coordinates":[[[-68.9091445,-8.8387366],[-68.9010238,-8.8387346],[-68.9010252,-8.8333241],[-68.9091459,-8.8333262],[-68.9091445,-8.8387366]]]}},{"type":"Feature","id":"AC-Y556-X675","properties":{"id":"AC-Y556-X675","grid_x":675,"grid_y":556,"centroid":[-68.8969641,-8.8360283],"aggregation":"none","score_gradboost":0.0385408,"score_random_forest":0.0611291,"score_logistic_regression":0.39552,"score_fuzzy_knn_k29":0.0687486},"geometry":{"type":"Polygon","coordinates":[[[-68.9010238,-8.8387346],[-68.892903,-8.8387324],[-68.8929045,-8.8333219],[-68.9010252,-8.8333241],[-68.9010238,-8.8387346]]]}},{"type":"Feature","id":"AC-Y562-X669","properties":{"id":"AC-Y562-X669","grid_x":669,"grid_y":562,"centroid":[-68.9456932,-8.8035758],"aggregation":"none","score_gradboost":0.337127,"score_random_forest":0.2028826,"score_logistic_regression":0.6008845,"score_fuzzy_knn_k29":0.6209942},"geometry":{"type":"Polygon","coordinates":[[[-68.9497529,-8.8062816],[-68.9416328,-8.8062804],[-68.9416336,-8.80087],[-68.9497536,-8.8008711],[-68.9497529,-8.8062816]]]}},{"type":"Feature","id":"AC-Y563-X669","properties":{"id":"AC-Y563-X669","grid_x":669,"grid_y":563,"centroid":[-68.945694,-8.7981653],"aggregation":"none","score_gradboost":0.262854,"score_random_forest":0.169303,"score_logistic_regression":0.6113962,"score_fuzzy_knn_k29":0.7018921},"geometry":{"type":"Polygon","coordinates":[[[-68.9497536,-8.8008711],[-68.9416336,-8.80087],[-68.9416345,-8.7954595],[-68.9497543,-8.7954607],[-68.9497536,-8.8008711]]]}},{"type":"Feature","id":"AC-Y544-X669","properties":{"id":"AC-Y544-X669","grid_x":669,"grid_y":544,"centroid":[-68.9456789,-8.9009637],"aggregation":"none","score_gradboost":0.0968526,"score_random_forest":0.161475,"score_logistic_regression":0.5538362,"score_fuzzy_knn_k29":0.3224856},"geometry":{"type":"Polygon","coordinates":[[[-68.9497396,-8.9036695],[-68.9416174,-8.9036683],[-68.9416183,-8.8982579],[-68.9497404,-8.8982591],[-68.9497396,-8.9036695]]]}},{"type":"Feature","id":"AC-Y544-X670","properties":{"id":"AC-Y544-X670","grid_x":670,"grid_y":544,"centroid":[-68.9375568,-8.9009624],"aggregation":"none","score_gradboost":0.1047896,"score_random_forest":0.144433,"score_logistic_regression":0.5744595,"score_fuzzy_knn_k29":0.3818419},"geometry":{"type":"Polygon","coordinates":[[[-68.9416174,-8.9036683],[-68.9334952,-8.9036669],[-68.9334962,-8.8982565],[-68.9416183,-8.8982579],[-68.9416174,-8.9036683]]]}}]}