{"type":"FeatureCollection","features":[{"type":"Feature","id":"AC-Y850-X84","properties":{"id":"AC-Y850-X84","grid_x":84,"grid_y":850,"centroid":[-73.6727492,-7.2213225],"aggregation":"none","score_gradboost":0.0102074,"score_random_forest":0.0317595,"score_logistic_regression":0.0407984,"score_fuzzy_knn_k29":0.0},"geometry":{"type":"Polygon","coordinates":[[[-73.6768078,-7.2239775],[-73.6687461,-7.2240603],[-73.6686907,-7.2186675],[-73.6767523,-7.2185848],[-73.6768078,-7.2239775]]]}},{"type":"Feature","id":"AC-Y850-X85","properties":{"id":"AC-Y850-X85","grid_x":85,"grid_y":850,"centroid":[-73.6646875,-7.2214052],"aggregation":"none","score_gradboost":0.0082143,"score_random_forest":0.0137824,"score_logistic_regression":0.0560185,"score_fuzzy_knn_k29":0.0},"geometry":{"type":"Polygon","coordinates":[[[-73.6687461,-7.2240603],[-73.6606843,-7.2241429],[-73.6606289,-7.21875],[-73.6686907,-7.2186675],[-73.6687461,-7.2240603]]]}},{"type":"Feature","id":"AC-Y850-X86","properties":{"id":"AC-Y850-X86","grid_x":86,"grid_y":850,"centroid":[-73.6566257,-7.2214877],"aggregation":"none","score_gradboost":0.0078762,"score_random_forest":0.0142831,"score_logistic_regression":0.0436782,"score_fuzzy_knn_k29":0.0},"geometry":{"type":"Polygon","coordinates":[[[-73.6606843,-7.2241429],[-73.6526224,-7.2242254],[-73.6525671,-7.2188324],[-73.6606289,-7.21875],[-73.6606843,-7.2241429]]]}},{"type":"Feature","id":"AC-Y850-X87","properties":{"id":"AC-Y850-X87","grid_x":87,"grid_y":850,"centroid":[-73.6485638,-7.2215701],"aggregation":"none","score_gradboost":0.0078762,"score_random_forest":0.0039453,"score_logistic_regression":0.0532863,"score_fuzzy_knn_k29":0.0},"geometry":{"type":"Polygon","coordinates":[[[-73.6526224,-7.2242254],[-73.6445604,-7.2243077],[-73.6445052,-7.2189147],[-73.6525671,-7.2188324],[-73.6526224,-7.2242254]]]}},{"type":"Feature","id":"AC-Y850-X88","properties":{"id":"AC-Y850-X88","grid_x":88,"grid_y":850,"centroid":[-73.6405018,-7.2216523],"aggregation":"none","score_gradboost":0.0071326,"score_random_forest":0.0099465,"score_logistic_regression":0.0563979,"score_fuzzy_knn_k29":0.0360807},"geometry":{"type":"Polygon","coordinates":[[[-73.6445604,-7.2243077],[-73.6364983,-7.2243899],[-73.6364432,-7.2189968],[-73.6445052,-7.2189147],[-73.6445604,-7.2243077]]]}},{"type":"Feature","id":"AC-Y850-X89","properties":{"id":"AC-Y850-X89","grid_x":89,"grid_y":850,"centroid":[-73.6324397,-7.2217344],"aggregation":"none","score_gradboost":0.0136538,"score_random_forest":0.0244076,"score_logistic_regression":0.0620748,"score_fuzzy_knn_k29":0.0445867},"geometry":{"type":"Polygon","coordinates":[[[-73.6364983,-7.2243899],[-73.6284361,-7.2244719],[-73.6283812,-7.2190788],[-73.6364432,-7.2189968],[-73.6364983,-7.2243899]]]}},{"type":"Feature","id":"AC-Y850-X90","properties":{"id":"AC-Y850-X90","grid_x":90,"grid_y":850,"centroid":[-73.6243775,-7.2218163],"aggregation":"none","score_gradboost":0.0280003,"score_random_forest":0.0585318,"score_logistic_regression":0.0638185,"score_fuzzy_knn_k29":0.0525594},"geometry":{"type":"Polygon","coordinates":[[[-73.6284361,-7.2244719],[-73.6203738,-7.2245538],[-73.620319,-7.2191607],[-73.6283812,-7.2190788],[-73.6284361,-7.2244719]]]}},{"type":"Feature","id":"AC-Y850-X91","properties":{"id":"AC-Y850-X91","grid_x":91,"grid_y":850,"centroid":[-73.6163152,-7.2218981],"aggregation":"none","score_gradboost":0.0255489,"score_random_forest":0.0438086,"score_logistic_regression":0.0686128,"score_fuzzy_knn_k29":0.0809878},"geometry":{"type":"Polygon","coordinates":[[[-73.6203738,-7.2245538],[-73.6123115,-7.2246356],[-73.6122567,-7.2192424],[-73.620319,-7.2191607],[-73.6203738,-7.2245538]]]}},{"type":"Feature","id":"AC-Y850-X92","properties":{"id":"AC-Y850-X92","grid_x":92,"grid_y":850,"centroid":[-73.6082529,-7.2219798],"aggregation":"none","score_gradboost":0.0277209,"score_random_forest":0.0480715,"score_logistic_regression":0.0744547,"score_fuzzy_knn_k29":0.0862172},"geometry":{"type":"Polygon","coordinates":[[[-73.6123115,-7.2246356],[-73.604249,-7.2247172],[-73.6041943,-7.2193239],[-73.6122567,-7.2192424],[-73.6123115,-7.2246356]]]}},{"type":"Feature","id":"AC-Y850-X93","properties":{"id":"AC-Y850-X93","grid_x":93,"grid_y":850,"centroid":[-73.6001904,-7.2220613],"aggregation":"none","score_gradboost":0.02644,"score_random_forest":0.06602,"score_logistic_regression":0.0671056,"score_fuzzy_knn_k29":0.0564364},"geometry":{"type":"Polygon","coordinates":[[[-73.604249,-7.2247172],[-73.5961864,-7.2247987],[-73.5961319,-7.2194053],[-73.6041943,-7.2193239],[-73.604249,-7.2247172]]]}},{"type":"Feature","id":"AC-Y850-X94","properties":{"id":"AC-Y850-X94","grid_x":94,"grid_y":850,"centroid":[-73.5921279,-7.2221427],"aggregation":"none","score_gradboost":0.0554682,"score_random_forest":0.1192557,"score_logistic_regression":0.0704146,"score_fuzzy_knn_k29":0.0851151},"geometry":{"type":"Polygon","coordinates":[[[-73.5961864,-7.2247987],[-73.5881238,-7.22488],[-73.5880693,-7.2194866],[-73.5961319,-7.2194053],[-73.5961864,-7.2247987]]]}},{"type":"Feature","id":"AC-Y850-X95","properties":{"id":"AC-Y850-X95","grid_x":95,"grid_y":850,"centroid":[-73.5840652,-7.2222239],"aggregation":"none","score_gradboost":0.0503589,"score_random_forest":0.0734077,"score_logistic_regression":0.0600615,"score_fuzzy_knn_k29":0.0503543},"geometry":{"type":"Polygon","coordinates":[[[-73.5881238,-7.22488],[-73.580061,-7.2249612],[-73.5800066,-7.2195677],[-73.5880693,-7.2194866],[-73.5881238,-7.22488]]]}},{"type":"Feature","id":"AC-Y850-X96","properties":{"id":"AC-Y850-X96","grid_x":96,"grid_y":850,"centroid":[-73.5760025,-7.222305],"aggregation":"none","score_gradboost":0.0625339,"score_random_forest":0.1146599,"score_logistic_regression":0.0823053,"score_fuzzy_knn_k29":0.1077164},"geometry":{"type":"Polygon","coordinates":[[[-73.580061,-7.2249612],[-73.5719982,-7.2250423],[-73.5719439,-7.2196487],[-73.5800066,-7.2195677],[-73.580061,-7.2249612]]]}},{"type":"Feature","id":"AC-Y850-X97","properties":{"id":"AC-Y850-X97","grid_x":97,"grid_y":850,"centroid":[-73.5679396,-7.222386],"aggregation":"none","score_gradboost":0.0296535,"score_random_forest":0.0623034,"score_logistic_regression":0.0718388,"score_fuzzy_knn_k29":0.0501835},"geometry":{"type":"Polygon","coordinates":[[[-73.5719982,-7.2250423],[-73.5639353,-7.2251232],[-73.5638811,-7.2197296],[-73.5719439,-7.2196487],[-73.5719982,-7.2250423]]]}},{"type":"Feature","id":"AC-Y850-X98","properties":{"id":"AC-Y850-X98","grid_x":98,"grid_y":850,"centroid":[-73.5598767,-7.2224668],"aggregation":"none","score_gradboost":0.019308,"score_random_forest":0.0449884,"score_logistic_regression":0.0755594,"score_fuzzy_knn_k29":0.0405535},"geometry":{"type":"Polygon","coordinates":[[[-73.5639353,-7.2251232],[-73.5558722,-7.225204],[-73.5558181,-7.2198103],[-73.5638811,-7.2197296],[-73.5639353,-7.2251232]]]}},{"type":"Feature","id":"AC-Y850-X99","properties":{"id":"AC-Y850-X99","grid_x":99,"grid_y":850,"centroid":[-73.5518137,-7.2225474],"aggregation":"none","score_gradboost":0.0252313,"score_random_forest":0.077958,"score_logistic_regression":0.0962608,"score_fuzzy_knn_k29":0.0547859},"geometry":{"type":"Polygon","coordinates":[[[-73.5558722,-7.225204],[-73.5478091,-7.2252846],[-73.5477551,-7.2198909],[-73.5558181,-7.2198103],[-73.5558722,-7.225204]]]}},{"type":"Feature","id":"AC-Y850-X100","properties":{"id":"AC-Y850-X100","grid_x":100,"grid_y":850,"centroid":[-73.5437505,-7.222628],"aggregation":"none","score_gradboost":0.0343754,"score_random_forest":0.0472417,"score_logistic_regression":0.1041983,"score_fuzzy_knn_k29":0.0579901},"geometry":{"type":"Polygon","coordinates":[[[-73.5478091,-7.2252846],[-73.5397459,-7.2253651],[-73.539692,-7.2199713],[-73.5477551,-7.2198909],[-73.5478091,-7.2252846]]]}},{"type":"Feature","id":"AC-Y850-X101","properties":{"id":"AC-Y850-X101","grid_x":101,"grid_y":850,"centroid":[-73.5356873,-7.2227084],"aggregation":"none","score_gradboost":0.0257186,"score_random_forest":0.0406825,"score_logistic_regression":0.1093226,"score_fuzzy_knn_k29":0.0522675},"geometry":{"type":"Polygon","coordinates":[[[-73.5397459,-7.2253651],[-73.5316826,-7.2254454],[-73.5316288,-7.2200516],[-73.539692,-7.2199713],[-73.5397459,-7.2253651]]]}},{"type":"Feature","id":"AC-Y850-X102","properties":{"id":"AC-Y850-X102","grid_x":102,"grid_y":850,"centroid":[-73.527624,-7.2227886],"aggregation":"none","score_gradboost":0.0190457,"score_random_forest":0.0226517,"score_logistic_regression":0.1080073,"score_fuzzy_knn_k29":0.0329684},"geometry":{"type":"Polygon","coordinates":[[[-73.5316826,-7.2254454],[-73.5236192,-7.2255256],[-73.5235655,-7.2201317],[-73.5316288,-7.2200516],[-73.5316826,-7.2254454]]]}},{"type":"Feature","id":"AC-Y850-X103","properties":{"id":"AC-Y850-X103","grid_x":103,"grid_y":850,"centroid":[-73.5195607,-7.2228687],"aggregation":"none","score_gradboost":0.0087983,"score_random_forest":0.0062786,"score_logistic_regression":0.1104903,"score_fuzzy_knn_k29":0.0123981},"geometry":{"type":"Polygon","coordinates":[[[-73.5236192,-7.2255256],[-73.5155557,-7.2256057],[-73.5155021,-7.2202117],[-73.5235655,-7.2201317],[-73.5236192,-7.2255256]]]}},{"type":"Feature","id":"AC-Y850-X104","properties":{"id":"AC-Y850-X104","grid_x":104,"grid_y":850,"centroid":[-73.5114972,-7.2229487],"aggregation":"none","score_gradboost":0.0215102,"score_random_forest":0.0152434,"score_logistic_regression":0.1163651,"score_fuzzy_knn_k29":0.0},"geometry":{"type":"Polygon","coordinates":[[[-73.5155557,-7.2256057],[-73.5074922,-7.2256856],[-73.5074386,-7.2202916],[-73.5155021,-7.2202117],[-73.5155557,-7.2256057]]]}},{"type":"Feature","id":"AC-Y850-X105","properties":{"id":"AC-Y850-X105","grid_x":105,"grid_y":850,"centroid":[-73.5034336,-7.2230285],"aggregation":"none","score_gradboost":0.0080608,"score_random_forest":0.004141,"score_logistic_regression":0.1123774,"score_fuzzy_knn_k29":0.0156979},"geometry":{"type":"Polygon","coordinates":[[[-73.5074922,-7.2256856],[-73.4994285,-7.2257654],[-73.4993751,-7.2203713],[-73.5074386,-7.2202916],[-73.5074922,-7.2256856]]]}},{"type":"Feature","id":"AC-Y851-X87","properties":{"id":"AC-Y851-X87","grid_x":87,"grid_y":851,"centroid":[-73.6485086,-7.2161771],"aggregation":"none","score_gradboost":0.0078762,"score_random_forest":0.0043162,"score_logistic_regression":0.0526855,"score_fuzzy_knn_k29":0.0},"geometry":{"type":"Polygon","coordinates":[[[-73.6525671,-7.2188324],[-73.6445052,-7.2189147],[-73.6444501,-7.2135217],[-73.6525119,-7.2134395],[-73.6525671,-7.2188324]]]}},{"type":"Feature","id":"AC-Y851-X88","properties":{"id":"AC-Y851-X88","grid_x":88,"grid_y":851,"centroid":[-73.6404467,-7.2162593],"aggregation":"none","score_gradboost":0.0123881,"score_random_forest":0.0049393,"score_logistic_regression":0.0670429,"score_fuzzy_knn_k29":0.035515},"geometry":{"type":"Polygon","coordinates":[[[-73.6445052,-7.2189147],[-73.6364432,-7.2189968],[-73.6363882,-7.2136038],[-73.6444501,-7.2135217],[-73.6445052,-7.2189147]]]}},{"type":"Feature","id":"AC-Y851-X89","properties":{"id":"AC-Y851-X89","grid_x":89,"grid_y":851,"centroid":[-73.6323847,-7.2163413],"aggregation":"none","score_gradboost":0.0123881,"score_random_forest":0.0072444,"score_logistic_regression":0.0663034,"score_fuzzy_knn_k29":0.0408919},"geometry":{"type":"Polygon","coordinates":[[[-73.6364432,-7.2189968],[-73.6283812,-7.2190788],[-73.6283262,-7.2136857],[-73.6363882,-7.2136038],[-73.6364432,-7.2189968]]]}},{"type":"Feature","id":"AC-Y851-X90","properties":{"id":"AC-Y851-X90","grid_x":90,"grid_y":851,"centroid":[-73.6243226,-7.2164232],"aggregation":"none","score_gradboost":0.0686332,"score_random_forest":0.0343917,"score_logistic_regression":0.0803417,"score_fuzzy_knn_k29":0.0690141},"geometry":{"type":"Polygon","coordinates":[[[-73.6283812,-7.2190788],[-73.620319,-7.2191607],[-73.6202641,-7.2137675],[-73.6283262,-7.2136857],[-73.6283812,-7.2190788]]]}},{"type":"Feature","id":"AC-Y851-X91","properties":{"id":"AC-Y851-X91","grid_x":91,"grid_y":851,"centroid":[-73.6162604,-7.2165049],"aggregation":"none","score_gradboost":0.0702245,"score_random_forest":0.0477703,"score_logistic_regression":0.0833975,"score_fuzzy_knn_k29":0.0765404},"geometry":{"type":"Polygon","coordinates":[[[-73.620319,-7.2191607],[-73.6122567,-7.2192424],[-73.612202,-7.2138491],[-73.6202641,-7.2137675],[-73.620319,-7.2191607]]]}},{"type":"Feature","id":"AC-Y851-X92","properties":{"id":"AC-Y851-X92","grid_x":92,"grid_y":851,"centroid":[-73.6081982,-7.2165865],"aggregation":"none","score_gradboost":0.0702245,"score_random_forest":0.0495419,"score_logistic_regression":0.0842033,"score_fuzzy_knn_k29":0.074172},"geometry":{"type":"Polygon","coordinates":[[[-73.6122567,-7.2192424],[-73.6041943,-7.2193239],[-73.6041397,-7.2139306],[-73.612202,-7.2138491],[-73.6122567,-7.2192424]]]}},{"type":"Feature","id":"AC-Y851-X93","properties":{"id":"AC-Y851-X93","grid_x":93,"grid_y":851,"centroid":[-73.6001358,-7.216668],"aggregation":"none","score_gradboost":0.0263981,"score_random_forest":0.0384597,"score_logistic_regression":0.0729764,"score_fuzzy_knn_k29":0.0542675},"geometry":{"type":"Polygon","coordinates":[[[-73.6041943,-7.2193239],[-73.5961319,-7.2194053],[-73.5960773,-7.214012],[-73.6041397,-7.2139306],[-73.6041943,-7.2193239]]]}},{"type":"Feature","id":"AC-Y851-X94","properties":{"id":"AC-Y851-X94","grid_x":94,"grid_y":851,"centroid":[-73.5920733,-7.2167493],"aggregation":"none","score_gradboost":0.0255489,"score_random_forest":0.0434756,"score_logistic_regression":0.0727912,"score_fuzzy_knn_k29":0.0583505},"geometry":{"type":"Polygon","coordinates":[[[-73.5961319,-7.2194053],[-73.5880693,-7.2194866],[-73.5880149,-7.2140932],[-73.5960773,-7.214012],[-73.5961319,-7.2194053]]]}},{"type":"Feature","id":"AC-Y851-X95","properties":{"id":"AC-Y851-X95","grid_x":95,"grid_y":851,"centroid":[-73.5840108,-7.2168305],"aggregation":"none","score_gradboost":0.0185217,"score_random_forest":0.059203,"score_logistic_regression":0.0644068,"score_fuzzy_knn_k29":0.0486101},"geometry":{"type":"Polygon","coordinates":[[[-73.5880693,-7.2194866],[-73.5800066,-7.2195677],[-73.5799523,-7.2141743],[-73.5880149,-7.2140932],[-73.5880693,-7.2194866]]]}},{"type":"Feature","id":"AC-Y851-X96","properties":{"id":"AC-Y851-X96","grid_x":96,"grid_y":851,"centroid":[-73.5759481,-7.2169115],"aggregation":"none","score_gradboost":0.0185217,"score_random_forest":0.0610633,"score_logistic_regression":0.0661868,"score_fuzzy_knn_k29":0.0475491},"geometry":{"type":"Polygon","coordinates":[[[-73.5800066,-7.2195677],[-73.5719439,-7.2196487],[-73.5718896,-7.2142552],[-73.5799523,-7.2141743],[-73.5800066,-7.2195677]]]}},{"type":"Feature","id":"AC-Y851-X97","properties":{"id":"AC-Y851-X97","grid_x":97,"grid_y":851,"centroid":[-73.5678854,-7.2169924],"aggregation":"none","score_gradboost":0.0277209,"score_random_forest":0.0487173,"score_logistic_regression":0.0823967,"score_fuzzy_knn_k29":0.054326},"geometry":{"type":"Polygon","coordinates":[[[-73.5719439,-7.2196487],[-73.5638811,-7.2197296],[-73.5638269,-7.214336],[-73.5718896,-7.2142552],[-73.5719439,-7.2196487]]]}},{"type":"Feature","id":"AC-Y851-X98","properties":{"id":"AC-Y851-X98","grid_x":98,"grid_y":851,"centroid":[-73.5598226,-7.2170731],"aggregation":"none","score_gradboost":0.020075,"score_random_forest":0.0332199,"score_logistic_regression":0.0894902,"score_fuzzy_knn_k29":0.042564},"geometry":{"type":"Polygon","coordinates":[[[-73.5638811,-7.2197296],[-73.5558181,-7.2198103],[-73.5557641,-7.2144166],[-73.5638269,-7.214336],[-73.5638811,-7.2197296]]]}},{"type":"Feature","id":"AC-Y851-X99","properties":{"id":"AC-Y851-X99","grid_x":99,"grid_y":851,"centroid":[-73.5517596,-7.2171537],"aggregation":"none","score_gradboost":0.0156282,"score_random_forest":0.069904,"score_logistic_regression":0.0848872,"score_fuzzy_knn_k29":0.0352088},"geometry":{"type":"Polygon","coordinates":[[[-73.5558181,-7.2198103],[-73.5477551,-7.2198909],[-73.5477011,-7.2144971],[-73.5557641,-7.2144166],[-73.5558181,-7.2198103]]]}},{"type":"Feature","id":"AC-Y851-X100","properties":{"id":"AC-Y851-X100","grid_x":100,"grid_y":851,"centroid":[-73.5436966,-7.2172342],"aggregation":"none","score_gradboost":0.0327729,"score_random_forest":0.0504299,"score_logistic_regression":0.1172918,"score_fuzzy_knn_k29":0.0375708},"geometry":{"type":"Polygon","coordinates":[[[-73.5477551,-7.2198909],[-73.539692,-7.2199713],[-73.5396381,-7.2145775],[-73.5477011,-7.2144971],[-73.5477551,-7.2198909]]]}},{"type":"Feature","id":"AC-Y851-X101","properties":{"id":"AC-Y851-X101","grid_x":101,"grid_y":851,"centroid":[-73.5356335,-7.2173145],"aggregation":"none","score_gradboost":0.0237003,"score_random_forest":0.0338003,"score_logistic_regression":0.1108834,"score_fuzzy_knn_k29":0.028789},"geometry":{"type":"Polygon","coordinates":[[[-73.539692,-7.2199713],[-73.5316288,-7.2200516],[-73.531575,-7.2146577],[-73.5396381,-7.2145775],[-73.539692,-7.2199713]]]}},{"type":"Feature","id":"AC-Y851-X102","properties":{"id":"AC-Y851-X102","grid_x":102,"grid_y":851,"centroid":[-73.5275703,-7.2173947],"aggregation":"none","score_gradboost":0.0244705,"score_random_forest":0.0256675,"score_logistic_regression":0.1212067,"score_fuzzy_knn_k29":0.0242204},"geometry":{"type":"Polygon","coordinates":[[[-73.5316288,-7.2200516],[-73.5235655,-7.2201317],[-73.5235118,-7.2147378],[-73.531575,-7.2146577],[-73.5316288,-7.2200516]]]}},{"type":"Feature","id":"AC-Y851-X103","properties":{"id":"AC-Y851-X103","grid_x":103,"grid_y":851,"centroid":[-73.519507,-7.2174748],"aggregation":"none","score_gradboost":0.0241263,"score_random_forest":0.0220983,"score_logistic_regression":0.12618,"score_fuzzy_knn_k29":0.0124014},"geometry":{"type":"Polygon","coordinates":[[[-73.5235655,-7.2201317],[-73.5155021,-7.2202117],[-73.5154485,-7.2148177],[-73.5235118,-7.2147378],[-73.5235655,-7.2201317]]]}},{"type":"Feature","id":"AC-Y852-X91","properties":{"id":"AC-Y852-X91","grid_x":91,"grid_y":852,"centroid":[-73.6162057,-7.2111117],"aggregation":"none","score_gradboost":0.0150857,"score_random_forest":0.0114595,"score_logistic_regression":0.0747712,"score_fuzzy_knn_k29":0.0417995},"geometry":{"type":"Polygon","coordinates":[[[-73.6202641,-7.2137675],[-73.612202,-7.2138491],[-73.6121473,-7.2084559],[-73.6202094,-7.2083743],[-73.6202641,-7.2137675]]]}},{"type":"Feature","id":"AC-Y852-X92","properties":{"id":"AC-Y852-X92","grid_x":92,"grid_y":852,"centroid":[-73.6081435,-7.2111933],"aggregation":"none","score_gradboost":0.0140069,"score_random_forest":0.0105964,"score_logistic_regression":0.0728381,"score_fuzzy_knn_k29":0.040801},"geometry":{"type":"Polygon","coordinates":[[[-73.612202,-7.2138491],[-73.6041397,-7.2139306],[-73.6040851,-7.2085373],[-73.6121473,-7.2084559],[-73.612202,-7.2138491]]]}},{"type":"Feature","id":"AC-Y852-X93","properties":{"id":"AC-Y852-X93","grid_x":93,"grid_y":852,"centroid":[-73.6000812,-7.2112746],"aggregation":"none","score_gradboost":0.0795026,"score_random_forest":0.0436165,"score_logistic_regression":0.0931644,"score_fuzzy_knn_k29":0.0506522},"geometry":{"type":"Polygon","coordinates":[[[-73.6041397,-7.2139306],[-73.5960773,-7.214012],[-73.5960228,-7.2086186],[-73.6040851,-7.2085373],[-73.6041397,-7.2139306]]]}},{"type":"Feature","id":"AC-Y852-X94","properties":{"id":"AC-Y852-X94","grid_x":94,"grid_y":852,"centroid":[-73.5920189,-7.2113559],"aggregation":"none","score_gradboost":0.020075,"score_random_forest":0.0253947,"score_logistic_regression":0.0794071,"score_fuzzy_knn_k29":0.0514705},"geometry":{"type":"Polygon","coordinates":[[[-73.5960773,-7.214012],[-73.5880149,-7.2140932],[-73.5879604,-7.2086998],[-73.5960228,-7.2086186],[-73.5960773,-7.214012]]]}},{"type":"Feature","id":"AC-Y852-X95","properties":{"id":"AC-Y852-X95","grid_x":95,"grid_y":852,"centroid":[-73.5839564,-7.211437],"aggregation":"none","score_gradboost":0.0244434,"score_random_forest":0.0445629,"score_logistic_regression":0.0783073,"score_fuzzy_knn_k29":0.0520123},"geometry":{"type":"Polygon","coordinates":[[[-73.5880149,-7.2140932],[-73.5799523,-7.2141743],[-73.579898,-7.2087808],[-73.5879604,-7.2086998],[-73.5880149,-7.2140932]]]}},{"type":"Feature","id":"AC-Y852-X96","properties":{"id":"AC-Y852-X96","grid_x":96,"grid_y":852,"centroid":[-73.5758938,-7.211518],"aggregation":"none","score_gradboost":0.0263981,"score_random_forest":0.0622807,"score_logistic_regression":0.0762553,"score_fuzzy_knn_k29":0.0474512},"geometry":{"type":"Polygon","coordinates":[[[-73.5799523,-7.2141743],[-73.5718896,-7.2142552],[-73.5718354,-7.2088616],[-73.579898,-7.2087808],[-73.5799523,-7.2141743]]]}},{"type":"Feature","id":"AC-Y852-X97","properties":{"id":"AC-Y852-X97","grid_x":97,"grid_y":852,"centroid":[-73.5678312,-7.2115988],"aggregation":"none","score_gradboost":0.018173,"score_random_forest":0.035884,"score_logistic_regression":0.0777384,"score_fuzzy_knn_k29":0.0414341},"geometry":{"type":"Polygon","coordinates":[[[-73.5718896,-7.2142552],[-73.5638269,-7.214336],[-73.5637728,-7.2089424],[-73.5718354,-7.2088616],[-73.5718896,-7.2142552]]]}},{"type":"Feature","id":"AC-Y852-X98","properties":{"id":"AC-Y852-X98","grid_x":98,"grid_y":852,"centroid":[-73.5597685,-7.2116795],"aggregation":"none","score_gradboost":0.0140069,"score_random_forest":0.0287112,"score_logistic_regression":0.0827586,"score_fuzzy_knn_k29":0.0347616},"geometry":{"type":"Polygon","coordinates":[[[-73.5638269,-7.214336],[-73.5557641,-7.2144166],[-73.55571,-7.209023],[-73.5637728,-7.2089424],[-73.5638269,-7.214336]]]}},{"type":"Feature","id":"AC-Y852-X99","properties":{"id":"AC-Y852-X99","grid_x":99,"grid_y":852,"centroid":[-73.5517056,-7.2117601],"aggregation":"none","score_gradboost":0.0605619,"score_random_forest":0.1265407,"score_logistic_regression":0.1101121,"score_fuzzy_knn_k29":0.0252768},"geometry":{"type":"Polygon","coordinates":[[[-73.5557641,-7.2144166],[-73.5477011,-7.2144971],[-73.5476472,-7.2091034],[-73.55571,-7.209023],[-73.5557641,-7.2144166]]]}},{"type":"Feature","id":"AC-Y852-X100","properties":{"id":"AC-Y852-X100","grid_x":100,"grid_y":852,"centroid":[-73.5436427,-7.2118405],"aggregation":"none","score_gradboost":0.0296676,"score_random_forest":0.0794579,"score_logistic_regression":0.123144,"score_fuzzy_knn_k29":0.0258839},"geometry":{"type":"Polygon","coordinates":[[[-73.5477011,-7.2144971],[-73.5396381,-7.2145775],[-73.5395843,-7.2091837],[-73.5476472,-7.2091034],[-73.5477011,-7.2144971]]]}},{"type":"Feature","id":"AC-Y852-X101","properties":{"id":"AC-Y852-X101","grid_x":101,"grid_y":852,"centroid":[-73.5355797,-7.2119207],"aggregation":"none","score_gradboost":0.0229556,"score_random_forest":0.034754,"score_logistic_regression":0.1124677,"score_fuzzy_knn_k29":0.0195007},"geometry":{"type":"Polygon","coordinates":[[[-73.5396381,-7.2145775],[-73.531575,-7.2146577],[-73.5315213,-7.2092639],[-73.5395843,-7.2091837],[-73.5396381,-7.2145775]]]}},{"type":"Feature","id":"AC-Y853-X91","properties":{"id":"AC-Y853-X91","grid_x":91,"grid_y":853,"centroid":[-73.616151,-7.2057185],"aggregation":"none","score_gradboost":0.0145577,"score_random_forest":0.0119175,"score_logistic_regression":0.0746097,"score_fuzzy_knn_k29":0.0351067},"geometry":{"type":"Polygon","coordinates":[[[-73.6202094,-7.2083743],[-73.6121473,-7.2084559],[-73.6120926,-7.2030626],[-73.6201546,-7.2029811],[-73.6202094,-7.2083743]]]}},{"type":"Feature","id":"AC-Y853-X92","properties":{"id":"AC-Y853-X92","grid_x":92,"grid_y":853,"centroid":[-73.6080889,-7.2058],"aggregation":"none","score_gradboost":0.0556936,"score_random_forest":0.0366809,"score_logistic_regression":0.0868789,"score_fuzzy_knn_k29":0.0317444},"geometry":{"type":"Polygon","coordinates":[[[-73.6121473,-7.2084559],[-73.6040851,-7.2085373],[-73.6040305,-7.203144],[-73.6120926,-7.2030626],[-73.6121473,-7.2084559]]]}},{"type":"Feature","id":"AC-Y853-X93","properties":{"id":"AC-Y853-X93","grid_x":93,"grid_y":853,"centroid":[-73.6000267,-7.2058813],"aggregation":"none","score_gradboost":0.0556936,"score_random_forest":0.0373164,"score_logistic_regression":0.0880095,"score_fuzzy_knn_k29":0.0363002},"geometry":{"type":"Polygon","coordinates":[[[-73.6040851,-7.2085373],[-73.5960228,-7.2086186],[-73.5959684,-7.2032253],[-73.6040305,-7.203144],[-73.6040851,-7.2085373]]]}},{"type":"Feature","id":"AC-Y853-X94","properties":{"id":"AC-Y853-X94","grid_x":94,"grid_y":853,"centroid":[-73.5919644,-7.2059625],"aggregation":"none","score_gradboost":0.0689684,"score_random_forest":0.0436859,"score_logistic_regression":0.0962215,"score_fuzzy_knn_k29":0.0399068},"geometry":{"type":"Polygon","coordinates":[[[-73.5960228,-7.2086186],[-73.5879604,-7.2086998],[-73.5879061,-7.2033063],[-73.5959684,-7.2032253],[-73.5960228,-7.2086186]]]}},{"type":"Feature","id":"AC-Y853-X95","properties":{"id":"AC-Y853-X95","grid_x":95,"grid_y":853,"centroid":[-73.5839021,-7.2060436],"aggregation":"none","score_gradboost":0.0181235,"score_random_forest":0.0176677,"score_logistic_regression":0.0868985,"score_fuzzy_knn_k29":0.0413993},"geometry":{"type":"Polygon","coordinates":[[[-73.5879604,-7.2086998],[-73.579898,-7.2087808],[-73.5798437,-7.2033873],[-73.5879061,-7.2033063],[-73.5879604,-7.2086998]]]}},{"type":"Feature","id":"AC-Y853-X96","properties":{"id":"AC-Y853-X96","grid_x":96,"grid_y":853,"centroid":[-73.5758396,-7.2061245],"aggregation":"none","score_gradboost":0.0686332,"score_random_forest":0.0466202,"score_logistic_regression":0.0924708,"score_fuzzy_knn_k29":0.0403904},"geometry":{"type":"Polygon","coordinates":[[[-73.579898,-7.2087808],[-73.5718354,-7.2088616],[-73.5717813,-7.2034681],[-73.5798437,-7.2033873],[-73.579898,-7.2087808]]]}},{"type":"Feature","id":"AC-Y853-X97","properties":{"id":"AC-Y853-X97","grid_x":97,"grid_y":853,"centroid":[-73.5677771,-7.2062052],"aggregation":"none","score_gradboost":0.0084167,"score_random_forest":0.0163917,"score_logistic_regression":0.0746903,"score_fuzzy_knn_k29":0.0364646},"geometry":{"type":"Polygon","coordinates":[[[-73.5718354,-7.2088616],[-73.5637728,-7.2089424],[-73.5637187,-7.2035488],[-73.5717813,-7.2034681],[-73.5718354,-7.2088616]]]}},{"type":"Feature","id":"AC-Y853-X98","properties":{"id":"AC-Y853-X98","grid_x":98,"grid_y":853,"centroid":[-73.5597144,-7.2062859],"aggregation":"none","score_gradboost":0.0556936,"score_random_forest":0.0524271,"score_logistic_regression":0.1015617,"score_fuzzy_knn_k29":0.0256821},"geometry":{"type":"Polygon","coordinates":[[[-73.5637728,-7.2089424],[-73.55571,-7.209023],[-73.5556561,-7.2036293],[-73.5637187,-7.2035488],[-73.5637728,-7.2089424]]]}},{"type":"Feature","id":"AC-Y853-X99","properties":{"id":"AC-Y853-X99","grid_x":99,"grid_y":853,"centroid":[-73.5516517,-7.2063664],"aggregation":"none","score_gradboost":0.0601985,"score_random_forest":0.1107127,"score_logistic_regression":0.109827,"score_fuzzy_knn_k29":0.0124022},"geometry":{"type":"Polygon","coordinates":[[[-73.55571,-7.209023],[-73.5476472,-7.2091034],[-73.5475933,-7.2037097],[-73.5556561,-7.2036293],[-73.55571,-7.209023]]]}},{"type":"Feature","id":"AC-Y854-X91","properties":{"id":"AC-Y854-X91","grid_x":91,"grid_y":854,"centroid":[-73.6160963,-7.2003253],"aggregation":"none","score_gradboost":0.0137529,"score_random_forest":0.0225111,"score_logistic_regression":0.0692685,"score_fuzzy_knn_k29":0.0},"geometry":{"type":"Polygon","coordinates":[[[-73.6201546,-7.2029811],[-73.6120926,-7.2030626],[-73.612038,-7.1976694],[-73.6200999,-7.197588],[-73.6201546,-7.2029811]]]}},{"type":"Feature","id":"AC-Y854-X92","properties":{"id":"AC-Y854-X92","grid_x":92,"grid_y":854,"centroid":[-73.6080343,-7.2004067],"aggregation":"none","score_gradboost":0.0169572,"score_random_forest":0.0192604,"score_logistic_regression":0.0790724,"score_fuzzy_knn_k29":0.0},"geometry":{"type":"Polygon","coordinates":[[[-73.6120926,-7.2030626],[-73.6040305,-7.203144],[-73.603976,-7.1977507],[-73.612038,-7.1976694],[-73.6120926,-7.2030626]]]}},{"type":"Feature","id":"AC-Y854-X93","properties":{"id":"AC-Y854-X93","grid_x":93,"grid_y":854,"centroid":[-73.5999722,-7.200488],"aggregation":"none","score_gradboost":0.0585849,"score_random_forest":0.0460509,"score_logistic_regression":0.1044776,"score_fuzzy_knn_k29":0.0081827},"geometry":{"type":"Polygon","coordinates":[[[-73.6040305,-7.203144],[-73.5959684,-7.2032253],[-73.5959139,-7.1978319],[-73.603976,-7.1977507],[-73.6040305,-7.203144]]]}},{"type":"Feature","id":"AC-Y854-X94","properties":{"id":"AC-Y854-X94","grid_x":94,"grid_y":854,"centroid":[-73.59191,-7.2005691],"aggregation":"none","score_gradboost":0.0553939,"score_random_forest":0.0425102,"score_logistic_regression":0.1029157,"score_fuzzy_knn_k29":0.0151673},"geometry":{"type":"Polygon","coordinates":[[[-73.5959684,-7.2032253],[-73.5879061,-7.2033063],[-73.5878518,-7.1979129],[-73.5959139,-7.1978319],[-73.5959684,-7.2032253]]]}},{"type":"Feature","id":"AC-Y854-X95","properties":{"id":"AC-Y854-X95","grid_x":95,"grid_y":854,"centroid":[-73.5838478,-7.2006501],"aggregation":"none","score_gradboost":0.0557197,"score_random_forest":0.0567154,"score_logistic_regression":0.1126241,"score_fuzzy_knn_k29":0.0199181},"geometry":{"type":"Polygon","coordinates":[[[-73.5879061,-7.2033063],[-73.5798437,-7.2033873],[-73.5797895,-7.1979938],[-73.5878518,-7.1979129],[-73.5879061,-7.2033063]]]}},{"type":"Feature","id":"AC-Y854-X96","properties":{"id":"AC-Y854-X96","grid_x":96,"grid_y":854,"centroid":[-73.5757854,-7.200731],"aggregation":"none","score_gradboost":0.0145577,"score_random_forest":0.0154046,"score_logistic_regression":0.0890312,"score_fuzzy_knn_k29":0.0311494},"geometry":{"type":"Polygon","coordinates":[[[-73.5798437,-7.2033873],[-73.5717813,-7.2034681],[-73.5717271,-7.1980746],[-73.5797895,-7.1979938],[-73.5798437,-7.2033873]]]}},{"type":"Feature","id":"AC-Y854-X97","properties":{"id":"AC-Y854-X97","grid_x":97,"grid_y":854,"centroid":[-73.5677229,-7.2008117],"aggregation":"none","score_gradboost":0.0145577,"score_random_forest":0.0171348,"score_logistic_regression":0.0937236,"score_fuzzy_knn_k29":0.0280404},"geometry":{"type":"Polygon","coordinates":[[[-73.5717813,-7.2034681],[-73.5637187,-7.2035488],[-73.5636647,-7.1981552],[-73.5717271,-7.1980746],[-73.5717813,-7.2034681]]]}},{"type":"Feature","id":"AC-Y855-X93","properties":{"id":"AC-Y855-X93","grid_x":93,"grid_y":855,"centroid":[-73.5999178,-7.1950947],"aggregation":"none","score_gradboost":0.0173644,"score_random_forest":0.0190172,"score_logistic_regression":0.0843182,"score_fuzzy_knn_k29":0.0},"geometry":{"type":"Polygon","coordinates":[[[-73.603976,-7.1977507],[-73.5959139,-7.1978319],[-73.5958596,-7.1924385],[-73.6039216,-7.1923574],[-73.603976,-7.1977507]]]}},{"type":"Feature","id":"AC-Y855-X94","properties":{"id":"AC-Y855-X94","grid_x":94,"grid_y":855,"centroid":[-73.5918557,-7.1951757],"aggregation":"none","score_gradboost":0.0169572,"score_random_forest":0.0207273,"score_logistic_regression":0.0876452,"score_fuzzy_knn_k29":0.0},"geometry":{"type":"Polygon","coordinates":[[[-73.5959139,-7.1978319],[-73.5878518,-7.1979129],[-73.5877975,-7.1925195],[-73.5958596,-7.1924385],[-73.5959139,-7.1978319]]]}},{"type":"Feature","id":"AC-Y855-X95","properties":{"id":"AC-Y855-X95","grid_x":95,"grid_y":855,"centroid":[-73.5837935,-7.1952567],"aggregation":"none","score_gradboost":0.0595406,"score_random_forest":0.040697,"score_logistic_regression":0.0977569,"score_fuzzy_knn_k29":0.0131786},"geometry":{"type":"Polygon","coordinates":[[[-73.5878518,-7.1979129],[-73.5797895,-7.1979938],[-73.5797353,-7.1926003],[-73.5877975,-7.1925195],[-73.5878518,-7.1979129]]]}},{"type":"Feature","id":"AC-Y852-X87","properties":{"id":"AC-Y852-X87","grid_x":87,"grid_y":852,"centroid":[-73.6484535,-7.2107842],"aggregation":"none","score_gradboost":0.0088737,"score_random_forest":0.0094069,"score_logistic_regression":0.0512264,"score_fuzzy_knn_k29":0.0},"geometry":{"type":"Polygon","coordinates":[[[-73.6525119,-7.2134395],[-73.6444501,-7.2135217],[-73.6443951,-7.2081287],[-73.6524568,-7.2080466],[-73.6525119,-7.2134395]]]}},{"type":"Feature","id":"AC-Y852-X88","properties":{"id":"AC-Y852-X88","grid_x":88,"grid_y":852,"centroid":[-73.6403917,-7.2108663],"aggregation":"none","score_gradboost":0.0078661,"score_random_forest":0.012574,"score_logistic_regression":0.0575183,"score_fuzzy_knn_k29":0.0},"geometry":{"type":"Polygon","coordinates":[[[-73.6444501,-7.2135217],[-73.6363882,-7.2136038],[-73.6363333,-7.2082107],[-73.6443951,-7.2081287],[-73.6444501,-7.2135217]]]}},{"type":"Feature","id":"AC-Y852-X89","properties":{"id":"AC-Y852-X89","grid_x":89,"grid_y":852,"centroid":[-73.6323298,-7.2109482],"aggregation":"none","score_gradboost":0.0123881,"score_random_forest":0.0152388,"score_logistic_regression":0.0659425,"score_fuzzy_knn_k29":0.0359579},"geometry":{"type":"Polygon","coordinates":[[[-73.6363882,-7.2136038],[-73.6283262,-7.2136857],[-73.6282714,-7.2082926],[-73.6363333,-7.2082107],[-73.6363882,-7.2136038]]]}},{"type":"Feature","id":"AC-Y852-X90","properties":{"id":"AC-Y852-X90","grid_x":90,"grid_y":852,"centroid":[-73.6242678,-7.21103],"aggregation":"none","score_gradboost":0.0074391,"score_random_forest":0.0090485,"score_logistic_regression":0.0622319,"score_fuzzy_knn_k29":0.0380636},"geometry":{"type":"Polygon","coordinates":[[[-73.6283262,-7.2136857],[-73.6202641,-7.2137675],[-73.6202094,-7.2083743],[-73.6282714,-7.2082926],[-73.6283262,-7.2136857]]]}},{"type":"Feature","id":"AC-Y853-X88","properties":{"id":"AC-Y853-X88","grid_x":88,"grid_y":853,"centroid":[-73.6403367,-7.2054732],"aggregation":"none","score_gradboost":0.0082038,"score_random_forest":0.0137824,"score_logistic_regression":0.0603476,"score_fuzzy_knn_k29":0.0},"geometry":{"type":"Polygon","coordinates":[[[-73.6443951,-7.2081287],[-73.6363333,-7.2082107],[-73.6362783,-7.2028177],[-73.64434,-7.2027357],[-73.6443951,-7.2081287]]]}},{"type":"Feature","id":"AC-Y853-X89","properties":{"id":"AC-Y853-X89","grid_x":89,"grid_y":853,"centroid":[-73.6322749,-7.2055551],"aggregation":"none","score_gradboost":0.0144352,"score_random_forest":0.0095041,"score_logistic_regression":0.0680512,"score_fuzzy_knn_k29":0.0158031},"geometry":{"type":"Polygon","coordinates":[[[-73.6363333,-7.2082107],[-73.6282714,-7.2082926],[-73.6282165,-7.2028995],[-73.6362783,-7.2028177],[-73.6363333,-7.2082107]]]}},{"type":"Feature","id":"AC-Y853-X90","properties":{"id":"AC-Y853-X90","grid_x":90,"grid_y":853,"centroid":[-73.624213,-7.2056369],"aggregation":"none","score_gradboost":0.0145577,"score_random_forest":0.0083936,"score_logistic_regression":0.0730101,"score_fuzzy_knn_k29":0.0340227},"geometry":{"type":"Polygon","coordinates":[[[-73.6282714,-7.2082926],[-73.6202094,-7.2083743],[-73.6201546,-7.2029811],[-73.6282165,-7.2028995],[-73.6282714,-7.2082926]]]}},{"type":"Feature","id":"AC-Y854-X90","properties":{"id":"AC-Y854-X90","grid_x":90,"grid_y":854,"centroid":[-73.6241582,-7.2002437],"aggregation":"none","score_gradboost":0.0173644,"score_random_forest":0.0141878,"score_logistic_regression":0.0754574,"score_fuzzy_knn_k29":0.0},"geometry":{"type":"Polygon","coordinates":[[[-73.6282165,-7.2028995],[-73.6201546,-7.2029811],[-73.6200999,-7.197588],[-73.6281617,-7.1975064],[-73.6282165,-7.2028995]]]}},{"type":"Feature","id":"AC-Y855-X90","properties":{"id":"AC-Y855-X90","grid_x":90,"grid_y":855,"centroid":[-73.6241035,-7.1948506],"aggregation":"none","score_gradboost":0.0144352,"score_random_forest":0.0102354,"score_logistic_regression":0.0705253,"score_fuzzy_knn_k29":0.0},"geometry":{"type":"Polygon","coordinates":[[[-73.6281617,-7.1975064],[-73.6200999,-7.197588],[-73.6200453,-7.1921948],[-73.628107,-7.1921132],[-73.6281617,-7.1975064]]]}},{"type":"Feature","id":"AC-Y855-X91","properties":{"id":"AC-Y855-X91","grid_x":91,"grid_y":855,"centroid":[-73.6160417,-7.1949321],"aggregation":"none","score_gradboost":0.0173644,"score_random_forest":0.018072,"score_logistic_regression":0.075365,"score_fuzzy_knn_k29":0.0},"geometry":{"type":"Polygon","coordinates":[[[-73.6200999,-7.197588],[-73.612038,-7.1976694],[-73.6119835,-7.1922762],[-73.6200453,-7.1921948],[-73.6200999,-7.197588]]]}},{"type":"Feature","id":"AC-Y855-X92","properties":{"id":"AC-Y855-X92","grid_x":92,"grid_y":855,"centroid":[-73.6079798,-7.1950134],"aggregation":"none","score_gradboost":0.0173644,"score_random_forest":0.0229986,"score_logistic_regression":0.083895,"score_fuzzy_knn_k29":0.0},"geometry":{"type":"Polygon","coordinates":[[[-73.612038,-7.1976694],[-73.603976,-7.1977507],[-73.6039216,-7.1923574],[-73.6119835,-7.1922762],[-73.612038,-7.1976694]]]}},{"type":"Feature","id":"AC-Y856-X90","properties":{"id":"AC-Y856-X90","grid_x":90,"grid_y":856,"centroid":[-73.6240488,-7.1894575],"aggregation":"none","score_gradboost":0.0556936,"score_random_forest":0.0321421,"score_logistic_regression":0.0820617,"score_fuzzy_knn_k29":0.0348012},"geometry":{"type":"Polygon","coordinates":[[[-73.628107,-7.1921132],[-73.6200453,-7.1921948],[-73.6199906,-7.1868016],[-73.6280523,-7.1867201],[-73.628107,-7.1921132]]]}},{"type":"Feature","id":"AC-Y856-X91","properties":{"id":"AC-Y856-X91","grid_x":91,"grid_y":856,"centroid":[-73.6159871,-7.1895389],"aggregation":"none","score_gradboost":0.0145577,"score_random_forest":0.0057443,"score_logistic_regression":0.0720203,"score_fuzzy_knn_k29":0.0354078},"geometry":{"type":"Polygon","coordinates":[[[-73.6200453,-7.1921948],[-73.6119835,-7.1922762],[-73.6119289,-7.1868829],[-73.6199906,-7.1868016],[-73.6200453,-7.1921948]]]}},{"type":"Feature","id":"AC-Y856-X92","properties":{"id":"AC-Y856-X92","grid_x":92,"grid_y":856,"centroid":[-73.6079253,-7.1896202],"aggregation":"none","score_gradboost":0.0621185,"score_random_forest":0.0448614,"score_logistic_regression":0.1009691,"score_fuzzy_knn_k29":0.0118426},"geometry":{"type":"Polygon","coordinates":[[[-73.6119835,-7.1922762],[-73.6039216,-7.1923574],[-73.6038671,-7.1869641],[-73.6119289,-7.1868829],[-73.6119835,-7.1922762]]]}},{"type":"Feature","id":"AC-Y856-X93","properties":{"id":"AC-Y856-X93","grid_x":93,"grid_y":856,"centroid":[-73.5998634,-7.1897013],"aggregation":"none","score_gradboost":0.0173644,"score_random_forest":0.0195804,"score_logistic_regression":0.0852468,"score_fuzzy_knn_k29":0.0},"geometry":{"type":"Polygon","coordinates":[[[-73.6039216,-7.1923574],[-73.5958596,-7.1924385],[-73.5958052,-7.1870452],[-73.6038671,-7.1869641],[-73.6039216,-7.1923574]]]}},{"type":"Feature","id":"AC-Y857-X90","properties":{"id":"AC-Y857-X90","grid_x":90,"grid_y":857,"centroid":[-73.6239941,-7.1840643],"aggregation":"none","score_gradboost":0.060205,"score_random_forest":0.0301466,"score_logistic_regression":0.0770222,"score_fuzzy_knn_k29":0.0619187},"geometry":{"type":"Polygon","coordinates":[[[-73.6280523,-7.1867201],[-73.6199906,-7.1868016],[-73.6199361,-7.1814084],[-73.6279976,-7.181327],[-73.6280523,-7.1867201]]]}},{"type":"Feature","id":"AC-Y857-X91","properties":{"id":"AC-Y857-X91","grid_x":91,"grid_y":857,"centroid":[-73.6159325,-7.1841457],"aggregation":"none","score_gradboost":0.0123881,"score_random_forest":0.006664,"score_logistic_regression":0.0688105,"score_fuzzy_knn_k29":0.0417089},"geometry":{"type":"Polygon","coordinates":[[[-73.6199906,-7.1868016],[-73.6119289,-7.1868829],[-73.6118745,-7.1814897],[-73.6199361,-7.1814084],[-73.6199906,-7.1868016]]]}},{"type":"Feature","id":"AC-Y858-X89","properties":{"id":"AC-Y858-X89","grid_x":89,"grid_y":858,"centroid":[-73.632001,-7.1785897],"aggregation":"none","score_gradboost":0.0697443,"score_random_forest":0.0539856,"score_logistic_regression":0.0825443,"score_fuzzy_knn_k29":0.1150616},"geometry":{"type":"Polygon","coordinates":[[[-73.636059,-7.1812455],[-73.6279976,-7.181327],[-73.627943,-7.1759339],[-73.6360043,-7.1758524],[-73.636059,-7.1812455]]]}},{"type":"Feature","id":"AC-Y858-X90","properties":{"id":"AC-Y858-X90","grid_x":90,"grid_y":858,"centroid":[-73.6239395,-7.1786711],"aggregation":"none","score_gradboost":0.0184907,"score_random_forest":0.0270638,"score_logistic_regression":0.0625238,"score_fuzzy_knn_k29":0.050247},"geometry":{"type":"Polygon","coordinates":[[[-73.6279976,-7.181327],[-73.6199361,-7.1814084],[-73.6198815,-7.1760152],[-73.627943,-7.1759339],[-73.6279976,-7.181327]]]}},{"type":"Feature","id":"AC-Y850-X80","properties":{"id":"AC-Y850-X80","grid_x":80,"grid_y":850,"centroid":[-73.7049951,-7.2209905],"aggregation":"none","score_gradboost":0.0059815,"score_random_forest":0.0047455,"score_logistic_regression":0.0034379,"score_fuzzy_knn_k29":0.0},"geometry":{"type":"Polygon","coordinates":[[[-73.7090537,-7.2236451],[-73.7009924,-7.2237284],[-73.7009366,-7.2183359],[-73.7089978,-7.2182526],[-73.7090537,-7.2236451]]]}},{"type":"Feature","id":"AC-Y850-X81","properties":{"id":"AC-Y850-X81","grid_x":81,"grid_y":850,"centroid":[-73.6969338,-7.2210737],"aggregation":"none","score_gradboost":0.0060273,"score_random_forest":0.0017791,"score_logistic_regression":0.0052718,"score_fuzzy_knn_k29":0.0},"geometry":{"type":"Polygon","coordinates":[[[-73.7009924,-7.2237284],[-73.6929309,-7.2238116],[-73.6928752,-7.218419],[-73.7009366,-7.2183359],[-73.7009924,-7.2237284]]]}},{"type":"Feature","id":"AC-Y850-X82","properties":{"id":"AC-Y850-X82","grid_x":82,"grid_y":850,"centroid":[-73.6888724,-7.2211568],"aggregation":"none","score_gradboost":0.0060273,"score_random_forest":0.0,"score_logistic_regression":0.0061711,"score_fuzzy_knn_k29":0.0},"geometry":{"type":"Polygon","coordinates":[[[-73.6929309,-7.2238116],[-73.6848694,-7.2238946],[-73.6848138,-7.218502],[-73.6928752,-7.218419],[-73.6929309,-7.2238116]]]}},{"type":"Feature","id":"AC-Y850-X83","properties":{"id":"AC-Y850-X83","grid_x":83,"grid_y":850,"centroid":[-73.6808108,-7.2212398],"aggregation":"none","score_gradboost":0.012725,"score_random_forest":0.0333785,"score_logistic_regression":0.0080655,"score_fuzzy_knn_k29":0.0},"geometry":{"type":"Polygon","coordinates":[[[-73.6848694,-7.2238946],[-73.6768078,-7.2239775],[-73.6767523,-7.2185848],[-73.6848138,-7.218502],[-73.6848694,-7.2238946]]]}},{"type":"Feature","id":"AC-Y851-X80","properties":{"id":"AC-Y851-X80","grid_x":80,"grid_y":851,"centroid":[-73.7049393,-7.215598],"aggregation":"none","score_gradboost":0.0059815,"score_random_forest":0.0047455,"score_logistic_regression":0.004521,"score_fuzzy_knn_k29":0.0},"geometry":{"type":"Polygon","coordinates":[[[-73.7089978,-7.2182526],[-73.7009366,-7.2183359],[-73.7008808,-7.2129433],[-73.7089419,-7.2128601],[-73.7089978,-7.2182526]]]}},{"type":"Feature","id":"AC-Y851-X81","properties":{"id":"AC-Y851-X81","grid_x":81,"grid_y":851,"centroid":[-73.696878,-7.2156812],"aggregation":"none","score_gradboost":0.0071534,"score_random_forest":0.0017791,"score_logistic_regression":0.0055437,"score_fuzzy_knn_k29":0.0},"geometry":{"type":"Polygon","coordinates":[[[-73.7009366,-7.2183359],[-73.6928752,-7.218419],[-73.6928195,-7.2130264],[-73.7008808,-7.2129433],[-73.7009366,-7.2183359]]]}},{"type":"Feature","id":"AC-Y851-X82","properties":{"id":"AC-Y851-X82","grid_x":82,"grid_y":851,"centroid":[-73.6888167,-7.2157642],"aggregation":"none","score_gradboost":0.0060273,"score_random_forest":0.0,"score_logistic_regression":0.0057725,"score_fuzzy_knn_k29":0.0},"geometry":{"type":"Polygon","coordinates":[[[-73.6928752,-7.218419],[-73.6848138,-7.218502],[-73.6847582,-7.2131093],[-73.6928195,-7.2130264],[-73.6928752,-7.218419]]]}},{"type":"Feature","id":"AC-Y851-X83","properties":{"id":"AC-Y851-X83","grid_x":83,"grid_y":851,"centroid":[-73.6807553,-7.215847],"aggregation":"none","score_gradboost":0.0098824,"score_random_forest":0.0051788,"score_logistic_regression":0.008155,"score_fuzzy_knn_k29":0.0},"geometry":{"type":"Polygon","coordinates":[[[-73.6848138,-7.218502],[-73.6767523,-7.2185848],[-73.6766968,-7.2131921],[-73.6847582,-7.2131093],[-73.6848138,-7.218502]]]}},{"type":"Feature","id":"AC-Y851-X84","properties":{"id":"AC-Y851-X84","grid_x":84,"grid_y":851,"centroid":[-73.6726938,-7.2159298],"aggregation":"none","score_gradboost":0.0078762,"score_random_forest":0.0052152,"score_logistic_regression":0.0430763,"score_fuzzy_knn_k29":0.0},"geometry":{"type":"Polygon","coordinates":[[[-73.6767523,-7.2185848],[-73.6686907,-7.2186675],[-73.6686353,-7.2132747],[-73.6766968,-7.2131921],[-73.6767523,-7.2185848]]]}},{"type":"Feature","id":"AC-Y851-X85","properties":{"id":"AC-Y851-X85","grid_x":85,"grid_y":851,"centroid":[-73.6646321,-7.2160124],"aggregation":"none","score_gradboost":0.0078762,"score_random_forest":0.0075736,"score_logistic_regression":0.0439172,"score_fuzzy_knn_k29":0.0},"geometry":{"type":"Polygon","coordinates":[[[-73.6686907,-7.2186675],[-73.6606289,-7.21875],[-73.6605736,-7.2133572],[-73.6686353,-7.2132747],[-73.6686907,-7.2186675]]]}},{"type":"Feature","id":"AC-Y851-X86","properties":{"id":"AC-Y851-X86","grid_x":86,"grid_y":851,"centroid":[-73.6565704,-7.2160948],"aggregation":"none","score_gradboost":0.0251965,"score_random_forest":0.0378546,"score_logistic_regression":0.0551261,"score_fuzzy_knn_k29":0.0},"geometry":{"type":"Polygon","coordinates":[[[-73.6606289,-7.21875],[-73.6525671,-7.2188324],[-73.6525119,-7.2134395],[-73.6605736,-7.2133572],[-73.6606289,-7.21875]]]}},{"type":"Feature","id":"AC-Y852-X80","properties":{"id":"AC-Y852-X80","grid_x":80,"grid_y":852,"centroid":[-73.7048835,-7.2102055],"aggregation":"none","score_gradboost":0.0074149,"score_random_forest":0.0054957,"score_logistic_regression":0.0048856,"score_fuzzy_knn_k29":0.0},"geometry":{"type":"Polygon","coordinates":[[[-73.7089419,-7.2128601],[-73.7008808,-7.2129433],[-73.7008251,-7.2075508],[-73.7088861,-7.2074677],[-73.7089419,-7.2128601]]]}},{"type":"Feature","id":"AC-Y852-X81","properties":{"id":"AC-Y852-X81","grid_x":81,"grid_y":852,"centroid":[-73.6968223,-7.2102886],"aggregation":"none","score_gradboost":0.0071534,"score_random_forest":0.0047455,"score_logistic_regression":0.0059447,"score_fuzzy_knn_k29":0.0},"geometry":{"type":"Polygon","coordinates":[[[-73.7008808,-7.2129433],[-73.6928195,-7.2130264],[-73.6927639,-7.2076338],[-73.7008251,-7.2075508],[-73.7008808,-7.2129433]]]}},{"type":"Feature","id":"AC-Y852-X82","properties":{"id":"AC-Y852-X82","grid_x":82,"grid_y":852,"centroid":[-73.6887611,-7.2103715],"aggregation":"none","score_gradboost":0.0120163,"score_random_forest":0.0,"score_logistic_regression":0.0068035,"score_fuzzy_knn_k29":0.0},"geometry":{"type":"Polygon","coordinates":[[[-73.6928195,-7.2130264],[-73.6847582,-7.2131093],[-73.6847027,-7.2077166],[-73.6927639,-7.2076338],[-73.6928195,-7.2130264]]]}},{"type":"Feature","id":"AC-Y852-X83","properties":{"id":"AC-Y852-X83","grid_x":83,"grid_y":852,"centroid":[-73.6806998,-7.2104543],"aggregation":"none","score_gradboost":0.00937,"score_random_forest":0.0053293,"score_logistic_regression":0.0428305,"score_fuzzy_knn_k29":0.0},"geometry":{"type":"Polygon","coordinates":[[[-73.6847582,-7.2131093],[-73.6766968,-7.2131921],[-73.6766413,-7.2077993],[-73.6847027,-7.2077166],[-73.6847582,-7.2131093]]]}},{"type":"Feature","id":"AC-Y852-X84","properties":{"id":"AC-Y852-X84","grid_x":84,"grid_y":852,"centroid":[-73.6726383,-7.210537],"aggregation":"none","score_gradboost":0.0079608,"score_random_forest":0.0,"score_logistic_regression":0.0374882,"score_fuzzy_knn_k29":0.0},"geometry":{"type":"Polygon","coordinates":[[[-73.6766968,-7.2131921],[-73.6686353,-7.2132747],[-73.6685799,-7.2078819],[-73.6766413,-7.2077993],[-73.6766968,-7.2131921]]]}},{"type":"Feature","id":"AC-Y852-X85","properties":{"id":"AC-Y852-X85","grid_x":85,"grid_y":852,"centroid":[-73.6645768,-7.2106195],"aggregation":"none","score_gradboost":0.0078762,"score_random_forest":0.0025736,"score_logistic_regression":0.049608,"score_fuzzy_knn_k29":0.0},"geometry":{"type":"Polygon","coordinates":[[[-73.6686353,-7.2132747],[-73.6605736,-7.2133572],[-73.6605184,-7.2079643],[-73.6685799,-7.2078819],[-73.6686353,-7.2132747]]]}},{"type":"Feature","id":"AC-Y852-X86","properties":{"id":"AC-Y852-X86","grid_x":86,"grid_y":852,"centroid":[-73.6565152,-7.2107019],"aggregation":"none","score_gradboost":0.0078762,"score_random_forest":0.006701,"score_logistic_regression":0.0481804,"score_fuzzy_knn_k29":0.0},"geometry":{"type":"Polygon","coordinates":[[[-73.6605736,-7.2133572],[-73.6525119,-7.2134395],[-73.6524568,-7.2080466],[-73.6605184,-7.2079643],[-73.6605736,-7.2133572]]]}},{"type":"Feature","id":"AC-Y853-X80","properties":{"id":"AC-Y853-X80","grid_x":80,"grid_y":853,"centroid":[-73.7048277,-7.204813],"aggregation":"none","score_gradboost":0.0127178,"score_random_forest":0.007816,"score_logistic_regression":0.0052341,"score_fuzzy_knn_k29":0.0108057},"geometry":{"type":"Polygon","coordinates":[[[-73.7088861,-7.2074677],[-73.7008251,-7.2075508],[-73.7007694,-7.2021582],[-73.7088303,-7.2020752],[-73.7088861,-7.2074677]]]}},{"type":"Feature","id":"AC-Y853-X81","properties":{"id":"AC-Y853-X81","grid_x":81,"grid_y":853,"centroid":[-73.6967667,-7.204896],"aggregation":"none","score_gradboost":0.0103191,"score_random_forest":0.005239,"score_logistic_regression":0.0059024,"score_fuzzy_knn_k29":0.0190208},"geometry":{"type":"Polygon","coordinates":[[[-73.7008251,-7.2075508],[-73.6927639,-7.2076338],[-73.6927083,-7.2022412],[-73.7007694,-7.2021582],[-73.7008251,-7.2075508]]]}},{"type":"Feature","id":"AC-Y853-X82","properties":{"id":"AC-Y853-X82","grid_x":82,"grid_y":853,"centroid":[-73.6887055,-7.2049789],"aggregation":"none","score_gradboost":0.0216744,"score_random_forest":0.0054339,"score_logistic_regression":0.0075666,"score_fuzzy_knn_k29":0.024996},"geometry":{"type":"Polygon","coordinates":[[[-73.6927639,-7.2076338],[-73.6847027,-7.2077166],[-73.6846472,-7.2023239],[-73.6927083,-7.2022412],[-73.6927639,-7.2076338]]]}},{"type":"Feature","id":"AC-Y853-X83","properties":{"id":"AC-Y853-X83","grid_x":83,"grid_y":853,"centroid":[-73.6806443,-7.2050616],"aggregation":"none","score_gradboost":0.00937,"score_random_forest":0.0042013,"score_logistic_regression":0.0401882,"score_fuzzy_knn_k29":0.0},"geometry":{"type":"Polygon","coordinates":[[[-73.6847027,-7.2077166],[-73.6766413,-7.2077993],[-73.6765859,-7.2024066],[-73.6846472,-7.2023239],[-73.6847027,-7.2077166]]]}},{"type":"Feature","id":"AC-Y853-X84","properties":{"id":"AC-Y853-X84","grid_x":84,"grid_y":853,"centroid":[-73.672583,-7.2051442],"aggregation":"none","score_gradboost":0.0071417,"score_random_forest":0.0053293,"score_logistic_regression":0.043128,"score_fuzzy_knn_k29":0.0},"geometry":{"type":"Polygon","coordinates":[[[-73.6766413,-7.2077993],[-73.6685799,-7.2078819],[-73.6685246,-7.2024891],[-73.6765859,-7.2024066],[-73.6766413,-7.2077993]]]}},{"type":"Feature","id":"AC-Y853-X85","properties":{"id":"AC-Y853-X85","grid_x":85,"grid_y":853,"centroid":[-73.6645215,-7.2052267],"aggregation":"none","score_gradboost":0.0074486,"score_random_forest":0.0077367,"score_logistic_regression":0.0539941,"score_fuzzy_knn_k29":0.018652},"geometry":{"type":"Polygon","coordinates":[[[-73.6685799,-7.2078819],[-73.6605184,-7.2079643],[-73.6604632,-7.2025714],[-73.6685246,-7.2024891],[-73.6685799,-7.2078819]]]}},{"type":"Feature","id":"AC-Y853-X86","properties":{"id":"AC-Y853-X86","grid_x":86,"grid_y":853,"centroid":[-73.65646,-7.205309],"aggregation":"none","score_gradboost":0.0076974,"score_random_forest":0.0099465,"score_logistic_regression":0.0535215,"score_fuzzy_knn_k29":0.0},"geometry":{"type":"Polygon","coordinates":[[[-73.6605184,-7.2079643],[-73.6524568,-7.2080466],[-73.6524016,-7.2026537],[-73.6604632,-7.2025714],[-73.6605184,-7.2079643]]]}},{"type":"Feature","id":"AC-Y853-X87","properties":{"id":"AC-Y853-X87","grid_x":87,"grid_y":853,"centroid":[-73.6483984,-7.2053912],"aggregation":"none","score_gradboost":0.0114484,"score_random_forest":0.0251417,"score_logistic_regression":0.0615969,"score_fuzzy_knn_k29":0.0},"geometry":{"type":"Polygon","coordinates":[[[-73.6524568,-7.2080466],[-73.6443951,-7.2081287],[-73.64434,-7.2027357],[-73.6524016,-7.2026537],[-73.6524568,-7.2080466]]]}},{"type":"Feature","id":"AC-Y854-X80","properties":{"id":"AC-Y854-X80","grid_x":80,"grid_y":854,"centroid":[-73.704772,-7.1994204],"aggregation":"none","score_gradboost":0.0373132,"score_random_forest":0.0134653,"score_logistic_regression":0.0054981,"score_fuzzy_knn_k29":0.0260384},"geometry":{"type":"Polygon","coordinates":[[[-73.7088303,-7.2020752],[-73.7007694,-7.2021582],[-73.7007137,-7.1967657],[-73.7087746,-7.1966827],[-73.7088303,-7.2020752]]]}},{"type":"Feature","id":"AC-Y854-X81","properties":{"id":"AC-Y854-X81","grid_x":81,"grid_y":854,"centroid":[-73.696711,-7.1995034],"aggregation":"none","score_gradboost":0.1225451,"score_random_forest":0.1085223,"score_logistic_regression":0.0067094,"score_fuzzy_knn_k29":0.0237257},"geometry":{"type":"Polygon","coordinates":[[[-73.7007694,-7.2021582],[-73.6927083,-7.2022412],[-73.6926528,-7.1968485],[-73.7007137,-7.1967657],[-73.7007694,-7.2021582]]]}},{"type":"Feature","id":"AC-Y854-X82","properties":{"id":"AC-Y854-X82","grid_x":82,"grid_y":854,"centroid":[-73.68865,-7.1995862],"aggregation":"none","score_gradboost":0.0211647,"score_random_forest":0.013286,"score_logistic_regression":0.0376327,"score_fuzzy_knn_k29":0.0175019},"geometry":{"type":"Polygon","coordinates":[[[-73.6927083,-7.2022412],[-73.6846472,-7.2023239],[-73.6845917,-7.1969313],[-73.6926528,-7.1968485],[-73.6927083,-7.2022412]]]}},{"type":"Feature","id":"AC-Y854-X83","properties":{"id":"AC-Y854-X83","grid_x":83,"grid_y":854,"centroid":[-73.6805889,-7.1996689],"aggregation":"none","score_gradboost":0.0199172,"score_random_forest":0.0060577,"score_logistic_regression":0.038393,"score_fuzzy_knn_k29":0.0166409},"geometry":{"type":"Polygon","coordinates":[[[-73.6846472,-7.2023239],[-73.6765859,-7.2024066],[-73.6765306,-7.1970138],[-73.6845917,-7.1969313],[-73.6846472,-7.2023239]]]}},{"type":"Feature","id":"AC-Y854-X84","properties":{"id":"AC-Y854-X84","grid_x":84,"grid_y":854,"centroid":[-73.6725276,-7.1997515],"aggregation":"none","score_gradboost":0.014456,"score_random_forest":0.0230958,"score_logistic_regression":0.0523876,"score_fuzzy_knn_k29":0.0607549},"geometry":{"type":"Polygon","coordinates":[[[-73.6765859,-7.2024066],[-73.6685246,-7.2024891],[-73.6684693,-7.1970963],[-73.6765306,-7.1970138],[-73.6765859,-7.2024066]]]}},{"type":"Feature","id":"AC-Y854-X85","properties":{"id":"AC-Y854-X85","grid_x":85,"grid_y":854,"centroid":[-73.6644663,-7.1998339],"aggregation":"none","score_gradboost":0.0080806,"score_random_forest":0.0060795,"score_logistic_regression":0.0437843,"score_fuzzy_knn_k29":0.0168557},"geometry":{"type":"Polygon","coordinates":[[[-73.6685246,-7.2024891],[-73.6604632,-7.2025714],[-73.660408,-7.1971786],[-73.6684693,-7.1970963],[-73.6685246,-7.2024891]]]}},{"type":"Feature","id":"AC-Y854-X86","properties":{"id":"AC-Y854-X86","grid_x":86,"grid_y":854,"centroid":[-73.6564049,-7.1999161],"aggregation":"none","score_gradboost":0.0103844,"score_random_forest":0.019096,"score_logistic_regression":0.0573292,"score_fuzzy_knn_k29":0.0363307},"geometry":{"type":"Polygon","coordinates":[[[-73.6604632,-7.2025714],[-73.6524016,-7.2026537],[-73.6523466,-7.1972607],[-73.660408,-7.1971786],[-73.6604632,-7.2025714]]]}},{"type":"Feature","id":"AC-Y854-X87","properties":{"id":"AC-Y854-X87","grid_x":87,"grid_y":854,"centroid":[-73.6483433,-7.1999982],"aggregation":"none","score_gradboost":0.0154158,"score_random_forest":0.0095275,"score_logistic_regression":0.0657439,"score_fuzzy_knn_k29":0.0175787},"geometry":{"type":"Polygon","coordinates":[[[-73.6524016,-7.2026537],[-73.64434,-7.2027357],[-73.644285,-7.1973427],[-73.6523466,-7.1972607],[-73.6524016,-7.2026537]]]}},{"type":"Feature","id":"AC-Y854-X88","properties":{"id":"AC-Y854-X88","grid_x":88,"grid_y":854,"centroid":[-73.6402817,-7.2000802],"aggregation":"none","score_gradboost":0.0082143,"score_random_forest":0.0103643,"score_logistic_regression":0.0589663,"score_fuzzy_knn_k29":0.0},"geometry":{"type":"Polygon","coordinates":[[[-73.64434,-7.2027357],[-73.6362783,-7.2028177],[-73.6362234,-7.1974246],[-73.644285,-7.1973427],[-73.64434,-7.2027357]]]}},{"type":"Feature","id":"AC-Y854-X89","properties":{"id":"AC-Y854-X89","grid_x":89,"grid_y":854,"centroid":[-73.63222,-7.2001621],"aggregation":"none","score_gradboost":0.0082038,"score_random_forest":0.0137824,"score_logistic_regression":0.0625969,"score_fuzzy_knn_k29":0.0},"geometry":{"type":"Polygon","coordinates":[[[-73.6362783,-7.2028177],[-73.6282165,-7.2028995],[-73.6281617,-7.1975064],[-73.6362234,-7.1974246],[-73.6362783,-7.2028177]]]}},{"type":"Feature","id":"AC-Y855-X80","properties":{"id":"AC-Y855-X80","grid_x":80,"grid_y":855,"centroid":[-73.7047163,-7.1940279],"aggregation":"none","score_gradboost":0.0723003,"score_random_forest":0.0513224,"score_logistic_regression":0.0058904,"score_fuzzy_knn_k29":0.0654057},"geometry":{"type":"Polygon","coordinates":[[[-73.7087746,-7.1966827],[-73.7007137,-7.1967657],[-73.7006581,-7.1913731],[-73.7087189,-7.1912902],[-73.7087746,-7.1966827]]]}},{"type":"Feature","id":"AC-Y855-X81","properties":{"id":"AC-Y855-X81","grid_x":81,"grid_y":855,"centroid":[-73.6966555,-7.1941108],"aggregation":"none","score_gradboost":0.0369834,"score_random_forest":0.0591681,"score_logistic_regression":0.0323675,"score_fuzzy_knn_k29":0.0182939},"geometry":{"type":"Polygon","coordinates":[[[-73.7007137,-7.1967657],[-73.6926528,-7.1968485],[-73.6925973,-7.1914559],[-73.7006581,-7.1913731],[-73.7007137,-7.1967657]]]}},{"type":"Feature","id":"AC-Y855-X82","properties":{"id":"AC-Y855-X82","grid_x":82,"grid_y":855,"centroid":[-73.6885945,-7.1941936],"aggregation":"none","score_gradboost":0.0333559,"score_random_forest":0.0414619,"score_logistic_regression":0.0339667,"score_fuzzy_knn_k29":0.0193423},"geometry":{"type":"Polygon","coordinates":[[[-73.6926528,-7.1968485],[-73.6845917,-7.1969313],[-73.6845363,-7.1915386],[-73.6925973,-7.1914559],[-73.6926528,-7.1968485]]]}},{"type":"Feature","id":"AC-Y855-X83","properties":{"id":"AC-Y855-X83","grid_x":83,"grid_y":855,"centroid":[-73.6805335,-7.1942762],"aggregation":"none","score_gradboost":0.0262111,"score_random_forest":0.0558849,"score_logistic_regression":0.0475292,"score_fuzzy_knn_k29":0.0690494},"geometry":{"type":"Polygon","coordinates":[[[-73.6845917,-7.1969313],[-73.6765306,-7.1970138],[-73.6764753,-7.1916211],[-73.6845363,-7.1915386],[-73.6845917,-7.1969313]]]}},{"type":"Feature","id":"AC-Y855-X84","properties":{"id":"AC-Y855-X84","grid_x":84,"grid_y":855,"centroid":[-73.6724723,-7.1943587],"aggregation":"none","score_gradboost":0.0251509,"score_random_forest":0.0361776,"score_logistic_regression":0.0456559,"score_fuzzy_knn_k29":0.060514},"geometry":{"type":"Polygon","coordinates":[[[-73.6765306,-7.1970138],[-73.6684693,-7.1970963],[-73.6684141,-7.1917035],[-73.6764753,-7.1916211],[-73.6765306,-7.1970138]]]}},{"type":"Feature","id":"AC-Y855-X85","properties":{"id":"AC-Y855-X85","grid_x":85,"grid_y":855,"centroid":[-73.6644111,-7.194441],"aggregation":"none","score_gradboost":0.0180936,"score_random_forest":0.0273585,"score_logistic_regression":0.0533274,"score_fuzzy_knn_k29":0.0642469},"geometry":{"type":"Polygon","coordinates":[[[-73.6684693,-7.1970963],[-73.660408,-7.1971786],[-73.6603529,-7.1917857],[-73.6684141,-7.1917035],[-73.6684693,-7.1970963]]]}},{"type":"Feature","id":"AC-Y855-X86","properties":{"id":"AC-Y855-X86","grid_x":86,"grid_y":855,"centroid":[-73.6563497,-7.1945232],"aggregation":"none","score_gradboost":0.0128548,"score_random_forest":0.0073161,"score_logistic_regression":0.0592544,"score_fuzzy_knn_k29":0.04194},"geometry":{"type":"Polygon","coordinates":[[[-73.660408,-7.1971786],[-73.6523466,-7.1972607],[-73.6522915,-7.1918678],[-73.6603529,-7.1917857],[-73.660408,-7.1971786]]]}},{"type":"Feature","id":"AC-Y855-X87","properties":{"id":"AC-Y855-X87","grid_x":87,"grid_y":855,"centroid":[-73.6482883,-7.1946053],"aggregation":"none","score_gradboost":0.0115378,"score_random_forest":0.0176155,"score_logistic_regression":0.0595376,"score_fuzzy_knn_k29":0.0377873},"geometry":{"type":"Polygon","coordinates":[[[-73.6523466,-7.1972607],[-73.644285,-7.1973427],[-73.6442301,-7.1919498],[-73.6522915,-7.1918678],[-73.6523466,-7.1972607]]]}},{"type":"Feature","id":"AC-Y855-X88","properties":{"id":"AC-Y855-X88","grid_x":88,"grid_y":855,"centroid":[-73.6402268,-7.1946872],"aggregation":"none","score_gradboost":0.0071417,"score_random_forest":0.0099465,"score_logistic_regression":0.0553542,"score_fuzzy_knn_k29":0.0180271},"geometry":{"type":"Polygon","coordinates":[[[-73.644285,-7.1973427],[-73.6362234,-7.1974246],[-73.6361686,-7.1920316],[-73.6442301,-7.1919498],[-73.644285,-7.1973427]]]}},{"type":"Feature","id":"AC-Y855-X89","properties":{"id":"AC-Y855-X89","grid_x":89,"grid_y":855,"centroid":[-73.6321652,-7.194769],"aggregation":"none","score_gradboost":0.0153963,"score_random_forest":0.0085934,"score_logistic_regression":0.0705801,"score_fuzzy_knn_k29":0.0331102},"geometry":{"type":"Polygon","coordinates":[[[-73.6362234,-7.1974246],[-73.6281617,-7.1975064],[-73.628107,-7.1921132],[-73.6361686,-7.1920316],[-73.6362234,-7.1974246]]]}},{"type":"Feature","id":"AC-Y856-X80","properties":{"id":"AC-Y856-X80","grid_x":80,"grid_y":856,"centroid":[-73.7046607,-7.1886354],"aggregation":"none","score_gradboost":0.078664,"score_random_forest":0.0707845,"score_logistic_regression":0.0058458,"score_fuzzy_knn_k29":0.098541},"geometry":{"type":"Polygon","coordinates":[[[-73.7087189,-7.1912902],[-73.7006581,-7.1913731],[-73.7006026,-7.1859806],[-73.7086632,-7.1858977],[-73.7087189,-7.1912902]]]}},{"type":"Feature","id":"AC-Y856-X81","properties":{"id":"AC-Y856-X81","grid_x":81,"grid_y":856,"centroid":[-73.6965999,-7.1887182],"aggregation":"none","score_gradboost":0.1004428,"score_random_forest":0.1314069,"score_logistic_regression":0.0359223,"score_fuzzy_knn_k29":0.0436661},"geometry":{"type":"Polygon","coordinates":[[[-73.7006581,-7.1913731],[-73.6925973,-7.1914559],[-73.6925418,-7.1860633],[-73.7006026,-7.1859806],[-73.7006581,-7.1913731]]]}},{"type":"Feature","id":"AC-Y856-X82","properties":{"id":"AC-Y856-X82","grid_x":82,"grid_y":856,"centroid":[-73.6885391,-7.1888009],"aggregation":"none","score_gradboost":0.1004428,"score_random_forest":0.1165809,"score_logistic_regression":0.0383739,"score_fuzzy_knn_k29":0.0475676},"geometry":{"type":"Polygon","coordinates":[[[-73.6925973,-7.1914559],[-73.6845363,-7.1915386],[-73.6844809,-7.1861459],[-73.6925418,-7.1860633],[-73.6925973,-7.1914559]]]}},{"type":"Feature","id":"AC-Y856-X83","properties":{"id":"AC-Y856-X83","grid_x":83,"grid_y":856,"centroid":[-73.6804781,-7.1888835],"aggregation":"none","score_gradboost":0.0472551,"score_random_forest":0.0368158,"score_logistic_regression":0.0383847,"score_fuzzy_knn_k29":0.0437339},"geometry":{"type":"Polygon","coordinates":[[[-73.6845363,-7.1915386],[-73.6764753,-7.1916211],[-73.67642,-7.1862283],[-73.6844809,-7.1861459],[-73.6845363,-7.1915386]]]}},{"type":"Feature","id":"AC-Y856-X84","properties":{"id":"AC-Y856-X84","grid_x":84,"grid_y":856,"centroid":[-73.6724171,-7.1889659],"aggregation":"none","score_gradboost":0.0525629,"score_random_forest":0.0772344,"score_logistic_regression":0.0505971,"score_fuzzy_knn_k29":0.1045574},"geometry":{"type":"Polygon","coordinates":[[[-73.6764753,-7.1916211],[-73.6684141,-7.1917035],[-73.6683589,-7.1863107],[-73.67642,-7.1862283],[-73.6764753,-7.1916211]]]}},{"type":"Feature","id":"AC-Y856-X85","properties":{"id":"AC-Y856-X85","grid_x":85,"grid_y":856,"centroid":[-73.6643559,-7.1890482],"aggregation":"none","score_gradboost":0.019308,"score_random_forest":0.0396736,"score_logistic_regression":0.0484135,"score_fuzzy_knn_k29":0.0656101},"geometry":{"type":"Polygon","coordinates":[[[-73.6684141,-7.1917035],[-73.6603529,-7.1917857],[-73.6602978,-7.1863928],[-73.6683589,-7.1863107],[-73.6684141,-7.1917035]]]}},{"type":"Feature","id":"AC-Y856-X86","properties":{"id":"AC-Y856-X86","grid_x":86,"grid_y":856,"centroid":[-73.6562947,-7.1891303],"aggregation":"none","score_gradboost":0.013007,"score_random_forest":0.013734,"score_logistic_regression":0.0517278,"score_fuzzy_knn_k29":0.0591662},"geometry":{"type":"Polygon","coordinates":[[[-73.6603529,-7.1917857],[-73.6522915,-7.1918678],[-73.6522365,-7.1864749],[-73.6602978,-7.1863928],[-73.6603529,-7.1917857]]]}},{"type":"Feature","id":"AC-Y856-X87","properties":{"id":"AC-Y856-X87","grid_x":87,"grid_y":856,"centroid":[-73.6482334,-7.1892123],"aggregation":"none","score_gradboost":0.0184128,"score_random_forest":0.0112467,"score_logistic_regression":0.0622903,"score_fuzzy_knn_k29":0.0653102},"geometry":{"type":"Polygon","coordinates":[[[-73.6522915,-7.1918678],[-73.6442301,-7.1919498],[-73.6441752,-7.1865568],[-73.6522365,-7.1864749],[-73.6522915,-7.1918678]]]}},{"type":"Feature","id":"AC-Y856-X88","properties":{"id":"AC-Y856-X88","grid_x":88,"grid_y":856,"centroid":[-73.6401719,-7.1892942],"aggregation":"none","score_gradboost":0.0525097,"score_random_forest":0.0296575,"score_logistic_regression":0.0721046,"score_fuzzy_knn_k29":0.0628837},"geometry":{"type":"Polygon","coordinates":[[[-73.6442301,-7.1919498],[-73.6361686,-7.1920316],[-73.6361138,-7.1866385],[-73.6441752,-7.1865568],[-73.6442301,-7.1919498]]]}},{"type":"Feature","id":"AC-Y856-X89","properties":{"id":"AC-Y856-X89","grid_x":89,"grid_y":856,"centroid":[-73.6321104,-7.1893759],"aggregation":"none","score_gradboost":0.0139705,"score_random_forest":0.0031003,"score_logistic_regression":0.0714097,"score_fuzzy_knn_k29":0.0381512},"geometry":{"type":"Polygon","coordinates":[[[-73.6361686,-7.1920316],[-73.628107,-7.1921132],[-73.6280523,-7.1867201],[-73.6361138,-7.1866385],[-73.6361686,-7.1920316]]]}},{"type":"Feature","id":"AC-Y857-X80","properties":{"id":"AC-Y857-X80","grid_x":80,"grid_y":857,"centroid":[-73.7046051,-7.1832429],"aggregation":"none","score_gradboost":0.1572902,"score_random_forest":0.1032594,"score_logistic_regression":0.0059222,"score_fuzzy_knn_k29":0.1077703},"geometry":{"type":"Polygon","coordinates":[[[-73.7086632,-7.1858977],[-73.7006026,-7.1859806],[-73.700547,-7.180588],[-73.7086076,-7.1805052],[-73.7086632,-7.1858977]]]}},{"type":"Feature","id":"AC-Y857-X81","properties":{"id":"AC-Y857-X81","grid_x":81,"grid_y":857,"centroid":[-73.6965444,-7.1833256],"aggregation":"none","score_gradboost":0.057849,"score_random_forest":0.0848163,"score_logistic_regression":0.0306926,"score_fuzzy_knn_k29":0.0213335},"geometry":{"type":"Polygon","coordinates":[[[-73.7006026,-7.1859806],[-73.6925418,-7.1860633],[-73.6924864,-7.1806707],[-73.700547,-7.180588],[-73.7006026,-7.1859806]]]}},{"type":"Feature","id":"AC-Y857-X82","properties":{"id":"AC-Y857-X82","grid_x":82,"grid_y":857,"centroid":[-73.6884837,-7.1834083],"aggregation":"none","score_gradboost":0.0511653,"score_random_forest":0.0546411,"score_logistic_regression":0.0380476,"score_fuzzy_knn_k29":0.0527504},"geometry":{"type":"Polygon","coordinates":[[[-73.6925418,-7.1860633],[-73.6844809,-7.1861459],[-73.6844256,-7.1807532],[-73.6924864,-7.1806707],[-73.6925418,-7.1860633]]]}},{"type":"Feature","id":"AC-Y857-X83","properties":{"id":"AC-Y857-X83","grid_x":83,"grid_y":857,"centroid":[-73.6804228,-7.1834908],"aggregation":"none","score_gradboost":0.0447755,"score_random_forest":0.0747774,"score_logistic_regression":0.0433013,"score_fuzzy_knn_k29":0.0796128},"geometry":{"type":"Polygon","coordinates":[[[-73.6844809,-7.1861459],[-73.67642,-7.1862283],[-73.6763647,-7.1808356],[-73.6844256,-7.1807532],[-73.6844809,-7.1861459]]]}},{"type":"Feature","id":"AC-Y857-X84","properties":{"id":"AC-Y857-X84","grid_x":84,"grid_y":857,"centroid":[-73.6723619,-7.1835731],"aggregation":"none","score_gradboost":0.0658075,"score_random_forest":0.1102499,"score_logistic_regression":0.0484441,"score_fuzzy_knn_k29":0.1077182},"geometry":{"type":"Polygon","coordinates":[[[-73.67642,-7.1862283],[-73.6683589,-7.1863107],[-73.6683038,-7.1809178],[-73.6763647,-7.1808356],[-73.67642,-7.1862283]]]}},{"type":"Feature","id":"AC-Y857-X85","properties":{"id":"AC-Y857-X85","grid_x":85,"grid_y":857,"centroid":[-73.6643008,-7.1836553],"aggregation":"none","score_gradboost":0.0185217,"score_random_forest":0.0506614,"score_logistic_regression":0.0456913,"score_fuzzy_knn_k29":0.0685984},"geometry":{"type":"Polygon","coordinates":[[[-73.6683589,-7.1863107],[-73.6602978,-7.1863928],[-73.6602427,-7.181],[-73.6683038,-7.1809178],[-73.6683589,-7.1863107]]]}},{"type":"Feature","id":"AC-Y857-X86","properties":{"id":"AC-Y857-X86","grid_x":86,"grid_y":857,"centroid":[-73.6562397,-7.1837374],"aggregation":"none","score_gradboost":0.0255489,"score_random_forest":0.0350054,"score_logistic_regression":0.0562382,"score_fuzzy_knn_k29":0.0807163},"geometry":{"type":"Polygon","coordinates":[[[-73.6602978,-7.1863928],[-73.6522365,-7.1864749],[-73.6521816,-7.1810819],[-73.6602427,-7.181],[-73.6602978,-7.1863928]]]}},{"type":"Feature","id":"AC-Y857-X87","properties":{"id":"AC-Y857-X87","grid_x":87,"grid_y":857,"centroid":[-73.6481784,-7.1838193],"aggregation":"none","score_gradboost":0.0248311,"score_random_forest":0.037215,"score_logistic_regression":0.0617036,"score_fuzzy_knn_k29":0.0807643},"geometry":{"type":"Polygon","coordinates":[[[-73.6522365,-7.1864749],[-73.6441752,-7.1865568],[-73.6441204,-7.1811638],[-73.6521816,-7.1810819],[-73.6522365,-7.1864749]]]}},{"type":"Feature","id":"AC-Y857-X88","properties":{"id":"AC-Y857-X88","grid_x":88,"grid_y":857,"centroid":[-73.6401171,-7.1839011],"aggregation":"none","score_gradboost":0.0195715,"score_random_forest":0.009935,"score_logistic_regression":0.0619229,"score_fuzzy_knn_k29":0.0696138},"geometry":{"type":"Polygon","coordinates":[[[-73.6441752,-7.1865568],[-73.6361138,-7.1866385],[-73.636059,-7.1812455],[-73.6441204,-7.1811638],[-73.6441752,-7.1865568]]]}},{"type":"Feature","id":"AC-Y857-X89","properties":{"id":"AC-Y857-X89","grid_x":89,"grid_y":857,"centroid":[-73.6320557,-7.1839828],"aggregation":"none","score_gradboost":0.0157927,"score_random_forest":0.0064347,"score_logistic_regression":0.0721702,"score_fuzzy_knn_k29":0.0635192},"geometry":{"type":"Polygon","coordinates":[[[-73.6361138,-7.1866385],[-73.6280523,-7.1867201],[-73.6279976,-7.181327],[-73.636059,-7.1812455],[-73.6361138,-7.1866385]]]}},{"type":"Feature","id":"AC-Y858-X80","properties":{"id":"AC-Y858-X80","grid_x":80,"grid_y":858,"centroid":[-73.7045496,-7.1778503],"aggregation":"none","score_gradboost":0.120213,"score_random_forest":0.0648193,"score_logistic_regression":0.0061844,"score_fuzzy_knn_k29":0.1116239},"geometry":{"type":"Polygon","coordinates":[[[-73.7086076,-7.1805052],[-73.700547,-7.180588],[-73.7004916,-7.1751954],[-73.708552,-7.1751127],[-73.7086076,-7.1805052]]]}},{"type":"Feature","id":"AC-Y858-X81","properties":{"id":"AC-Y858-X81","grid_x":81,"grid_y":858,"centroid":[-73.696489,-7.1779331],"aggregation":"none","score_gradboost":0.0531893,"score_random_forest":0.0537597,"score_logistic_regression":0.0347751,"score_fuzzy_knn_k29":0.0515013},"geometry":{"type":"Polygon","coordinates":[[[-73.700547,-7.180588],[-73.6924864,-7.1806707],[-73.692431,-7.175278],[-73.7004916,-7.1751954],[-73.700547,-7.180588]]]}},{"type":"Feature","id":"AC-Y858-X82","properties":{"id":"AC-Y858-X82","grid_x":82,"grid_y":858,"centroid":[-73.6884283,-7.1780156],"aggregation":"none","score_gradboost":0.0531893,"score_random_forest":0.048155,"score_logistic_regression":0.0337841,"score_fuzzy_knn_k29":0.0488234},"geometry":{"type":"Polygon","coordinates":[[[-73.6924864,-7.1806707],[-73.6844256,-7.1807532],[-73.6843703,-7.1753605],[-73.692431,-7.175278],[-73.6924864,-7.1806707]]]}},{"type":"Feature","id":"AC-Y858-X83","properties":{"id":"AC-Y858-X83","grid_x":83,"grid_y":858,"centroid":[-73.6803676,-7.1780981],"aggregation":"none","score_gradboost":0.040309,"score_random_forest":0.0611717,"score_logistic_regression":0.0355973,"score_fuzzy_knn_k29":0.0501762},"geometry":{"type":"Polygon","coordinates":[[[-73.6844256,-7.1807532],[-73.6763647,-7.1808356],[-73.6763095,-7.1754428],[-73.6843703,-7.1753605],[-73.6844256,-7.1807532]]]}},{"type":"Feature","id":"AC-Y858-X84","properties":{"id":"AC-Y858-X84","grid_x":84,"grid_y":858,"centroid":[-73.6723067,-7.1781803],"aggregation":"none","score_gradboost":0.040365,"score_random_forest":0.0719218,"score_logistic_regression":0.0448029,"score_fuzzy_knn_k29":0.0834406},"geometry":{"type":"Polygon","coordinates":[[[-73.6763647,-7.1808356],[-73.6683038,-7.1809178],[-73.6682487,-7.175525],[-73.6763095,-7.1754428],[-73.6763647,-7.1808356]]]}},{"type":"Feature","id":"AC-Y858-X85","properties":{"id":"AC-Y858-X85","grid_x":85,"grid_y":858,"centroid":[-73.6642457,-7.1782625],"aggregation":"none","score_gradboost":0.0424642,"score_random_forest":0.0829431,"score_logistic_regression":0.0437358,"score_fuzzy_knn_k29":0.0728677},"geometry":{"type":"Polygon","coordinates":[[[-73.6683038,-7.1809178],[-73.6602427,-7.181],[-73.6601877,-7.1756071],[-73.6682487,-7.175525],[-73.6683038,-7.1809178]]]}},{"type":"Feature","id":"AC-Y858-X86","properties":{"id":"AC-Y858-X86","grid_x":86,"grid_y":858,"centroid":[-73.6561847,-7.1783445],"aggregation":"none","score_gradboost":0.0296535,"score_random_forest":0.0611029,"score_logistic_regression":0.050002,"score_fuzzy_knn_k29":0.0795241},"geometry":{"type":"Polygon","coordinates":[[[-73.6602427,-7.181],[-73.6521816,-7.1810819],[-73.6521267,-7.175689],[-73.6601877,-7.1756071],[-73.6602427,-7.181]]]}},{"type":"Feature","id":"AC-Y858-X87","properties":{"id":"AC-Y858-X87","grid_x":87,"grid_y":858,"centroid":[-73.6481235,-7.1784264],"aggregation":"none","score_gradboost":0.0255489,"score_random_forest":0.039604,"score_logistic_regression":0.056823,"score_fuzzy_knn_k29":0.0879527},"geometry":{"type":"Polygon","coordinates":[[[-73.6521816,-7.1810819],[-73.6441204,-7.1811638],[-73.6440655,-7.1757708],[-73.6521267,-7.175689],[-73.6521816,-7.1810819]]]}},{"type":"Feature","id":"AC-Y858-X88","properties":{"id":"AC-Y858-X88","grid_x":88,"grid_y":858,"centroid":[-73.6400623,-7.1785081],"aggregation":"none","score_gradboost":0.02644,"score_random_forest":0.048268,"score_logistic_regression":0.0561404,"score_fuzzy_knn_k29":0.0739191},"geometry":{"type":"Polygon","coordinates":[[[-73.6441204,-7.1811638],[-73.636059,-7.1812455],[-73.6360043,-7.1758524],[-73.6440655,-7.1757708],[-73.6441204,-7.1811638]]]}},{"type":"Feature","id":"AC-Y859-X80","properties":{"id":"AC-Y859-X80","grid_x":80,"grid_y":859,"centroid":[-73.7044941,-7.1724578],"aggregation":"none","score_gradboost":0.1247204,"score_random_forest":0.0609924,"score_logistic_regression":0.0060488,"score_fuzzy_knn_k29":0.1109176},"geometry":{"type":"Polygon","coordinates":[[[-73.708552,-7.1751127],[-73.7004916,-7.1751954],[-73.7004361,-7.1698029],[-73.7084965,-7.1697202],[-73.708552,-7.1751127]]]}},{"type":"Feature","id":"AC-Y859-X81","properties":{"id":"AC-Y859-X81","grid_x":81,"grid_y":859,"centroid":[-73.6964336,-7.1725405],"aggregation":"none","score_gradboost":0.0437665,"score_random_forest":0.0506884,"score_logistic_regression":0.0307379,"score_fuzzy_knn_k29":0.0445239},"geometry":{"type":"Polygon","coordinates":[[[-73.7004916,-7.1751954],[-73.692431,-7.175278],[-73.6923756,-7.1698854],[-73.7004361,-7.1698029],[-73.7004916,-7.1751954]]]}},{"type":"Feature","id":"AC-Y859-X82","properties":{"id":"AC-Y859-X82","grid_x":82,"grid_y":859,"centroid":[-73.688373,-7.172623],"aggregation":"none","score_gradboost":0.0463529,"score_random_forest":0.0488698,"score_logistic_regression":0.0368483,"score_fuzzy_knn_k29":0.0738109},"geometry":{"type":"Polygon","coordinates":[[[-73.692431,-7.175278],[-73.6843703,-7.1753605],[-73.6843151,-7.1699678],[-73.6923756,-7.1698854],[-73.692431,-7.175278]]]}},{"type":"Feature","id":"AC-Y859-X83","properties":{"id":"AC-Y859-X83","grid_x":83,"grid_y":859,"centroid":[-73.6803123,-7.1727053],"aggregation":"none","score_gradboost":0.0255532,"score_random_forest":0.0444382,"score_logistic_regression":0.0370209,"score_fuzzy_knn_k29":0.074335},"geometry":{"type":"Polygon","coordinates":[[[-73.6843703,-7.1753605],[-73.6763095,-7.1754428],[-73.6762544,-7.1700501],[-73.6843151,-7.1699678],[-73.6843703,-7.1753605]]]}},{"type":"Feature","id":"AC-Y859-X84","properties":{"id":"AC-Y859-X84","grid_x":84,"grid_y":859,"centroid":[-73.6722516,-7.1727876],"aggregation":"none","score_gradboost":0.0540309,"score_random_forest":0.0846378,"score_logistic_regression":0.0472492,"score_fuzzy_knn_k29":0.1069972},"geometry":{"type":"Polygon","coordinates":[[[-73.6763095,-7.1754428],[-73.6682487,-7.175525],[-73.6681936,-7.1701322],[-73.6762544,-7.1700501],[-73.6763095,-7.1754428]]]}},{"type":"Feature","id":"AC-Y859-X85","properties":{"id":"AC-Y859-X85","grid_x":85,"grid_y":859,"centroid":[-73.6641907,-7.1728697],"aggregation":"none","score_gradboost":0.0219462,"score_random_forest":0.0535417,"score_logistic_regression":0.0433359,"score_fuzzy_knn_k29":0.0789617},"geometry":{"type":"Polygon","coordinates":[[[-73.6682487,-7.175525],[-73.6601877,-7.1756071],[-73.6601328,-7.1702142],[-73.6681936,-7.1701322],[-73.6682487,-7.175525]]]}},{"type":"Feature","id":"AC-Y859-X86","properties":{"id":"AC-Y859-X86","grid_x":86,"grid_y":859,"centroid":[-73.6561298,-7.1729516],"aggregation":"none","score_gradboost":0.0498209,"score_random_forest":0.1028104,"score_logistic_regression":0.0525343,"score_fuzzy_knn_k29":0.1155632},"geometry":{"type":"Polygon","coordinates":[[[-73.6601877,-7.1756071],[-73.6521267,-7.175689],[-73.6520718,-7.1702961],[-73.6601328,-7.1702142],[-73.6601877,-7.1756071]]]}},{"type":"Feature","id":"AC-Y859-X87","properties":{"id":"AC-Y859-X87","grid_x":87,"grid_y":859,"centroid":[-73.6480687,-7.1730334],"aggregation":"none","score_gradboost":0.0442212,"score_random_forest":0.0928251,"score_logistic_regression":0.0495142,"score_fuzzy_knn_k29":0.082531},"geometry":{"type":"Polygon","coordinates":[[[-73.6521267,-7.175689],[-73.6440655,-7.1757708],[-73.6440108,-7.1703778],[-73.6520718,-7.1702961],[-73.6521267,-7.175689]]]}},{"type":"Feature","id":"AC-Y859-X88","properties":{"id":"AC-Y859-X88","grid_x":88,"grid_y":859,"centroid":[-73.6400076,-7.1731151],"aggregation":"none","score_gradboost":0.035714,"score_random_forest":0.0490715,"score_logistic_regression":0.0644882,"score_fuzzy_knn_k29":0.1307725},"geometry":{"type":"Polygon","coordinates":[[[-73.6440655,-7.1757708],[-73.6360043,-7.1758524],[-73.6359496,-7.1704593],[-73.6440108,-7.1703778],[-73.6440655,-7.1757708]]]}},{"type":"Feature","id":"AC-Y860-X80","properties":{"id":"AC-Y860-X80","grid_x":80,"grid_y":860,"centroid":[-73.7044386,-7.1670653],"aggregation":"none","score_gradboost":0.0244184,"score_random_forest":0.0360439,"score_logistic_regression":0.0282327,"score_fuzzy_knn_k29":0.0189847},"geometry":{"type":"Polygon","coordinates":[[[-73.7084965,-7.1697202],[-73.7004361,-7.1698029],[-73.7003807,-7.1644103],[-73.708441,-7.1643277],[-73.7084965,-7.1697202]]]}},{"type":"Feature","id":"AC-Y860-X81","properties":{"id":"AC-Y860-X81","grid_x":81,"grid_y":860,"centroid":[-73.6963782,-7.1671479],"aggregation":"none","score_gradboost":0.0522861,"score_random_forest":0.060294,"score_logistic_regression":0.0324351,"score_fuzzy_knn_k29":0.0426726},"geometry":{"type":"Polygon","coordinates":[[[-73.7004361,-7.1698029],[-73.6923756,-7.1698854],[-73.6923204,-7.1644928],[-73.7003807,-7.1644103],[-73.7004361,-7.1698029]]]}},{"type":"Feature","id":"AC-Y860-X82","properties":{"id":"AC-Y860-X82","grid_x":82,"grid_y":860,"centroid":[-73.6883177,-7.1672303],"aggregation":"none","score_gradboost":0.0522861,"score_random_forest":0.0616298,"score_logistic_regression":0.0373997,"score_fuzzy_knn_k29":0.0518897},"geometry":{"type":"Polygon","coordinates":[[[-73.6923756,-7.1698854],[-73.6843151,-7.1699678],[-73.6842599,-7.1645751],[-73.6923204,-7.1644928],[-73.6923756,-7.1698854]]]}},{"type":"Feature","id":"AC-Y860-X83","properties":{"id":"AC-Y860-X83","grid_x":83,"grid_y":860,"centroid":[-73.6802572,-7.1673126],"aggregation":"none","score_gradboost":0.0377671,"score_random_forest":0.0685231,"score_logistic_regression":0.0426361,"score_fuzzy_knn_k29":0.0821777},"geometry":{"type":"Polygon","coordinates":[[[-73.6843151,-7.1699678],[-73.6762544,-7.1700501],[-73.6761993,-7.1646573],[-73.6842599,-7.1645751],[-73.6843151,-7.1699678]]]}},{"type":"Feature","id":"AC-Y860-X84","properties":{"id":"AC-Y860-X84","grid_x":84,"grid_y":860,"centroid":[-73.6721965,-7.1673948],"aggregation":"none","score_gradboost":0.02663,"score_random_forest":0.0582556,"score_logistic_regression":0.0437958,"score_fuzzy_knn_k29":0.1054135},"geometry":{"type":"Polygon","coordinates":[[[-73.6762544,-7.1700501],[-73.6681936,-7.1701322],[-73.6681386,-7.1647394],[-73.6761993,-7.1646573],[-73.6762544,-7.1700501]]]}},{"type":"Feature","id":"AC-Y860-X85","properties":{"id":"AC-Y860-X85","grid_x":85,"grid_y":860,"centroid":[-73.6641357,-7.1674768],"aggregation":"none","score_gradboost":0.044466,"score_random_forest":0.0626669,"score_logistic_regression":0.0479942,"score_fuzzy_knn_k29":0.1095896},"geometry":{"type":"Polygon","coordinates":[[[-73.6681936,-7.1701322],[-73.6601328,-7.1702142],[-73.6600779,-7.1648213],[-73.6681386,-7.1647394],[-73.6681936,-7.1701322]]]}},{"type":"Feature","id":"AC-Y860-X86","properties":{"id":"AC-Y860-X86","grid_x":86,"grid_y":860,"centroid":[-73.6560749,-7.1675587],"aggregation":"none","score_gradboost":0.1236965,"score_random_forest":0.1053385,"score_logistic_regression":0.0626566,"score_fuzzy_knn_k29":0.1683083},"geometry":{"type":"Polygon","coordinates":[[[-73.6601328,-7.1702142],[-73.6520718,-7.1702961],[-73.652017,-7.1649031],[-73.6600779,-7.1648213],[-73.6601328,-7.1702142]]]}},{"type":"Feature","id":"AC-Y861-X80","properties":{"id":"AC-Y861-X80","grid_x":80,"grid_y":861,"centroid":[-73.7043832,-7.1616727],"aggregation":"none","score_gradboost":0.0958296,"score_random_forest":0.141157,"score_logistic_regression":0.0379904,"score_fuzzy_knn_k29":0.0669748},"geometry":{"type":"Polygon","coordinates":[[[-73.708441,-7.1643277],[-73.7003807,-7.1644103],[-73.7003254,-7.1590177],[-73.7083856,-7.1589352],[-73.708441,-7.1643277]]]}},{"type":"Feature","id":"AC-Y861-X81","properties":{"id":"AC-Y861-X81","grid_x":81,"grid_y":861,"centroid":[-73.6963229,-7.1617553],"aggregation":"none","score_gradboost":0.1004428,"score_random_forest":0.1243411,"score_logistic_regression":0.0361937,"score_fuzzy_knn_k29":0.0451659},"geometry":{"type":"Polygon","coordinates":[[[-73.7003807,-7.1644103],[-73.6923204,-7.1644928],[-73.6922651,-7.1591002],[-73.7003254,-7.1590177],[-73.7003807,-7.1644103]]]}},{"type":"Feature","id":"AC-Y861-X82","properties":{"id":"AC-Y861-X82","grid_x":82,"grid_y":861,"centroid":[-73.6882625,-7.1618376],"aggregation":"none","score_gradboost":0.1004428,"score_random_forest":0.1458158,"score_logistic_regression":0.0401553,"score_fuzzy_knn_k29":0.0520948},"geometry":{"type":"Polygon","coordinates":[[[-73.6923204,-7.1644928],[-73.6842599,-7.1645751],[-73.6842047,-7.1591824],[-73.6922651,-7.1591002],[-73.6923204,-7.1644928]]]}},{"type":"Feature","id":"AC-Y861-X83","properties":{"id":"AC-Y861-X83","grid_x":83,"grid_y":861,"centroid":[-73.680202,-7.1619199],"aggregation":"none","score_gradboost":0.0755443,"score_random_forest":0.0849633,"score_logistic_regression":0.0455716,"score_fuzzy_knn_k29":0.0859594},"geometry":{"type":"Polygon","coordinates":[[[-73.6842599,-7.1645751],[-73.6761993,-7.1646573],[-73.6761442,-7.1592646],[-73.6842047,-7.1591824],[-73.6842599,-7.1645751]]]}},{"type":"Feature","id":"AC-Y861-X84","properties":{"id":"AC-Y861-X84","grid_x":84,"grid_y":861,"centroid":[-73.6721415,-7.162002],"aggregation":"none","score_gradboost":0.0394765,"score_random_forest":0.0682841,"score_logistic_regression":0.0452061,"score_fuzzy_knn_k29":0.0860347},"geometry":{"type":"Polygon","coordinates":[[[-73.6761993,-7.1646573],[-73.6681386,-7.1647394],[-73.6680836,-7.1593466],[-73.6761442,-7.1592646],[-73.6761993,-7.1646573]]]}},{"type":"Feature","id":"AC-Y862-X80","properties":{"id":"AC-Y862-X80","grid_x":80,"grid_y":862,"centroid":[-73.7043278,-7.1562802],"aggregation":"none","score_gradboost":0.0327306,"score_random_forest":0.0352093,"score_logistic_regression":0.0344707,"score_fuzzy_knn_k29":0.0344696},"geometry":{"type":"Polygon","coordinates":[[[-73.7083856,-7.1589352],[-73.7003254,-7.1590177],[-73.7002701,-7.1536252],[-73.7083302,-7.1535427],[-73.7083856,-7.1589352]]]}},{"type":"Feature","id":"AC-Y862-X81","properties":{"id":"AC-Y862-X81","grid_x":81,"grid_y":862,"centroid":[-73.6962676,-7.1563627],"aggregation":"none","score_gradboost":0.0333559,"score_random_forest":0.0330065,"score_logistic_regression":0.0367715,"score_fuzzy_knn_k29":0.0384614},"geometry":{"type":"Polygon","coordinates":[[[-73.7003254,-7.1590177],[-73.6922651,-7.1591002],[-73.6922099,-7.1537075],[-73.7002701,-7.1536252],[-73.7003254,-7.1590177]]]}},{"type":"Feature","id":"AC-Y862-X82","properties":{"id":"AC-Y862-X82","grid_x":82,"grid_y":862,"centroid":[-73.6882073,-7.156445],"aggregation":"none","score_gradboost":0.0333559,"score_random_forest":0.0373437,"score_logistic_regression":0.0400284,"score_fuzzy_knn_k29":0.0434487},"geometry":{"type":"Polygon","coordinates":[[[-73.6922651,-7.1591002],[-73.6842047,-7.1591824],[-73.6841496,-7.1537897],[-73.6922099,-7.1537075],[-73.6922651,-7.1591002]]]}},{"type":"Feature","id":"AC-Y863-X80","properties":{"id":"AC-Y863-X80","grid_x":80,"grid_y":863,"centroid":[-73.7042725,-7.1508877],"aggregation":"none","score_gradboost":0.0248535,"score_random_forest":0.0116222,"score_logistic_regression":0.033088,"score_fuzzy_knn_k29":0.0130418},"geometry":{"type":"Polygon","coordinates":[[[-73.7083302,-7.1535427],[-73.7002701,-7.1536252],[-73.7002148,-7.1482326],[-73.7082748,-7.1481502],[-73.7083302,-7.1535427]]]}}]}